{"type":"FeatureCollection","features":[{"type":"Feature","geometry":{"type":"Point","coordinates":[106.8597342,-6.2144639]},"properties":{"event_id":"JTG-0001","date":"2021-02-19","year":2021,"kelurahan":"Kampung Melayu","area":"Kebon Pala","rt":"","rw":"","location":"Kebon Pala","event_type":"banjir","cause":"Luapan Kali Ciliwung + hujan deras","source":"ANTARA","source_url":"https://www.antaranews.com/view/2008197/banjir-rendam-rumah-penduduk-di-jakarta-timur","coordinate_method":"kelurahan_proxy","coordinate_note":"Coordinate is the official Jakarta kelurahan-office point used as a proxy because the report did not provide a precise point.","depth_cm":100.0}},{"type":"Feature","geometry":{"type":"Point","coordinates":[106.8597342,-6.2144639]},"properties":{"event_id":"JTG-0002","date":"2021-02-20","year":2021,"kelurahan":"Kampung Melayu","area":"Kebon Pala","rt":"","rw":"","location":"Jl. Jatinegara Barat, Jembatan Tongtek","event_type":"genangan","cause":"Genangan/banjir","source":"ANTARA","source_url":"https://www.antaranews.com/berita/2010219/jalan-jatinegara-barat-tersendat-akibat-banjir","coordinate_method":"kelurahan_proxy","coordinate_note":"Coordinate is the official Jakarta kelurahan-office point used as a proxy because the report did not provide a precise point.","depth_cm":30.0}},{"type":"Feature","geometry":{"type":"Point","coordinates":[106.8597342,-6.2144639]},"properties":{"event_id":"JTG-0003","date":"2021-02-26","year":2021,"kelurahan":"Kampung Melayu","area":"Kebon Pala","rt":"05","rw":"11","location":"Kebon Pala RT 05/RW 11","event_type":"banjir","cause":"Luapan Kali Ciliwung + hujan lebat","source":"ANTARA","source_url":"https://www.antaranews.com/berita/2018232/permukiman-penduduk-di-kebon-pala-kembali-terendam-banjir","coordinate_method":"kelurahan_proxy","coordinate_note":"Coordinate is the official Jakarta kelurahan-office point used as a proxy because the report did not provide a precise point.","depth_cm":100.0}},{"type":"Feature","geometry":{"type":"Point","coordinates":[106.8674026,-6.2397888]},"properties":{"event_id":"JTG-0004","date":"2021-02-26","year":2021,"kelurahan":"Bidara Cina","area":"","rt":"07","rw":"","location":"RW 07 Bidara Cina","event_type":"banjir","cause":"Luapan Kali Ciliwung","source":"ANTARA","source_url":"https://www.antaranews.com/berita/2018457/banjir-rendam-rumah-penduduk-di-bidaracina","coordinate_method":"kelurahan_proxy","coordinate_note":"Coordinate is the official Jakarta kelurahan-office point used as a proxy because the report did not provide a precise point.","depth_cm":80.0}},{"type":"Feature","geometry":{"type":"Point","coordinates":[106.8597342,-6.2144639]},"properties":{"event_id":"JTG-0005","date":"2022-02-17","year":2022,"kelurahan":"Kampung Melayu","area":"Kebon Pala","rt":"04-05","rw":"","location":"RW 04-05 Kebon Pala","event_type":"banjir","cause":"Luapan Kali Ciliwung","source":"ANTARA","source_url":"https://www.antaranews.com/berita/2708901/banjir-setinggi-satu-meter-rendam-permukiman-warga-di-kebon-pala","coordinate_method":"kelurahan_proxy","coordinate_note":"Coordinate is the official Jakarta kelurahan-office point used as a proxy because the report did not provide a precise point.","depth_cm":100.0}},{"type":"Feature","geometry":{"type":"Point","coordinates":[106.8597342,-6.2144639]},"properties":{"event_id":"JTG-0006","date":"2022-06-01","year":2022,"kelurahan":"Kampung Melayu","area":"Kebon Pala","rt":"04","rw":"","location":"RW 04 Kebon Pala","event_type":"banjir","cause":"Banjir kiriman dari Bogor","source":"ANTARA","source_url":"https://www.antaranews.com/berita/2913337/banjir-mulai-surut-warga-kebon-pala-bersihkan-lumpur","coordinate_method":"kelurahan_proxy","coordinate_note":"Coordinate is the official Jakarta kelurahan-office point used as a proxy because the report did not provide a precise point.","depth_cm":70.0}},{"type":"Feature","geometry":{"type":"Point","coordinates":[106.8597342,-6.2144639]},"properties":{"event_id":"JTG-0007","date":"2022-06-11","year":2022,"kelurahan":"Kampung Melayu","area":"Kebon Pala","rt":"04-05","rw":"","location":"RW 04-05 Kebon Pala","event_type":"banjir","cause":"Luapan Kali Ciliwung","source":"ANTARA","source_url":"https://www.antaranews.com/berita/2933089/banjir-di-kebon-pala-berangsur-surut","coordinate_method":"kelurahan_proxy","coordinate_note":"Coordinate is the official Jakarta kelurahan-office point used as a proxy because the report did not provide a precise point.","depth_cm":50.0}},{"type":"Feature","geometry":{"type":"Point","coordinates":[106.8674026,-6.2397888]},"properties":{"event_id":"JTG-0008","date":"2022-10-10","year":2022,"kelurahan":"Bidara Cina","area":"","rt":"06-07","rw":"","location":"Jalan Kemuning / RW 06-07","event_type":"banjir","cause":"Luapan Ciliwung","source":"detikcom","source_url":"https://news.detik.com/berita/d-6338983/rw-07-bidara-cina-jatinegara-masih-banjir-tinggi-air-40-cm","coordinate_method":"kelurahan_proxy","coordinate_note":"Coordinate is the official Jakarta kelurahan-office point used as a proxy because the report did not provide a precise point.","depth_cm":100.0}},{"type":"Feature","geometry":{"type":"Point","coordinates":[106.8597342,-6.2144639]},"properties":{"event_id":"JTG-0009","date":"2022-11-06","year":2022,"kelurahan":"Kampung Melayu","area":"Kebon Pala","rt":"","rw":"","location":"Kebon Pala","event_type":"banjir","cause":"Luapan Kali Ciliwung","source":"Kompas TV","source_url":"https://www.youtube.com/watch?v=yT-s1c2MX1Q","coordinate_method":"kelurahan_proxy","coordinate_note":"Coordinate is the official Jakarta kelurahan-office point used as a proxy because the report did not provide a precise point.","depth_cm":100.0}},{"type":"Feature","geometry":{"type":"Point","coordinates":[106.8674026,-6.2397888]},"properties":{"event_id":"JTG-0010","date":"2023-02-12","year":2023,"kelurahan":"Bidara Cina","area":"","rt":"","rw":"","location":"Permukiman bantaran Ciliwung","event_type":"banjir","cause":"Hujan + luapan Kali Ciliwung","source":"ANTARA","source_url":"https://www.antaranews.com/berita/3392967/banjir-di-kelurahan-cawang-dan-bidara-cina-sudah-surut","coordinate_method":"kelurahan_proxy","coordinate_note":"Coordinate is the official Jakarta kelurahan-office point used as a proxy because the report did not provide a precise point.","depth_cm":50.0}},{"type":"Feature","geometry":{"type":"Point","coordinates":[106.8597342,-6.2144639]},"properties":{"event_id":"JTG-0011","date":"2023-02-27","year":2023,"kelurahan":"Kampung Melayu","area":"Kebon Pala","rt":"13","rw":"04","location":"Kebon Pala RT 13/RW 04","event_type":"banjir","cause":"Hujan tinggi + luapan Kali Ciliwung","source":"ANTARA","source_url":"https://www.antaranews.com/berita/3415701/permukiman-kebon-pala-terendam-hingga-175-m-akibat-luapan-ciliwung","coordinate_method":"kelurahan_proxy","coordinate_note":"Coordinate is the official Jakarta kelurahan-office point used as a proxy because the report did not provide a precise point.","depth_cm":175.0}},{"type":"Feature","geometry":{"type":"Point","coordinates":[106.8894818,-6.2379063]},"properties":{"event_id":"JTG-0012","date":"2023-02-27","year":2023,"kelurahan":"Cipinang Muara","area":"","rt":"12","rw":"13","location":"Jl. Cipinang Bali / RW 13","event_type":"banjir","cause":"Luapan Kali Sunter","source":"TribunJakarta","source_url":"https://www.youtube.com/watch?v=vy9c0kdYuEc","coordinate_method":"road_proxy","coordinate_note":"Coordinate is a representative point for the named road/locality, not a surveyed flood polygon.","depth_cm":60.0}},{"type":"Feature","geometry":{"type":"Point","coordinates":[106.8597342,-6.2144639]},"properties":{"event_id":"JTG-0013","date":"2023-03-14","year":2023,"kelurahan":"Kampung Melayu","area":"Kebon Pala","rt":"13","rw":"04","location":"Kebon Pala RT 13/RW 04","event_type":"banjir","cause":"Luapan Kali Ciliwung","source":"ANTARA","source_url":"https://www.antaranews.com/berita/3439857/permukiman-kebon-pala-terendam-banjir-akibat-luapan-kali-ciliwung","coordinate_method":"kelurahan_proxy","coordinate_note":"Coordinate is the official Jakarta kelurahan-office point used as a proxy because the report did not provide a precise point.","depth_cm":85.0}},{"type":"Feature","geometry":{"type":"Point","coordinates":[106.8597342,-6.2144639]},"properties":{"event_id":"JTG-0014","date":"2023-03-15","year":2023,"kelurahan":"Kampung Melayu","area":"Kebon Pala","rt":"13","rw":"04","location":"Jl. Kebon Pala RT 13/RW 04","event_type":"banjir","cause":"Luapan Kali Ciliwung","source":"ANTARA","source_url":"https://www.antaranews.com/berita/3441441/permukiman-kebon-pala-masih-terendam-banjir","coordinate_method":"kelurahan_proxy","coordinate_note":"Coordinate is the official Jakarta kelurahan-office point used as a proxy because the report did not provide a precise point.","depth_cm":85.0}},{"type":"Feature","geometry":{"type":"Point","coordinates":[106.86612,-6.23751]},"properties":{"event_id":"JTG-0015","date":"2023-03-15","year":2023,"kelurahan":"Bidara Cina","area":"Tanjung Lengkong","rt":"05","rw":"","location":"Tanjung Lengkong RT 05","event_type":"banjir","cause":"Luapan Kali Ciliwung","source":"kumparan","source_url":"https://kumparan.com/kumparannews/sempat-terendam-banjir-kini-wilayah-bidara-cina-sudah-surut-201GbMArAOP","coordinate_method":"locality_proxy","coordinate_note":"Coordinate is a locality/road representative point.","depth_cm":null}},{"type":"Feature","geometry":{"type":"Point","coordinates":[106.8597342,-6.2144639]},"properties":{"event_id":"JTG-0016","date":"2023-05-04","year":2023,"kelurahan":"Kampung Melayu","area":"Kebon Pala","rt":"13","rw":"04","location":"Kebon Pala RT 13/RW 04","event_type":"banjir","cause":"Luapan Kali Ciliwung","source":"ANTARA","source_url":"https://jatim.antaranews.com/berita/699063/kali-ciliwung-meluap-permukiman-kebon-pala-terendam-banjir","coordinate_method":"kelurahan_proxy","coordinate_note":"Coordinate is the official Jakarta kelurahan-office point used as a proxy because the report did not provide a precise point.","depth_cm":150.0}},{"type":"Feature","geometry":{"type":"Point","coordinates":[106.8597342,-6.2144639]},"properties":{"event_id":"JTG-0017","date":"2023-06-19","year":2023,"kelurahan":"Kampung Melayu","area":"Kebon Pala","rt":"10,13","rw":"04","location":"Kebon Pala RT 10 & 13/RW 04","event_type":"banjir","cause":"Luapan Kali Ciliwung","source":"ANTARA","source_url":"https://www.antaranews.com/berita/3596058/permukiman-kebon-pala-banjir-akibat-kali-ciliwung-meluap","coordinate_method":"kelurahan_proxy","coordinate_note":"Coordinate is the official Jakarta kelurahan-office point used as a proxy because the report did not provide a precise point.","depth_cm":150.0}},{"type":"Feature","geometry":{"type":"Point","coordinates":[106.8597342,-6.2144639]},"properties":{"event_id":"JTG-0018","date":"2024-01-31","year":2024,"kelurahan":"Kampung Melayu","area":"Kebon Pala","rt":"10,13","rw":"04","location":"Kebon Pala RT 10 & 13/RW 04","event_type":"banjir","cause":"Curah hujan tinggi","source":"ANTARA","source_url":"https://www.antaranews.com/berita/3940479/curah-hujan-tinggi-permukiman-warga-di-kebon-pala-banjir","coordinate_method":"kelurahan_proxy","coordinate_note":"Coordinate is the official Jakarta kelurahan-office point used as a proxy because the report did not provide a precise point.","depth_cm":65.0}},{"type":"Feature","geometry":{"type":"Point","coordinates":[106.8597342,-6.2144639]},"properties":{"event_id":"JTG-0019","date":"2024-03-14","year":2024,"kelurahan":"Kampung Melayu","area":"Kebon Pala","rt":"13","rw":"04","location":"Kebon Pala RT 13/RW 04","event_type":"banjir","cause":"Luapan Kali Ciliwung","source":"ANTARA","source_url":"https://www.antaranews.com/berita/4010397/ratusan-rumah-di-kebon-pala-terendam-banjir-hingga-75-cm","coordinate_method":"kelurahan_proxy","coordinate_note":"Coordinate is the official Jakarta kelurahan-office point used as a proxy because the report did not provide a precise point.","depth_cm":75.0}},{"type":"Feature","geometry":{"type":"Point","coordinates":[106.8597342,-6.2144639]},"properties":{"event_id":"JTG-0020","date":"2024-03-25","year":2024,"kelurahan":"Kampung Melayu","area":"Kebon Pala","rt":"04-05","rw":"","location":"Kebon Pala RW 04-05","event_type":"banjir","cause":"Luapan Kali Ciliwung","source":"ANTARA","source_url":"https://www.antaranews.com/berita/4027071/kali-ciliwung-meluap-permukiman-warga-kebon-pala-kembali-banjir","coordinate_method":"kelurahan_proxy","coordinate_note":"Coordinate is the official Jakarta kelurahan-office point used as a proxy because the report did not provide a precise point.","depth_cm":100.0}},{"type":"Feature","geometry":{"type":"Point","coordinates":[106.8597342,-6.2144639]},"properties":{"event_id":"JTG-0021","date":"2024-11-28","year":2024,"kelurahan":"Kampung Melayu","area":"Tanah Rendah/Kebon Pala","rt":"12","rw":"","location":"RT 12 RW 04; 16 RT RW 08 Tanah Rendah","event_type":"banjir","cause":"Luapan Kali Ciliwung","source":"detikcom","source_url":"https://news.detik.com/berita/d-7660859/ketua-rt-di-kebon-pala-sebut-banjir-sampai-2-meter-banyak-yang-belum-ngungsi","coordinate_method":"kelurahan_proxy","coordinate_note":"Coordinate is the official Jakarta kelurahan-office point used as a proxy because the report did not provide a precise point.","depth_cm":200.0}},{"type":"Feature","geometry":{"type":"Point","coordinates":[106.8652609,-6.2408127]},"properties":{"event_id":"JTG-0022","date":"2025-01-28","year":2025,"kelurahan":"Bidara Cina","area":"Baiduri Bulan / Tanjung Lengkong","rt":"6,12","rw":"11,03,07","location":"Jl. Baiduri Bulan; Jl. Tanjung Lengkong","event_type":"genangan","cause":"Katulampa & Depok Siaga 3; Ciliwung","source":"Pemkot Jakarta Timur","source_url":"https://timur.jakarta.go.id/ppid/storage/files/setko-260609-075654-x938X6Z0-REKAP_BANJIR_TAHUN_2025_compressed.pdf","coordinate_method":"road_proxy","coordinate_note":"Coordinate is a representative point for the named road/locality, not a surveyed flood polygon.","depth_cm":20.0}},{"type":"Feature","geometry":{"type":"Point","coordinates":[106.8674026,-6.2397888]},"properties":{"event_id":"JTG-0023","date":"2025-01-29","year":2025,"kelurahan":"Bidara Cina","area":"Baiduri Bulan / Tanjung Lengkong","rt":"6,12,5","rw":"11,03,07","location":"Jl. Baiduri Bulan; Jl. Tanjung Lengkong","event_type":"banjir","cause":"Katulampa & Depok Siaga 3; Ciliwung","source":"Pemkot Jakarta Timur","source_url":"https://timur.jakarta.go.id/ppid/storage/files/setko-260609-075654-x938X6Z0-REKAP_BANJIR_TAHUN_2025_compressed.pdf","coordinate_method":"road_proxy","coordinate_note":"Coordinate is a representative point for the named road/locality, not a surveyed flood polygon.","depth_cm":90.0}},{"type":"Feature","geometry":{"type":"Point","coordinates":[106.8597342,-6.2144639]},"properties":{"event_id":"JTG-0024","date":"2025-01-29","year":2025,"kelurahan":"Kampung Melayu","area":"Kebon Pala II","rt":"12,13,10,11","rw":"04,05","location":"Jl. Kebon Pala II","event_type":"banjir","cause":"Kenaikan debit Ciliwung; Depok & Katulampa Siaga 3","source":"Pemkot Jakarta Timur","source_url":"https://timur.jakarta.go.id/ppid/storage/files/setko-260609-075654-x938X6Z0-REKAP_BANJIR_TAHUN_2025_compressed.pdf","coordinate_method":"kelurahan_proxy","coordinate_note":"Coordinate is the official Jakarta kelurahan-office point used as a proxy because the report did not provide a precise point.","depth_cm":130.0}},{"type":"Feature","geometry":{"type":"Point","coordinates":[106.8597342,-6.2144639]},"properties":{"event_id":"JTG-0025","date":"2025-02-28","year":2025,"kelurahan":"Kampung Melayu","area":"Kebon Pala II","rt":"12,13,10,11","rw":"04,05","location":"Jl. Kebon Pala II","event_type":"genangan","cause":"Kenaikan debit Kali Ciliwung","source":"Pemkot Jakarta Timur","source_url":"https://timur.jakarta.go.id/ppid/storage/files/setko-260609-075654-x938X6Z0-REKAP_BANJIR_TAHUN_2025_compressed.pdf","coordinate_method":"kelurahan_proxy","coordinate_note":"Coordinate is the official Jakarta kelurahan-office point used as a proxy because the report did not provide a precise point.","depth_cm":25.0}},{"type":"Feature","geometry":{"type":"Point","coordinates":[106.8674026,-6.2397888]},"properties":{"event_id":"JTG-0026","date":"2025-03-01","year":2025,"kelurahan":"Bidara Cina","area":"Baiduri Bulan / Tanjung Lengkong","rt":"6,12,5","rw":"11,03,07","location":"Jl. Baiduri Bulan; Jl. Tanjung Lengkong","event_type":"banjir","cause":"Katulampa & Depok Siaga 3; Ciliwung","source":"Pemkot Jakarta Timur","source_url":"https://timur.jakarta.go.id/ppid/storage/files/setko-260609-075654-x938X6Z0-REKAP_BANJIR_TAHUN_2025_compressed.pdf","coordinate_method":"road_proxy","coordinate_note":"Coordinate is a representative point for the named road/locality, not a surveyed flood polygon.","depth_cm":150.0}},{"type":"Feature","geometry":{"type":"Point","coordinates":[106.8597342,-6.2144639]},"properties":{"event_id":"JTG-0027","date":"2025-03-01","year":2025,"kelurahan":"Kampung Melayu","area":"Kebon Pala II","rt":"12,13,10,11","rw":"04,05","location":"Jl. Kebon Pala II","event_type":"banjir","cause":"Katulampa & Depok Siaga 3; Ciliwung","source":"Pemkot Jakarta Timur","source_url":"https://timur.jakarta.go.id/ppid/storage/files/setko-260609-075654-x938X6Z0-REKAP_BANJIR_TAHUN_2025_compressed.pdf","coordinate_method":"kelurahan_proxy","coordinate_note":"Coordinate is the official Jakarta kelurahan-office point used as a proxy because the report did not provide a precise point.","depth_cm":100.0}},{"type":"Feature","geometry":{"type":"Point","coordinates":[106.8597342,-6.2144639]},"properties":{"event_id":"JTG-0028","date":"2025-03-02","year":2025,"kelurahan":"Kampung Melayu","area":"Kebon Pala II","rt":"3,4,5,8,15","rw":"7,8","location":"Jl. Kebon Pala II","event_type":"banjir","cause":"Katulampa & Depok Siaga 3; Ciliwung","source":"Pemkot Jakarta Timur","source_url":"https://timur.jakarta.go.id/ppid/storage/files/setko-260609-075654-x938X6Z0-REKAP_BANJIR_TAHUN_2025_compressed.pdf","coordinate_method":"kelurahan_proxy","coordinate_note":"Coordinate is the official Jakarta kelurahan-office point used as a proxy because the report did not provide a precise point.","depth_cm":300.0}},{"type":"Feature","geometry":{"type":"Point","coordinates":[106.8597342,-6.2144639]},"properties":{"event_id":"JTG-0029","date":"2025-03-03","year":2025,"kelurahan":"Kampung Melayu","area":"Kebon Pala II","rt":"3,4,5,8,15","rw":"7,8","location":"Jl. Kebon Pala II","event_type":"banjir","cause":"Pos Pantau Depok Siaga 1","source":"Pemkot Jakarta Timur","source_url":"https://timur.jakarta.go.id/ppid/storage/files/setko-260609-075654-x938X6Z0-REKAP_BANJIR_TAHUN_2025_compressed.pdf","coordinate_method":"kelurahan_proxy","coordinate_note":"Coordinate is the official Jakarta kelurahan-office point used as a proxy because the report did not provide a precise point.","depth_cm":300.0}},{"type":"Feature","geometry":{"type":"Point","coordinates":[106.8674026,-6.2397888]},"properties":{"event_id":"JTG-0030","date":"2025-03-04","year":2025,"kelurahan":"Bidara Cina","area":"Baiduri Bulan / Tanjung Lengkong","rt":"","rw":"05,06,07,11","location":"RW 05, 06, 07, 11","event_type":"banjir","cause":"Luapan Sungai Ciliwung","source":"Beritajakarta","source_url":"https://www.beritajakarta.id/siaran-pers/wilayah/jakarta-timur/read/2805-SP-JAKTIM-03-2025","coordinate_method":"kelurahan_proxy","coordinate_note":"Coordinate is the official Jakarta kelurahan-office point used as a proxy because the report did not provide a precise point.","depth_cm":350.0}},{"type":"Feature","geometry":{"type":"Point","coordinates":[106.8894818,-6.2379063]},"properties":{"event_id":"JTG-0031","date":"2025-04-06","year":2025,"kelurahan":"Cipinang Muara","area":"Cipinang Bali","rt":"12","rw":"13","location":"Jl. Cipinang Bali RT 12/RW 13","event_type":"genangan","cause":"Luapan Sunter Hulu + hujan lokal","source":"Pemkot Jakarta Timur","source_url":"https://timur.jakarta.go.id/ppid/storage/files/setko-260609-075654-x938X6Z0-REKAP_BANJIR_TAHUN_2025_compressed.pdf","coordinate_method":"road_proxy","coordinate_note":"Coordinate is a representative point for the named road/locality, not a surveyed flood polygon.","depth_cm":30.0}},{"type":"Feature","geometry":{"type":"Point","coordinates":[106.86612,-6.23751]},"properties":{"event_id":"JTG-0032","date":"2025-04-07","year":2025,"kelurahan":"Bidara Cina","area":"Tanjung Lengkong","rt":"5","rw":"7","location":"Jl. Tanjung Lengkong RT 5/RW 7","event_type":"banjir","cause":"Kenaikan debit Ciliwung","source":"Pemkot Jakarta Timur","source_url":"https://timur.jakarta.go.id/ppid/storage/files/setko-260609-075654-x938X6Z0-REKAP_BANJIR_TAHUN_2025_compressed.pdf","coordinate_method":"locality_proxy","coordinate_note":"Coordinate is a locality/road representative point.","depth_cm":60.0}},{"type":"Feature","geometry":{"type":"Point","coordinates":[106.8597342,-6.2144639]},"properties":{"event_id":"JTG-0033","date":"2025-04-07","year":2025,"kelurahan":"Kampung Melayu","area":"Kebon Pala II","rt":"12,13,10,11","rw":"04,05","location":"Jl. Kebon Pala II","event_type":"genangan","cause":"Luapan Kali Ciliwung","source":"Pemkot Jakarta Timur","source_url":"https://timur.jakarta.go.id/ppid/storage/files/setko-260609-075654-x938X6Z0-REKAP_BANJIR_TAHUN_2025_compressed.pdf","coordinate_method":"kelurahan_proxy","coordinate_note":"Coordinate is the official Jakarta kelurahan-office point used as a proxy because the report did not provide a precise point.","depth_cm":30.0}},{"type":"Feature","geometry":{"type":"Point","coordinates":[106.8597342,-6.2144639]},"properties":{"event_id":"JTG-0034","date":"2025-04-08","year":2025,"kelurahan":"Kampung Melayu","area":"Kebon Pala II","rt":"12,13,10,11","rw":"04,05","location":"Jl. Kebon Pala II","event_type":"banjir","cause":"Luapan Kali Ciliwung","source":"Pemkot Jakarta Timur","source_url":"https://timur.jakarta.go.id/ppid/storage/files/setko-260609-075654-x938X6Z0-REKAP_BANJIR_TAHUN_2025_compressed.pdf","coordinate_method":"kelurahan_proxy","coordinate_note":"Coordinate is the official Jakarta kelurahan-office point used as a proxy because the report did not provide a precise point.","depth_cm":40.0}},{"type":"Feature","geometry":{"type":"Point","coordinates":[106.8894818,-6.2379063]},"properties":{"event_id":"JTG-0035","date":"2025-05-03","year":2025,"kelurahan":"Cipinang Muara","area":"Cipinang Bali","rt":"12","rw":"13","location":"Jl. Cipinang Bali RT 12/RW 13","event_type":"banjir","cause":"Kenaikan aliran Sunter Hulu","source":"Pemkot Jakarta Timur","source_url":"https://timur.jakarta.go.id/ppid/storage/files/setko-260609-075654-x938X6Z0-REKAP_BANJIR_TAHUN_2025_compressed.pdf","coordinate_method":"road_proxy","coordinate_note":"Coordinate is a representative point for the named road/locality, not a surveyed flood polygon.","depth_cm":45.0}},{"type":"Feature","geometry":{"type":"Point","coordinates":[106.86612,-6.23751]},"properties":{"event_id":"JTG-0036","date":"2025-05-03","year":2025,"kelurahan":"Bidara Cina","area":"Tanjung Lengkong","rt":"","rw":"","location":"Jl. Tanjung Lengkong","event_type":"genangan","cause":"Luapan Sungai Ciliwung","source":"Pemkot Jakarta Timur","source_url":"https://timur.jakarta.go.id/ppid/storage/files/setko-260609-075654-x938X6Z0-REKAP_BANJIR_TAHUN_2025_compressed.pdf","coordinate_method":"locality_proxy","coordinate_note":"Coordinate is a locality/road representative point.","depth_cm":30.0}},{"type":"Feature","geometry":{"type":"Point","coordinates":[106.8674026,-6.2397888]},"properties":{"event_id":"JTG-0037","date":"2025-05-15","year":2025,"kelurahan":"Bidara Cina","area":"Baiduri Bulan / Tanjung Lengkong","rt":"6,12,5","rw":"11,03,07","location":"Jl. Baiduri Bulan; Jl. Tanjung Lengkong","event_type":"banjir","cause":"Luapan Sungai Ciliwung","source":"Kemenkes/Pusdalops","source_url":"https://penanggulangankrisis.kemkes.go.id/__pub/files61424Laporan_Pusat_Krisis_Kesehatan_tanggal_18_Mei_2025_pukul_07.30_WIB.pdf","coordinate_method":"road_proxy","coordinate_note":"Coordinate is a representative point for the named road/locality, not a surveyed flood polygon.","depth_cm":80.0}},{"type":"Feature","geometry":{"type":"Point","coordinates":[106.8597342,-6.2144639]},"properties":{"event_id":"JTG-0038","date":"2025-05-15","year":2025,"kelurahan":"Kampung Melayu","area":"Kebon Pala II","rt":"12,13,10,11","rw":"04,05","location":"Jl. Kebon Pala II","event_type":"banjir","cause":"Luapan Sungai Ciliwung","source":"Kemenkes/Pusdalops","source_url":"https://penanggulangankrisis.kemkes.go.id/__pub/files61424Laporan_Pusat_Krisis_Kesehatan_tanggal_18_Mei_2025_pukul_07.30_WIB.pdf","coordinate_method":"kelurahan_proxy","coordinate_note":"Coordinate is the official Jakarta kelurahan-office point used as a proxy because the report did not provide a precise point.","depth_cm":70.0}},{"type":"Feature","geometry":{"type":"Point","coordinates":[106.8674026,-6.2397888]},"properties":{"event_id":"JTG-0039","date":"2025-05-23","year":2025,"kelurahan":"Bidara Cina","area":"Baiduri Bulan / Tanjung Lengkong","rt":"6,12,5,14","rw":"11,03,07","location":"Jl. Baiduri Bulan; Jl. Tanjung Lengkong","event_type":"genangan","cause":"Luapan Sungai Ciliwung","source":"Pemkot Jakarta Timur","source_url":"https://timur.jakarta.go.id/ppid/storage/files/setko-260609-075654-x938X6Z0-REKAP_BANJIR_TAHUN_2025_compressed.pdf","coordinate_method":"road_proxy","coordinate_note":"Coordinate is a representative point for the named road/locality, not a surveyed flood polygon.","depth_cm":30.0}},{"type":"Feature","geometry":{"type":"Point","coordinates":[106.8597342,-6.2144639]},"properties":{"event_id":"JTG-0040","date":"2025-05-23","year":2025,"kelurahan":"Kampung Melayu","area":"Kebon Pala II","rt":"12,13,10,11","rw":"04,05","location":"Jl. Kebon Pala II","event_type":"banjir","cause":"Luapan Sungai Ciliwung","source":"Pemkot Jakarta Timur","source_url":"https://timur.jakarta.go.id/ppid/storage/files/setko-260609-075654-x938X6Z0-REKAP_BANJIR_TAHUN_2025_compressed.pdf","coordinate_method":"kelurahan_proxy","coordinate_note":"Coordinate is the official Jakarta kelurahan-office point used as a proxy because the report did not provide a precise point.","depth_cm":60.0}},{"type":"Feature","geometry":{"type":"Point","coordinates":[106.8597342,-6.2144639]},"properties":{"event_id":"JTG-0041","date":"2025-06-17","year":2025,"kelurahan":"Kampung Melayu","area":"Kebon Pala II","rt":"12,13,10,11","rw":"04,05","location":"Jl. Kebon Pala II","event_type":"genangan","cause":"Luapan Ciliwung akibat hujan lokal","source":"Pemkot Jakarta Timur","source_url":"https://timur.jakarta.go.id/ppid/storage/files/setko-260609-075654-x938X6Z0-REKAP_BANJIR_TAHUN_2025_compressed.pdf","coordinate_method":"kelurahan_proxy","coordinate_note":"Coordinate is the official Jakarta kelurahan-office point used as a proxy because the report did not provide a precise point.","depth_cm":20.0}},{"type":"Feature","geometry":{"type":"Point","coordinates":[106.8597342,-6.2144639]},"properties":{"event_id":"JTG-0042","date":"2025-06-18","year":2025,"kelurahan":"Kampung Melayu","area":"Kebon Pala II","rt":"12,13,10,11","rw":"04,05","location":"Jl. Kebon Pala II","event_type":"banjir","cause":"Luapan Ciliwung akibat hujan lokal","source":"Pemkot Jakarta Timur","source_url":"https://timur.jakarta.go.id/ppid/storage/files/setko-260609-075654-x938X6Z0-REKAP_BANJIR_TAHUN_2025_compressed.pdf","coordinate_method":"kelurahan_proxy","coordinate_note":"Coordinate is the official Jakarta kelurahan-office point used as a proxy because the report did not provide a precise point.","depth_cm":40.0}},{"type":"Feature","geometry":{"type":"Point","coordinates":[106.86612,-6.23751]},"properties":{"event_id":"JTG-0043","date":"2025-06-18","year":2025,"kelurahan":"Bidara Cina","area":"Tanjung Lengkong / Gg Macan","rt":"5,14","rw":"07","location":"Jl. Tanjung Lengkong / Gg. Macan","event_type":"genangan","cause":"Luapan Ciliwung akibat hujan lokal","source":"Pemkot Jakarta Timur","source_url":"https://timur.jakarta.go.id/ppid/storage/files/setko-260609-075654-x938X6Z0-REKAP_BANJIR_TAHUN_2025_compressed.pdf","coordinate_method":"locality_proxy","coordinate_note":"Coordinate is a locality/road representative point.","depth_cm":20.0}},{"type":"Feature","geometry":{"type":"Point","coordinates":[106.8597342,-6.2144639]},"properties":{"event_id":"JTG-0044","date":"2025-07-06","year":2025,"kelurahan":"Kampung Melayu","area":"Kebon Pala II","rt":"12,13,10,11","rw":"04,05","location":"Jl. Kebon Pala II","event_type":"banjir","cause":"Katulampa Siaga 2 + luapan Ciliwung","source":"Pemkot Jakarta Timur","source_url":"https://timur.jakarta.go.id/ppid/storage/files/setko-260609-075654-x938X6Z0-REKAP_BANJIR_TAHUN_2025_compressed.pdf","coordinate_method":"kelurahan_proxy","coordinate_note":"Coordinate is the official Jakarta kelurahan-office point used as a proxy because the report did not provide a precise point.","depth_cm":180.0}},{"type":"Feature","geometry":{"type":"Point","coordinates":[106.8674026,-6.2397888]},"properties":{"event_id":"JTG-0045","date":"2025-07-06","year":2025,"kelurahan":"Bidara Cina","area":"Baiduri Bulan / Tanjung Lengkong","rt":"12,6,15,14","rw":"03,11,07","location":"Jl. Baiduri Bulan; Jl. Tanjung Lengkong","event_type":"banjir","cause":"Katulampa Siaga 2 + luapan Ciliwung","source":"Pemkot Jakarta Timur","source_url":"https://timur.jakarta.go.id/ppid/storage/files/setko-260609-075654-x938X6Z0-REKAP_BANJIR_TAHUN_2025_compressed.pdf","coordinate_method":"road_proxy","coordinate_note":"Coordinate is a representative point for the named road/locality, not a surveyed flood polygon.","depth_cm":240.0}},{"type":"Feature","geometry":{"type":"Point","coordinates":[106.8894818,-6.2379063]},"properties":{"event_id":"JTG-0046","date":"2025-07-07","year":2025,"kelurahan":"Cipinang Muara","area":"Cipinang Bali","rt":"12","rw":"13","location":"Jl. Cipinang Bali RT 12/RW 13","event_type":"banjir","cause":"Aliran Sunter Hulu Siaga II","source":"Pemkot Jakarta Timur","source_url":"https://timur.jakarta.go.id/ppid/storage/files/setko-260609-075654-x938X6Z0-REKAP_BANJIR_TAHUN_2025_compressed.pdf","coordinate_method":"road_proxy","coordinate_note":"Coordinate is a representative point for the named road/locality, not a surveyed flood polygon.","depth_cm":30.0}},{"type":"Feature","geometry":{"type":"Point","coordinates":[106.8674026,-6.2397888]},"properties":{"event_id":"JTG-0047","date":"2025-07-07","year":2025,"kelurahan":"Bidara Cina","area":"Baiduri Bulan / Tanjung Lengkong","rt":"2,6,10,13,15,14","rw":"11,03,07","location":"Jl. Baiduri Bulan; Jl. Tanjung Lengkong","event_type":"banjir","cause":"Luapan Kali Ciliwung","source":"Pemkot Jakarta Timur","source_url":"https://timur.jakarta.go.id/ppid/storage/files/setko-260609-075654-x938X6Z0-REKAP_BANJIR_TAHUN_2025_compressed.pdf","coordinate_method":"road_proxy","coordinate_note":"Coordinate is a representative point for the named road/locality, not a surveyed flood polygon.","depth_cm":250.0}},{"type":"Feature","geometry":{"type":"Point","coordinates":[106.8597342,-6.2144639]},"properties":{"event_id":"JTG-0048","date":"2025-07-07","year":2025,"kelurahan":"Kampung Melayu","area":"Kebon Pala II","rt":"12,13,10,11","rw":"04,05","location":"Jl. Kebon Pala II","event_type":"banjir","cause":"Luapan Kali Ciliwung","source":"Pemkot Jakarta Timur","source_url":"https://timur.jakarta.go.id/ppid/storage/files/setko-260609-075654-x938X6Z0-REKAP_BANJIR_TAHUN_2025_compressed.pdf","coordinate_method":"kelurahan_proxy","coordinate_note":"Coordinate is the official Jakarta kelurahan-office point used as a proxy because the report did not provide a precise point.","depth_cm":220.0}},{"type":"Feature","geometry":{"type":"Point","coordinates":[106.8597342,-6.2144639]},"properties":{"event_id":"JTG-0049","date":"2025-07-08","year":2025,"kelurahan":"Kampung Melayu","area":"Kebon Pala II","rt":"12,13,10,11","rw":"04,05","location":"Jl. Kebon Pala II","event_type":"banjir","cause":"Luapan Kali Ciliwung","source":"Pemkot Jakarta Timur","source_url":"https://timur.jakarta.go.id/ppid/storage/files/setko-260609-075654-x938X6Z0-REKAP_BANJIR_TAHUN_2025_compressed.pdf","coordinate_method":"kelurahan_proxy","coordinate_note":"Coordinate is the official Jakarta kelurahan-office point used as a proxy because the report did not provide a precise point.","depth_cm":60.0}},{"type":"Feature","geometry":{"type":"Point","coordinates":[106.8674026,-6.2397888]},"properties":{"event_id":"JTG-0050","date":"2025-07-08","year":2025,"kelurahan":"Bidara Cina","area":"Baiduri Bulan / Tanjung Lengkong","rt":"12,2,6,10,13,15,14","rw":"03,11,07","location":"Jl. Baiduri Bulan; Jl. Tanjung Lengkong","event_type":"banjir","cause":"Luapan Kali Ciliwung","source":"Pemkot Jakarta Timur","source_url":"https://timur.jakarta.go.id/ppid/storage/files/setko-260609-075654-x938X6Z0-REKAP_BANJIR_TAHUN_2025_compressed.pdf","coordinate_method":"road_proxy","coordinate_note":"Coordinate is a representative point for the named road/locality, not a surveyed flood polygon.","depth_cm":90.0}},{"type":"Feature","geometry":{"type":"Point","coordinates":[106.8597342,-6.2144639]},"properties":{"event_id":"JTG-0051","date":"2025-08-04","year":2025,"kelurahan":"Kampung Melayu","area":"Kebon Pala II","rt":"12,13,10,11","rw":"04,05","location":"Jl. Kebon Pala II","event_type":"banjir","cause":"Katulampa Siaga 3 + Ciliwung masuk permukiman","source":"Pemkot Jakarta Timur","source_url":"https://timur.jakarta.go.id/ppid/storage/files/setko-260609-075654-x938X6Z0-REKAP_BANJIR_TAHUN_2025_compressed.pdf","coordinate_method":"kelurahan_proxy","coordinate_note":"Coordinate is the official Jakarta kelurahan-office point used as a proxy because the report did not provide a precise point.","depth_cm":75.0}},{"type":"Feature","geometry":{"type":"Point","coordinates":[106.8674026,-6.2397888]},"properties":{"event_id":"JTG-0052","date":"2025-08-04","year":2025,"kelurahan":"Bidara Cina","area":"Baiduri Bulan / Tanjung Lengkong","rt":"12,6,15,14","rw":"03,11,07","location":"Jl. Baiduri Bulan; Jl. Tanjung Lengkong","event_type":"banjir","cause":"Katulampa Siaga 3 + Ciliwung masuk permukiman","source":"Pemkot Jakarta Timur","source_url":"https://timur.jakarta.go.id/ppid/storage/files/setko-260609-075654-x938X6Z0-REKAP_BANJIR_TAHUN_2025_compressed.pdf","coordinate_method":"road_proxy","coordinate_note":"Coordinate is a representative point for the named road/locality, not a surveyed flood polygon.","depth_cm":65.0}},{"type":"Feature","geometry":{"type":"Point","coordinates":[106.8894818,-6.2379063]},"properties":{"event_id":"JTG-0053","date":"2025-08-04","year":2025,"kelurahan":"Cipinang Muara","area":"Cipinang Bali","rt":"12","rw":"13","location":"Jl. Cipinang Bali RT 12/RW 13","event_type":"banjir","cause":"Luapan Kali Sunter Hulu","source":"Pemkot Jakarta Timur","source_url":"https://timur.jakarta.go.id/ppid/storage/files/setko-260609-075654-x938X6Z0-REKAP_BANJIR_TAHUN_2025_compressed.pdf","coordinate_method":"road_proxy","coordinate_note":"Coordinate is a representative point for the named road/locality, not a surveyed flood polygon.","depth_cm":80.0}},{"type":"Feature","geometry":{"type":"Point","coordinates":[106.8674026,-6.2397888]},"properties":{"event_id":"JTG-0054","date":"2025-08-10","year":2025,"kelurahan":"Bidara Cina","area":"Baiduri Bulan / Tanjung Lengkong","rt":"12,6,15,14","rw":"03,11,07","location":"Jl. Baiduri Bulan; Jl. Tanjung Lengkong","event_type":"banjir","cause":"Luapan Kali Ciliwung","source":"Pemkot Jakarta Timur","source_url":"https://timur.jakarta.go.id/ppid/storage/files/setko-260609-075654-x938X6Z0-REKAP_BANJIR_TAHUN_2025_compressed.pdf","coordinate_method":"road_proxy","coordinate_note":"Coordinate is a representative point for the named road/locality, not a surveyed flood polygon.","depth_cm":120.0}}]}