{"type": "FeatureCollection", "name": "inarisk_kerentanan", "features": [{"type": "Feature", "properties": {"class": 4}, "geometry": {"type": "Polygon", "coordinates": [[[106.87117040958802, -6.225705498546069], [106.87117040958802, -6.227508600565775], [106.87567491406043, -6.227508600565775], [106.87567491406043, -6.225705498546069], [106.87657581495492, -6.225705498546069], [106.87657581495492, -6.224803945184093], [106.87567491406043, -6.224803945184093], [106.87567491406043, -6.223902390254333], [106.87747671584938, -6.223902390254333], [106.87747671584938, -6.223000833757009], [106.87567491406043, -6.223000833757009], [106.87567491406043, -6.22119771606057], [106.87837761674388, -6.22119771606057], [106.87837761674388, -6.218493027764783], [106.87657581495492, -6.218493027764783], [106.87657581495492, -6.219394592096566], [106.87567491406043, -6.219394592096566], [106.87567491406043, -6.217591461866782], [106.87747671584938, -6.217591461866782], [106.87747671584938, -6.215788325373], [106.87837761674388, -6.215788325373], [106.87837761674388, -6.214886754777673], [106.88017941853283, -6.214886754777673], [106.88017941853283, -6.21455295840528], [106.8805297460171, -6.214532039308296], [106.88131902487001, -6.21448490829693], [106.88201213098073, -6.214443518958247], [106.88201212905167, -6.214443484607606], [106.88296383834609, -6.214386654695945], [106.88488203242616, -6.214272112653132], [106.88593769237984, -6.214209081576252], [106.88671472302697, -6.214162676332145], [106.88679941065247, -6.214157618333822], [106.88681735759417, -6.2141559648056], [106.88703628815571, -6.214139527349553], [106.88732078659228, -6.214111056704377], [106.88737729737454, -6.214105401196954], [106.88741436710004, -6.214097910959131], [106.88746009034021, -6.21408867286146], [106.88784832542255, -6.2140144807523185], [106.88792017758968, -6.213997823061977], [106.8879747018679, -6.213985182617016], [106.88918842747763, -6.213985182617016], [106.88918842747763, -6.213645534110274], [106.88919943768788, -6.2136423148700475], [106.88923835458937, -6.213630936442342], [106.88925024355987, -6.213627460938947], [106.88927091771055, -6.21362141612125], [106.88931045283894, -6.213609857364382], [106.8893508390425, -6.213598048733484], [106.88937955288876, -6.213589654254606], [106.88942973870437, -6.213574979736488], [106.88943708526189, -6.213572832369823], [106.88945864481877, -6.213566032136642], [106.88949434307057, -6.213554770979011], [106.8895327405542, -6.2135426593225285], [106.88957637676242, -6.2135288951599605], [106.88960983602894, -6.213518340898187], [106.88961285833815, -6.2135173879826135], [106.88963917560913, -6.213509087045652], [106.88969535406612, -6.2134913658348205], [106.8897161609645, -6.213484801551281], [106.88972746235731, -6.213481237724756], [106.88986650832334, -6.213437378182111], [106.88993943082285, -6.213414375691859], [106.88996069074665, -6.213407669639449], [106.88997603763359, -6.2134042965894585], [106.89017441055323, -6.213360694181107], [106.89023743929285, -6.213346840763165], [106.89027478095824, -6.213338632396402], [106.89029872299226, -6.2133333696993756], [106.89040181700055, -6.2133107095617675], [106.89050134900427, -6.21329524101957], [106.89053583323093, -6.213289882758632], [106.89076879989939, -6.213253676213518], [106.89086244814834, -6.213239122842502], [106.8908994949682, -6.213233364808035], [106.89099104291245, -6.213219138992411], [106.8910258521823, -6.213213728908184], [106.89107458404509, -6.213207361275964], [106.89114004389415, -6.213198809086147], [106.89119082656443, -6.213192173717344], [106.89122305356295, -6.213189754711673], [106.89128752292252, -6.213184918448062], [106.89135435961998, -6.213179902827259], [106.89138971628284, -6.213177249295494], [106.89152927596982, -6.213166777444938], [106.89169024743045, -6.2131546964462645], [106.89182576786263, -6.21314452558274], [106.89184717243212, -6.213142919201978], [106.89186149392673, -6.213141843575057], [106.89191323156142, -6.213142805830821], [106.89210891331552, -6.213146441963776], [106.89221566113592, -6.213148427042318], [106.89235248727732, -6.213150969911159], [106.89242193758919, -6.213152260223705], [106.89242271823068, -6.213152273704571], [106.89243257568704, -6.213152458134111], [106.89244173923014, -6.2131526278680855], [106.89248057090451, -6.213153349641485], [106.89248676185478, -6.21315346491479], [106.89257088358923, -6.213155027287873], [106.89262900098984, -6.213156107685728], [106.8926699904083, -6.2131566535523834], [106.89277742195772, -6.213158087256114], [106.89283645983991, -6.213158875011507], [106.8929218250177, -6.213160013356466], [106.89298348306642, -6.213160836018988], [106.89312173955133, -6.2131626800911155], [106.8931976350616, -6.213163693163669], [106.89334483083266, -6.2131656570685205], [106.89337704627901, -6.213166086015234], [106.89340699663386, -6.213166485096319], [106.89353517356587, -6.213168195171031], [106.89353660743204, -6.213168214448464], [106.89356407223828, -6.213168580830321], [106.89367996056166, -6.21317012692066], [106.89374586235655, -6.213171005723378], [106.89391005214554, -6.213173196126992], [106.89391527983345, -6.21317326510563], [106.89409533157303, -6.213175667170889], [106.89414037770874, -6.213176268010682], [106.8942285726146, -6.213177444830301], [106.89425671055699, -6.213177829559796], [106.89429424136141, -6.2131783415774295], [106.89433930019574, -6.213178957724974], [106.89452522671832, -6.213181500438072], [106.89460342078067, -6.213182568361702], [106.89465300708287, -6.213183246017186], [106.89473682909359, -6.213184392307684], [106.89484279426026, -6.2131858407873395], [106.89493133618852, -6.213187052410654], [106.89495809084876, -6.2131874176475765], [106.89509861244798, -6.213189338069818], [106.89512261863798, -6.213189666132922], [106.89517175497875, -6.213190337214587], [106.89520368311938, -6.213190773407565], [106.89536246910409, -6.2131929447487755], [106.89550156222961, -6.213194845771105], [106.89553902434407, -6.213195357041591], [106.8957205307914, -6.213197838322501], [106.89575246525024, -6.2131982753634984], [106.89575653012984, -6.213198331313763], [106.8957565193517, -6.21319910619881], [106.89575600198144, -6.213243362000402], [106.8957552310648, -6.2133318762741885], [106.89575497179493, -6.213377059700228], [106.89575472306977, -6.213420393221733], [106.89575457757552, -6.213472878059569], [106.89575447889347, -6.213508911031523], [106.89575449763255, -6.213597429706743], [106.89575477928068, -6.213685947439101], [106.89575511243704, -6.213770176659227], [106.89575676640285, -6.213854389389722], [106.89575974291768, -6.213938566637237], [106.89576404009755, -6.2140226867090105], [106.89576965696192, -6.214106727909004], [106.89577659344343, -6.214190671250346], [106.895780701827, -6.214232400576671], [106.89578484585118, -6.214274495046703], [106.89579441321106, -6.214358179410299], [106.8958046414485, -6.214436687020427], [106.89580529363583, -6.214441701744182], [106.8958163399349, -6.2145246159009595], [106.89582688234078, -6.21460759515283], [106.89583691903991, -6.214690637698108], [106.89584645182279, -6.214773739009788], [106.89585547797235, -6.21485689728942], [106.89586060930704, -6.214907008822871], [106.89586399928233, -6.21494010891414], [106.8958720139359, -6.215023371178116], [106.89587952191663, -6.215106679560833], [106.89588652412776, -6.2151900340591455], [106.89589301874273, -6.215273429254841], [106.8958990057516, -6.215356862435655], [106.89590448604142, -6.215440329077811], [106.89591607773798, -6.215513046202394], [106.89593630604237, -6.215583846317037], [106.89596487727614, -6.215651705180656], [106.89599661823318, -6.215707301601499], [106.8960013795628, -6.215715642374611], [106.8960452846798, -6.215774733954166], [106.89608974466529, -6.215848491366063], [106.89612212891318, -6.215928300085142], [106.89614164075307, -6.21601219556874], [106.89614780027256, -6.216098113586546], [106.89614045532772, -6.216183937195806], [106.89611913111193, -6.216264236040828], [106.89610308601817, -6.216306242886988], [106.89608948715892, -6.2163418450862045], [106.89605185195657, -6.2164159042220835], [106.89600664176457, -6.216485590997048], [106.8959543597598, -6.216550134183301], [106.89591382127078, -6.216629626753546], [106.89590074414343, -6.216673929410411], [106.89589603155363, -6.216689894402779], [106.895494733739, -6.216689894402779], [106.895494733739, -6.216932377881291], [106.89547380410923, -6.216928868105729], [106.89540742506382, -6.216947216063286], [106.89534503565952, -6.21697639213173], [106.8952883884056, -6.2170155781122665], [106.89524643772639, -6.217056486207954], [106.89523906675984, -6.217063674321336], [106.89521649769169, -6.217139003074522], [106.89519653142492, -6.217215062983616], [106.89518341037477, -6.217273105087958], [106.89517919204008, -6.217291766260814], [106.89516449909074, -6.217369022422073], [106.89515247211106, -6.217446735558584], [106.89512920872103, -6.217520174444131], [106.89510664810501, -6.2175938314198635], [106.89508479385775, -6.217667701048044], [106.8950636477638, -6.21774177699332], [106.89504814025874, -6.217830494226099], [106.89503689220219, -6.217919851684391], [106.89502992997495, -6.218009646746236], [106.89502726909699, -6.2180996714036585], [106.89502891696662, -6.218189720390111], [106.89503406537737, -6.218222384720073], [106.89504140201676, -6.218268929671396], [106.8950454487605, -6.218279551441609], [106.89506995443192, -6.218343853572974], [106.89511334388877, -6.218411268729377], [106.89516970424769, -6.2184682686958], [106.8952366063216, -6.218512401117034], [106.89532097584734, -6.218534003936512], [106.89540418202208, -6.218559731071475], [106.89548602495323, -6.218589519045271], [106.89556630562238, -6.218623296240966], [106.89564168994933, -6.218659474296689], [106.89564483039615, -6.218660981076976], [106.89572140922253, -6.218702482917656], [106.89579585743444, -6.218747701162635], [106.8958547953591, -6.2188051664458355], [106.89590172556382, -6.218872806577593], [106.89593493704491, -6.218948148555575], [106.89595321199083, -6.21902843913338], [106.89595588305369, -6.21911074316536], [106.89596208937041, -6.219188749800206], [106.89597714527794, -6.21924811842119], [106.89597597204579, -6.219275200656872], [106.89599053994255, -6.2192853678449636], [106.89601305567822, -6.219336120380608], [106.89605636768133, -6.2194012744258815], [106.896097368573, -6.219462132159204], [106.8961121264525, -6.2194937954399725], [106.89612837204889, -6.219528650411154], [106.89614861875492, -6.219599195420521], [106.89615761190902, -6.219672039357288], [106.8961551300798, -6.219745396441973], [106.89614177689323, -6.219833413361098], [106.89612557603995, -6.2199209495558625], [106.89610654526366, -6.2200079145489395], [106.89610164644546, -6.220027273448792], [106.89608470501516, -6.220094216949102], [106.8960600766423, -6.220179763553599], [106.89603268692669, -6.220264464756594], [106.89601117184124, -6.220347720856412], [106.8959880415888, -6.220430542439695], [106.89596330508648, -6.22051289692553], [106.89593697126121, -6.220594754445257], [106.89590904903335, -6.220676083322015], [106.89589123296973, -6.220724864933807], [106.89587955094044, -6.22075685277008], [106.89584356715571, -6.2208223483902945], [106.89581144559483, -6.220889824675563], [106.89578329476518, -6.220959054298125], [106.89575920959959, -6.221029803649889], [106.89573927055294, -6.221101832845617], [106.89572235011923, -6.221178931558024], [106.89571801231094, -6.22119771606057], [106.8945938328445, -6.22119771606057], [106.8945938328445, -6.2217660320069355], [106.89453310898021, -6.221807953251726], [106.89449469869378, -6.221838270290134], [106.89447043842682, -6.221857419276654], [106.89441127413973, -6.221904329377398], [106.89436926933888, -6.221921149666485], [106.89436402312108, -6.2219295516595405], [106.8943486204462, -6.221954221183341], [106.89434542402338, -6.221956766950382], [106.8942830819803, -6.222006648592802], [106.89422084973641, -6.222056667266516], [106.89417320940477, -6.222099275692347], [106.89279203105556, -6.222099275692347], [106.89279203105556, -6.22119771606057], [106.89369293195006, -6.22119771606057], [106.89369293195006, -6.219394592096566], [106.89189113016108, -6.219394592096566], [106.89189113016108, -6.220296154861903], [106.89099022926659, -6.220296154861903], [106.89099022926659, -6.222099275692347], [106.89008932837211, -6.222099275692347], [106.89008932837211, -6.223902390254333], [106.88918842747763, -6.223902390254333], [106.88918842747763, -6.225705498546069], [106.88648572479418, -6.225705498546069], [106.88648572479418, -6.226607050340037], [106.88558482389972, -6.226607050340037], [106.88558482389972, -6.227508600565775], [106.88648572479418, -6.227508600565775], [106.88648572479418, -6.228410149223055], [106.89008932837211, -6.228410149223055], [106.89008932837211, -6.227508600565775], [106.89138316892144, -6.227508600565775], [106.89138164581973, -6.2275229921774296], [106.89137985824509, -6.2275473425544865], [106.89137574805464, -6.227603313607979], [106.89137243028829, -6.227683784014265], [106.89135471124233, -6.227727755284995], [106.89133940964655, -6.227761803090531], [106.89133676541289, -6.227767686767299], [106.89132382472104, -6.227795196410358], [106.89130808259104, -6.227872507086343], [106.89130864843017, -6.22793744220122], [106.89130876887418, -6.227951401691073], [106.89130943558403, -6.227954411895457], [106.89132251690596, -6.228013381833697], [106.89132585405119, -6.22802842741749], [106.89137601010023, -6.2280921883839815], [106.89143322800376, -6.228149684553606], [106.89149673610967, -6.228200139322134], [106.89156567184034, -6.228242867729952], [106.89161902402321, -6.228275713698489], [106.8916399897698, -6.2282989960694515], [106.89166095822873, -6.228322278429282], [106.89168807465045, -6.228378784866376], [106.8916861272001, -6.228410149223055], [106.89099022926659, -6.228410149223055], [106.89099022926659, -6.228704404888446], [106.89093628173913, -6.2287175852424985], [106.89086811726916, -6.228739398752642], [106.8908369492127, -6.22875698569683], [106.89080577934683, -6.228774572646285], [106.8907956197012, -6.228783441608787], [106.8907518503541, -6.2288216492376565], [106.89070856397238, -6.228878678430169], [106.8906526313809, -6.228937974421702], [106.89058860066139, -6.228988403599104], [106.89051786290165, -6.229028875100877], [106.89044390638658, -6.22906440977164], [106.89044329083946, -6.229064839636119], [106.89037656340166, -6.229111298436726], [106.89031756074537, -6.229168341445607], [106.89026236209907, -6.229227492837051], [106.8902548745885, -6.229236760889794], [106.89022870969963, -6.229269154170784], [106.89021568842227, -6.2292852755482695], [106.89021152190156, -6.229290434134859], [106.89020649001364, -6.229297662687798], [106.89019672095961, -6.2293116963116555], [106.89008932837211, -6.2293116963116555], [106.89008932837211, -6.229514743431975], [106.89006560128608, -6.229570918745831], [106.89005208382783, -6.229606439333225], [106.8900128203639, -6.229709615895836], [106.88999874754734, -6.229800766629564], [106.88999092392, -6.229851441006316], [106.88997575802887, -6.229994141619429], [106.889967355893, -6.230137400261761], [106.88996671364471, -6.230194245884239], [106.88996577979411, -6.230276906670487], [106.88996573534592, -6.23028089680232], [106.88997544541864, -6.230322361154309], [106.890011389064, -6.230427105416176], [106.89001619792359, -6.230441118635503], [106.89001682913177, -6.230443297160427], [106.89002080760034, -6.230457035784488], [106.89004129179837, -6.230527765619138], [106.8900443097684, -6.23054148056081], [106.89004507758392, -6.230544971408123], [106.89006067628772, -6.230615868836907], [106.89006475373891, -6.230642621304253], [106.89007082134688, -6.2306824323736105], [106.8900713172765, -6.230685689118697], [106.8900742678164, -6.230705049754888], [106.89008040837535, -6.230776349969075], [106.89008200810652, -6.230794929748339], [106.89008046943316, -6.230815371551992], [106.89007873740131, -6.230838334792516], [106.89007715039827, -6.230859409667815], [106.89005705796848, -6.2309208683062804], [106.89003838256858, -6.230950870432732], [106.89002852517758, -6.2309667047158745], [106.8900250019228, -6.230972364605912], [106.89001323344414, -6.231030807034201], [106.89001096583915, -6.231043729001574], [106.89002042257022, -6.231112092436286], [106.89003965279677, -6.231152034441626], [106.89005035658745, -6.2311742668656125], [106.89009784158279, -6.231224225827305], [106.89009788783204, -6.231224273580977], [106.89012987001776, -6.231230391181022], [106.89017728725695, -6.2312394588130395], [106.89019942511726, -6.231248148714773], [106.89025254042267, -6.231268998562661], [106.8902884526448, -6.231291472429816], [106.8903210796139, -6.231311887589548], [106.89037107043565, -6.231357918987244], [106.89040476725293, -6.231399056817692], [106.8904082978709, -6.231403782759465], [106.8904289686446, -6.231431451293227], [106.89043413999292, -6.231441975933316], [106.89044309565695, -6.231460202939176], [106.89046463658133, -6.23150404432513], [106.89050858605763, -6.2315748916001485], [106.89052788078178, -6.231599773979012], [106.89055967165733, -6.23164077305816], [106.8906173378639, -6.231700969184766], [106.89067301932558, -6.231748107591984], [106.89067393372677, -6.231748881873637], [106.89068095711727, -6.231754826726418], [106.89074983614152, -6.231801759572021], [106.89079898262783, -6.231828209351441], [106.89082322500573, -6.231841255953605], [106.89088453384933, -6.231891272820329], [106.8909458417971, -6.231941288775426], [106.89097010111094, -6.231961080192191], [106.89099022926659, -6.231977501765665], [106.89099022926659, -6.2320163281631595], [106.89103781987247, -6.2320163281631595], [106.89104294159104, -6.232020506648257], [106.89106845592161, -6.23204132156403], [106.89108854063056, -6.2320577066802345], [106.89112976481205, -6.232091339291923], [106.89119068316123, -6.2321410374403445], [106.8911910718967, -6.232141354303178], [106.89121977496517, -6.232164770734127], [106.89125237990221, -6.232191371108723], [106.89129810812521, -6.232239151799068], [106.8913059581839, -6.232247354023502], [106.89134991586855, -6.232299508053422], [106.89135589986653, -6.2323066066872865], [106.89140200985229, -6.232368892916463], [106.89140523713776, -6.232372925555643], [106.89142366516273, -6.232395953885866], [106.89144512715842, -6.232422771429495], [106.89144742444928, -6.232429999922385], [106.89145813325985, -6.232463694957533], [106.89146472906178, -6.23248444842557], [106.89146879181051, -6.232497231043754], [106.8914900367999, -6.232572418127364], [106.89149824076756, -6.2326055100443805], [106.89150883835005, -6.232648253201893], [106.89152517720512, -6.232724657676839], [106.89152829664009, -6.23274196076027], [106.8915390368164, -6.232801552047798], [106.89154436057402, -6.232819299291316], [106.89156456280602, -6.23288662589831], [106.89159008880766, -6.2329716997448195], [106.89160022058196, -6.2330054700763675], [106.8916156148213, -6.233056773587361], [106.89163538640209, -6.233122668669628], [106.89164114085015, -6.233141848330041], [106.8916666668878, -6.233226922164592], [106.89169156458297, -6.233305322987146], [106.89169423108929, -6.233313721012419], [106.89171646228868, -6.2333837238060825], [106.89174136001145, -6.233462126429618], [106.89175978976535, -6.233520157585804], [106.89176625773183, -6.233540525433014], [106.891791154569, -6.233618927148396], [106.89181605322048, -6.233697327949547], [106.89182467321513, -6.233724470021509], [106.89183157890471, -6.233746216012172], [106.89184095097903, -6.233775728750288], [106.8918658487514, -6.233854130451521], [106.89186996273732, -6.233867083758418], [106.89189074743132, -6.233932530337638], [106.89189081057575, -6.233932754337577], [106.89191315254917, -6.234011459051005], [106.89191415087834, -6.234014977090876], [106.89192986512545, -6.23407033629824], [106.89193755433948, -6.234097424744761], [106.89196095870854, -6.234179870583654], [106.89198436219147, -6.234262318230548], [106.89199606394025, -6.2343035429568], [106.89200445040991, -6.234333080019127], [106.89200744631935, -6.234343637750253], [106.89200776658878, -6.2343447658707], [106.89203117009026, -6.234427212606474], [106.89203501503914, -6.234447024772697], [106.8920457831241, -6.234502514742356], [106.89206039616523, -6.234577816876366], [106.89206770314028, -6.23461546794104], [106.89207436671101, -6.234649811260836], [106.89207500921367, -6.234653119008507], [106.8920433402042, -6.234718537791042], [106.89203337075274, -6.234735867057556], [106.89200709891513, -6.234781533620727], [106.89199740708237, -6.234795907162856], [106.89196646942585, -6.234841789387304], [106.89196624008278, -6.234842082247717], [106.89195197942708, -6.234860288564749], [106.89192165843887, -6.234898997844698], [106.89191952828509, -6.234901350829789], [106.8918728907949, -6.23495287066847], [106.89185389005378, -6.23498762528817], [106.89184461791102, -6.235064382045287], [106.8918521795971, -6.235141327007567], [106.89187621958807, -6.235214805108364], [106.89190720686, -6.235254076366765], [106.89195292896189, -6.235274335819478], [106.8919534651325, -6.235274949613431], [106.89198413408823, -6.235310107268765], [106.89198733274273, -6.2353923299778895], [106.89199141955277, -6.23549521812476], [106.89199389900624, -6.235556771171297], [106.89199726660881, -6.235638987847311], [106.892000357787, -6.235659228566887], [106.89200432241483, -6.235685198393992], [106.89200880792129, -6.235714572243789], [106.89203660118504, -6.235785796387218], [106.89207929773939, -6.235849206783101], [106.89212795237323, -6.235864595019349], [106.89214786001139, -6.2358433865621175], [106.89216288659287, -6.235827377254973], [106.89220091073942, -6.235764446425541], [106.89223127974289, -6.235714182049298], [106.89224836836668, -6.235685897974756], [106.89224932222344, -6.235684318634596], [106.89227695718964, -6.235638581156236], [106.89231498040652, -6.235575649425496], [106.89235419836727, -6.235513311040065], [106.89239341903382, -6.235450973548771], [106.89243263968919, -6.235388635153094], [106.8924718594299, -6.235326295856282], [106.89248728094692, -6.235293946429599], [106.89251374994596, -6.235246329815918], [106.8925481465625, -6.235198795036202], [106.89262099884726, -6.235172398345673], [106.89269608523239, -6.235191527875065], [106.89276901030574, -6.235236312867035], [106.89280152759497, -6.2352565337727], [106.89284168567211, -6.2352815037963545], [106.89291411042493, -6.235327099762199], [106.89291846689032, -6.235332327214875], [106.89292102668675, -6.235335398421079], [106.89294875885085, -6.23536866424094], [106.89295269933183, -6.23542264978355], [106.89294397457789, -6.235449702221454], [106.89293571984435, -6.235475299115609], [106.89293211967959, -6.235486462793942], [106.89293120019745, -6.235489312326358], [106.89290012169306, -6.23555207627693], [106.89289586825957, -6.23555819268599], [106.89286013924645, -6.235609573958257], [106.89283298156843, -6.235662413557244], [106.89282476823686, -6.235678396593473], [106.8928200245601, -6.235755641569668], [106.89282250200603, -6.235765979636737], [106.89283153213627, -6.235803653410555], [106.89283596011245, -6.23581370237922], [106.89285143662686, -6.2358488259263005], [106.89286595896955, -6.235877632064532], [106.89286715468428, -6.235880004750415], [106.89287642736039, -6.235898396887208], [106.89288082801922, -6.235907126814373], [106.8928863470385, -6.235918074193209], [106.89291739823176, -6.2359796647004195], [106.89292125926832, -6.235987322448348], [106.89293970727581, -6.2360239171978336], [106.89295616880864, -6.236056573420357], [106.89297999660305, -6.236103834856734], [106.89299108015094, -6.236125819859986], [106.89301106119106, -6.236185772044715], [106.89301261244505, -6.236235364817721], [106.8930129616402, -6.236246568556222], [106.8930130361037, -6.236248939844953], [106.89300738065354, -6.236279041768789], [106.89300488760469, -6.2362923099226455], [106.8929694935901, -6.236391486407683], [106.89296880659465, -6.236393408362822], [106.89295572079965, -6.236430078428385], [106.89294192169056, -6.236457054167169], [106.89289925473362, -6.236517275739035], [106.89289335057921, -6.23652401652125], [106.89279203105556, -6.23652401652125], [106.89279203105556, -6.23663311254761], [106.89277923428426, -6.236646010585468], [106.89273629767729, -6.23668421733786], [106.89271346401752, -6.236704535808604], [106.89266336717512, -6.236752830444802], [106.89265271242994, -6.236766510371586], [106.89262060429084, -6.236807734208802], [106.8925668561066, -6.236856711925465], [106.89251765055232, -6.236869621678205], [106.8924965383444, -6.2368751612312705], [106.89244576731241, -6.236883873258998], [106.89241524581831, -6.236889110268869], [106.89234203837204, -6.236927134605044], [106.89228385103412, -6.236985631656781], [106.89226365887916, -6.237025007117099], [106.89224619159333, -6.23705906458862], [106.89222204686223, -6.237141084411964], [106.89221659937758, -6.237165448832191], [106.89220339060248, -6.237224525720337], [106.89219603919135, -6.23727199773768], [106.89219574777715, -6.237273877585806], [106.89219030643198, -6.237309022036829], [106.8921873484523, -6.237342803167318], [106.89218639287071, -6.237353725889612], [106.89218284994091, -6.23739420156013], [106.8921932073703, -6.237475711389136], [106.8922053149534, -6.237498548046499], [106.89221303433024, -6.237513106796656], [106.89223169056305, -6.237548294883354], [106.89224389483334, -6.2375590437541], [106.89226585979567, -6.237578387571076], [106.89227083032957, -6.237582765640789], [106.89229332914199, -6.2376025785948395], [106.89229825811137, -6.237604436977511], [106.89237016336216, -6.2376315523867865], [106.89244077219857, -6.2376478697871836], [106.89244633065816, -6.237649153586628], [106.89250043405266, -6.2376671812325455], [106.89252050142416, -6.237673866671837], [106.89253485108057, -6.2376802091887225], [106.8925724522997, -6.237696827791845], [106.89259200808304, -6.237705470718604], [106.89261408717603, -6.2377178395767094], [106.89266021897662, -6.237743683193078], [106.89271385413164, -6.237780782593738], [106.89272347959107, -6.237787442252817], [106.89272452392893, -6.237788165428052], [106.89275812423375, -6.237825124337729], [106.89276593910637, -6.237841614875437], [106.89279076114308, -6.237893987439863], [106.89280688226478, -6.23796847486114], [106.89280603625592, -6.238020502959342], [106.89280564234902, -6.238044680145622], [106.89279570859766, -6.238084295428196], [106.89279074621325, -6.238104095820322], [106.89278710744614, -6.238118603147451], [106.8927754333533, -6.238141297395088], [106.89275224755586, -6.238186367049988], [106.89274782421204, -6.238191969619674], [106.89271240413281, -6.238236819229076], [106.89269967429716, -6.238248563626729], [106.89268661756911, -6.23826060937304], [106.89266515712484, -6.238280406663717], [106.89261167270702, -6.2383160519485195], [106.89257285576136, -6.2383433707504805], [106.89257204194843, -6.238343943282268], [106.8925440740284, -6.238363627428008], [106.89248775238033, -6.238424146724452], [106.89243592060924, -6.238495342235401], [106.89240382579665, -6.238542570433501], [106.89238642035193, -6.238568181230342], [106.89233930644684, -6.238642586660939], [106.8922946237908, -6.2387184806103315], [106.89225242269525, -6.238795783333936], [106.89223747013963, -6.238828159128241], [106.89222179675704, -6.238862094440171], [106.89221264131479, -6.238888735246817], [106.89219805735293, -6.2389311745948195], [106.89219473115195, -6.238945421313073], [106.89218144858117, -6.239002309555266], [106.89217214580313, -6.2390747654344265], [106.89217194541705, -6.2390783447374245], [106.89216805742889, -6.239147543439677], [106.89216727944736, -6.239161376852548], [106.89216692796283, -6.239185294406069], [106.89216629345502, -6.23922861068963], [106.88648572479418, -6.23922861068963], [106.88648572479418, -6.2320163281631595], [106.88738662568868, -6.2320163281631595], [106.88738662568868, -6.231114785781933], [106.88648572479418, -6.231114785781933], [106.88648572479418, -6.230213241831357], [106.88378302211075, -6.230213241831357], [106.88378302211075, -6.2293116963116555], [106.88198122032179, -6.2293116963116555], [106.88198122032179, -6.228410149223055], [106.88108031942731, -6.228410149223055], [106.88108031942731, -6.2293116963116555], [106.88017941853283, -6.2293116963116555], [106.88017941853283, -6.230213241831357], [106.87927851763834, -6.230213241831357], [106.87927851763834, -6.231114785781933], [106.87837761674388, -6.231114785781933], [106.87837761674388, -6.2320163281631595], [106.87927851763834, -6.2320163281631595], [106.87927851763834, -6.232917868974814], [106.88108031942731, -6.232917868974814], [106.88108031942731, -6.233819408216673], [106.88017941853283, -6.233819408216673], [106.88017941853283, -6.234720945888516], [106.88108031942731, -6.234720945888516], [106.88108031942731, -6.235622481990116], [106.88198122032179, -6.235622481990116], [106.88198122032179, -6.237425549481697], [106.88108031942731, -6.237425549481697], [106.88108031942731, -6.238327080871232], [106.88198122032179, -6.238327080871232], [106.88198122032179, -6.23922861068963], [106.88108031942731, -6.23922861068963], [106.88108031942731, -6.239881077848587], [106.88087735143432, -6.2398905853983715], [106.8808564990548, -6.23989156221646], [106.88073082197768, -6.239897450434259], [106.88044047467567, -6.239911491675152], [106.87978419025333, -6.239943232273815], [106.87978411798578, -6.239943236148371], [106.87961537554918, -6.239951397157687], [106.87925987332405, -6.23996485931215], [106.87895241718584, -6.239976500630959], [106.87894646019667, -6.239976726223953], [106.87885131278539, -6.239980329691253], [106.87884783372728, -6.239980184783331], [106.87882257466718, -6.2399816139486814], [106.87882250135232, -6.239959515977635], [106.8787884932148, -6.2399590803634615], [106.87871057574056, -6.239958081707577], [106.87865859441439, -6.2399610790574], [106.8786066130861, -6.239964076402266], [106.87852444327807, -6.239971596384119], [106.87844312413974, -6.239985587910197], [106.87836316312331, -6.240005960565263], [106.87835736055472, -6.240007939644614], [106.87828505943386, -6.240032591414469], [106.87820930126088, -6.2400653087385445], [106.8779506041927, -6.240064795634299], [106.87793604157575, -6.240125762629444], [106.8778980094176, -6.240284979221524], [106.87788652344614, -6.240333055679187], [106.877846118327, -6.240452102276653], [106.87778527056014, -6.240631381883415], [106.87772884338762, -6.240797638676607], [106.87769648277398, -6.240892982418022], [106.87765521581204, -6.241031665612131], [106.87747671584938, -6.241031665612131], [106.87747671584938, -6.241631538879281], [106.87744549636308, -6.241736457177396], [106.8773867033805, -6.242052066668087], [106.87730288336869, -6.24250203121435], [106.87728208707429, -6.242613675280962], [106.87727700699915, -6.242640940764745], [106.8772283361419, -6.242995108592033], [106.8772135591447, -6.2430146773038135], [106.87718988644718, -6.243046025321855], [106.87716509463239, -6.243077218201229], [106.87714546859591, -6.243101909923835], [106.87697832384652, -6.243312195768786], [106.87697784172767, -6.243312805074879], [106.87692577901868, -6.243378302700841], [106.87687477411471, -6.243442472881891], [106.87681986405526, -6.243505343262543], [106.87668471101705, -6.243696838030357], [106.8766188048586, -6.2437362362067885], [106.87657581495492, -6.2437362362067885], [106.87657581495492, -6.243761935228691], [106.87644746428047, -6.243838662239265], [106.87625055902859, -6.244133539439631], [106.87623538281125, -6.244168390558557], [106.87620562544808, -6.244236726316921], [106.87593784479897, -6.244851672086741], [106.87574193541528, -6.2453015636149], [106.87568075236896, -6.245446549305266], [106.87538431792555, -6.246149004856245], [106.87529651544322, -6.246357074705489], [106.87528626423244, -6.2463802384415725], [106.8752804748966, -6.2463933185879865], [106.8752438385495, -6.246386210584814], [106.87520864975, -6.246379382225203], [106.8751742023607, -6.246372698596143], [106.8751573389726, -6.2463694269239785], [106.87511761764799, -6.246361719608121], [106.8750771178469, -6.246353861358629], [106.87489800118945, -6.246319106917678], [106.87477401316593, -6.24629316427038], [106.87477401316593, -6.242834714247414], [106.87567491406043, -6.242834714247414], [106.87567491406043, -6.241031665612131], [106.87657581495492, -6.241031665612131], [106.87657581495492, -6.23922861068963], [106.87567491406043, -6.23922861068963], [106.87567491406043, -6.237425549481697], [106.87207131048251, -6.237425549481697], [106.87207131048251, -6.238327080871232], [106.87117040958802, -6.238327080871232], [106.87117040958802, -6.2401301389366735], [106.87207131048251, -6.2401301389366735], [106.87207131048251, -6.245539275407889], [106.87153456805059, -6.245539275407889], [106.87133574378329, -6.245480231361826], [106.87117040958802, -6.245431132533943], [106.87117040958802, -6.244637756593688], [106.86891720327837, -6.244637756593688], [106.86881368568957, -6.244600204893282], [106.86864858783196, -6.244538984363797], [106.86858031041652, -6.24451366557286], [106.86851194977903, -6.244488318133754], [106.86850021827664, -6.244483968329481], [106.86846770690458, -6.244471912291652], [106.86846770690458, -6.2437362362067885], [106.86648975816306, -6.2437362362067885], [106.866268952437, -6.243663775386662], [106.86609432755345, -6.243606470093468], [106.86576500422113, -6.243507382116887], [106.86576500422113, -6.242834714247414], [106.86396320243217, -6.242834714247414], [106.86396320243217, -6.241933190715787], [106.86306230153771, -6.241933190715787], [106.86306230153771, -6.23922861068963], [106.86396320243217, -6.23922861068963], [106.86396320243217, -6.2371178984907525], [106.86402730057489, -6.237073480816918], [106.86409665697097, -6.237027568422751], [106.86412447512409, -6.237011113853291], [106.86416614238806, -6.236986466567313], [106.86423868641549, -6.236951049145498], [106.86431382363646, -6.236921542032615], [106.86439810637125, -6.236892830751259], [106.8644827205911, -6.236865115567117], [106.86454570357924, -6.236845306895857], [106.86456765637695, -6.236838401939905], [106.86465290017968, -6.236812690821487], [106.86472915993784, -6.236793017780294], [106.86480659497786, -6.236778659703063], [106.86488483600685, -6.236769685707274], [106.86496350912184, -6.236766138706539], [106.86503445217762, -6.236768598223282], [106.86510488563444, -6.236777443759106], [106.8651742364123, -6.236792604105891], [106.86524193937419, -6.236813954682807], [106.86529914339725, -6.236846789902156], [106.86534525594404, -6.236893968083896], [106.86536045964326, -6.23691804157331], [106.86538029087346, -6.23694944220687], [106.86538995967727, -6.236971232414788], [106.8653965363836, -6.236986050797952], [106.86540690557483, -6.237009418984467], [106.86542453717753, -6.237072627364399], [106.86544162319053, -6.23715810243898], [106.86545871011974, -6.237243578412033], [106.86547579614854, -6.237329052577538], [106.86549288309995, -6.2374145294497945], [106.86550996914775, -6.237500003610345], [106.86553096204052, -6.237571174701557], [106.86554752008784, -6.237624355292718], [106.86555514202585, -6.237648837170031], [106.8655662926538, -6.2376742107028695], [106.86558935683682, -6.23770666314979], [106.86560047006394, -6.237721205063139], [106.86560422984404, -6.237726124804987], [106.86561359480143, -6.237738379073952], [106.86562552134728, -6.23775398500612], [106.86562723966153, -6.237756232973238], [106.8656543864273, -6.2378279039519855], [106.865675419905, -6.237860723436515], [106.86569349720413, -6.237902522584951], [106.86570271566066, -6.237974257960735], [106.86573166015266, -6.238047118755134], [106.8657520954324, -6.2380985613759625], [106.86576060465839, -6.238119980449505], [106.86576500422113, -6.238131055144611], [106.86576500422113, -6.238327080871232], [106.86584287729785, -6.238327080871232], [106.86584743822596, -6.238338561891024], [106.86586561077279, -6.238407274597907], [106.86588359257993, -6.238437647386564], [106.86591671558989, -6.238493812640644], [106.86595806370023, -6.238566928736355], [106.8659994100139, -6.238640043927468], [106.8660407572478, -6.238713160012643], [106.86608210359171, -6.238786276094177], [106.86612788861919, -6.2388470410892225], [106.86617367456164, -6.238907806073804], [106.86620430686045, -6.23894846034], [106.86621945961522, -6.238968571958446], [106.86626524467708, -6.239029336931703], [106.86629117456502, -6.239056573955858], [106.8663177338343, -6.239084470587116], [106.86633090736888, -6.239098308971314], [106.86637022210553, -6.239139606045393], [106.86641818134764, -6.239181300142768], [106.86646615117911, -6.239225984227586], [106.86652633867446, -6.239264350186606], [106.86655837193398, -6.239270924666326], [106.86659624528521, -6.239278697241601], [106.86666666556476, -6.239267139409164], [106.8667030563806, -6.239253511428376], [106.86672574373077, -6.239235106559046], [106.86673218953993, -6.23922861068963], [106.8675668060101, -6.23922861068963], [106.8675668060101, -6.237425549481697], [106.86666590511562, -6.237425549481697], [106.86666590511562, -6.235622481990116], [106.86576500422113, -6.235622481990116], [106.86576500422113, -6.234889263450358], [106.86583270541415, -6.234902793136705], [106.8659032764486, -6.23491689670076], [106.86594474506035, -6.234921233567514], [106.86597941644582, -6.234923503193163], [106.86601287980997, -6.234922189416074], [106.86604133387992, -6.234918262290097], [106.86611964791295, -6.234891192228841], [106.86616069440845, -6.234870952089458], [106.86620173999657, -6.234850711951], [106.86624466355472, -6.234820895609402], [106.86628758891767, -6.23479108016346], [106.86633888066677, -6.23474512489778], [106.86635518586678, -6.234720945888516], [106.86666590511562, -6.234720945888516], [106.86666590511562, -6.232917868974814], [106.86576500422113, -6.232917868974814], [106.86576500422113, -6.2320163281631595], [106.86486410332664, -6.2320163281631595], [106.86486410332664, -6.231114785781933], [106.86396320243217, -6.231114785781933], [106.86396320243217, -6.2296567406116585], [106.86399850986105, -6.229623521445541], [106.86405316583637, -6.229572096218062], [106.86407672695931, -6.2295499280887405], [106.86407687914593, -6.229549784694578], [106.86410782090373, -6.22952067279949], [106.86415437081784, -6.229481087176428], [106.86416337975143, -6.2294734260869085], [106.86421879355036, -6.229426300136419], [106.86421893767884, -6.229426177566268], [106.86427449741238, -6.229378931748695], [106.86429593545225, -6.2293573253647985], [106.86435273434442, -6.229316611290168], [106.86435839313688, -6.2293116963116555], [106.86486410332664, -6.2293116963116555], [106.86486410332664, -6.225705498546069], [106.86396698307912, -6.225705498546069], [106.86396320243217, -6.225698914853669], [106.86396320243217, -6.224803945184093], [106.86576500422113, -6.224803945184093], [106.86576500422113, -6.223000833757009], [106.86846770690458, -6.223000833757009], [106.86846770690458, -6.225705498546069], [106.87117040958802, -6.225705498546069]], [[106.87657581495492, -6.226607050340037], [106.87747671584938, -6.226607050340037], [106.87747671584938, -6.227508600565775], [106.88108031942731, -6.227508600565775], [106.88108031942731, -6.226607050340037], [106.88017941853283, -6.226607050340037], [106.88017941853283, -6.225705498546069], [106.87927851763834, -6.225705498546069], [106.87927851763834, -6.224803945184093], [106.87747671584938, -6.224803945184093], [106.87747671584938, -6.225705498546069], [106.87657581495492, -6.225705498546069], [106.87657581495492, -6.226607050340037]], [[106.88198122032179, -6.226607050340037], [106.88198122032179, -6.225705498546069], [106.88378302211075, -6.225705498546069], [106.88378302211075, -6.223000833757009], [106.88198122032179, -6.223000833757009], [106.88198122032179, -6.223902390254333], [106.88108031942731, -6.223902390254333], [106.88108031942731, -6.226607050340037], [106.88198122032179, -6.226607050340037]], [[106.87115271567639, -6.226828299040166], [106.87108682718558, -6.226832652893769], [106.87108885868054, -6.226832519109157], [106.87115271567639, -6.226828299040166]], [[106.87917529744317, -6.22334873818171], [106.87909111666477, -6.223342121081326], [106.87917972668015, -6.223349086787606], [106.87917529744317, -6.22334873818171]], [[106.88012330969791, -6.2226469085644105], [106.88008319819492, -6.222678335740864], [106.88014854606672, -6.222627136352872], [106.88012330969791, -6.2226469085644105]], [[106.88092987456929, -6.221893908989795], [106.88092602957657, -6.221917601351206], [106.88092822305315, -6.221904085604813], [106.88092987456929, -6.221893908989795]], [[106.88176572977521, -6.220719579562421], [106.88174832504569, -6.220722617112309], [106.88178397603147, -6.220716396158926], [106.88176572977521, -6.220719579562421]], [[106.88196316507107, -6.220555000736556], [106.88191839917768, -6.220624034388152], [106.88192736224131, -6.220610212433013], [106.88196316507107, -6.220555000736556]], [[106.8819925636256, -6.2202701129189455], [106.88198526304852, -6.220315699700968], [106.88199589220946, -6.2202493328489235], [106.8819925636256, -6.2202701129189455]], [[106.88230647642148, -6.22003341491996], [106.88225636001765, -6.220034095301949], [106.88231510063997, -6.220033298294724], [106.88230647642148, -6.22003341491996]], [[106.88525558607621, -6.220113957773365], [106.88518410278421, -6.220158845931131], [106.88519785730595, -6.22015020928868], [106.88525558607621, -6.220113957773365]], [[106.88539320081767, -6.219657722339614], [106.88538413338297, -6.219677717280954], [106.88540509292629, -6.219631501331938], [106.88539320081767, -6.219657722339614]], [[106.88564662789295, -6.219233708631873], [106.88563777810926, -6.219279532357978], [106.88565399178503, -6.219195582659538], [106.88564662789295, -6.219233708631873]], [[106.86980060140186, -6.243586404755185], [106.8698247315713, -6.243517801596402], [106.86979945643274, -6.243589659244098], [106.86980060140186, -6.243586404755185]]]}}, {"type": "Feature", "properties": {"class": 4}, "geometry": {"type": "Polygon", "coordinates": [[[106.86486410332664, -6.213985182617016], [106.86616342130942, -6.213985182617016], [106.86632453325805, -6.214135295110949], [106.86669167906001, -6.214477376426497], [106.86682767488415, -6.214604087954204], [106.86693869694103, -6.21470752973398], [106.86724475534486, -6.214870216225442], [106.86730096052501, -6.214886754777673], [106.86486410332664, -6.214886754777673], [106.86486410332664, -6.216689894402779], [106.86576500422113, -6.216689894402779], [106.86576500422113, -6.219394592096566], [106.86666590511562, -6.219394592096566], [106.86666590511562, -6.220296154861903], [106.86576500422113, -6.220296154861903], [106.86576500422113, -6.223000833757009], [106.86506172381713, -6.223000833757009], [106.8650234448005, -6.222952282140626], [106.86496806442022, -6.222885753032258], [106.86494631308075, -6.222860990953559], [106.86491093745158, -6.222820719223686], [106.86486410332664, -6.222770176353156], [106.86486410332664, -6.22119771606057], [106.86396320243217, -6.22119771606057], [106.86396320243217, -6.219394592096566], [106.86216140064322, -6.219394592096566], [106.86216140064322, -6.21970230883337], [106.86212369527944, -6.21970158408787], [106.8620599652914, -6.219701459726007], [106.86199075185083, -6.2197061665977795], [106.86192290731748, -6.219720663349185], [106.86185780938685, -6.219744657604756], [106.86179677633866, -6.219777660997241], [106.86175640570241, -6.2198051512618875], [106.86170434044027, -6.219848865310975], [106.86165583337905, -6.219896504414064], [106.86161118255953, -6.219947780000423], [106.86157903874488, -6.219991089300516], [106.86157065883572, -6.220002380087002], [106.86153265304081, -6.220054642195306], [106.86149849893788, -6.220109503738715], [106.86146837441515, -6.2201666792819275], [106.86144726723127, -6.220217061774248], [106.8614385295741, -6.220245310351846], [106.86143112566985, -6.220269250449642], [106.86142451164434, -6.220355134164462], [106.8614383315879, -6.22044015473311], [106.86147180877731, -6.220519511110814], [106.86151458229118, -6.220588418850335], [106.86156481558312, -6.220652085123466], [106.86161344815399, -6.220701191087809], [106.86162187788536, -6.22070970293193], [106.86166807234122, -6.220765084181679], [106.86168480901861, -6.2207895766221695], [106.86170876474019, -6.220824631274158], [106.86174358363584, -6.220887799410413], [106.86177220895233, -6.220954007444288], [106.86179349212618, -6.2210319194247585], [106.86180691469039, -6.221111564348887], [106.86181234194866, -6.221192151557333], [106.86181242859517, -6.22119771606057], [106.86035959885425, -6.22119771606057], [106.86035959885425, -6.2206042021899774], [106.86036034030049, -6.220602907694449], [106.86039270610061, -6.220546377983378], [106.86042645465861, -6.220470957393035], [106.86046139231495, -6.220396081437581], [106.86049750828457, -6.220321766429685], [106.86050249701354, -6.22031190260061], [106.86051046050319, -6.220296154861903], [106.86126049974872, -6.220296154861903], [106.86126049974872, -6.219071656446449], [106.8612650232819, -6.219064865889563], [106.86130865643065, -6.2189993697537025], [106.8613631283789, -6.218931972870952], [106.86137395116113, -6.2189185821728845], [106.86141410292902, -6.2188527691880635], [106.86144999682533, -6.2188116917185665], [106.86150814442333, -6.218745147158272], [106.86172514718876, -6.218496804937], [106.86172844764711, -6.218493027764783], [106.86216140064322, -6.218493027764783], [106.86216140064322, -6.217927824225973], [106.86228176974348, -6.217733056562087], [106.86228312990556, -6.217734457729786], [106.86231268074049, -6.217698645791308], [106.8623446183377, -6.217665330854403], [106.86240520070676, -6.217605232445007], [106.86241941471451, -6.217591461866782], [106.86306230153771, -6.217591461866782], [106.86306230153771, -6.217002470349252], [106.86308130415662, -6.216986324210522], [106.86311318580253, -6.216957160424624], [106.86312509083795, -6.216947607652639], [106.86312451427034, -6.21694679685018], [106.86314135792992, -6.216931389445249], [106.86320141259388, -6.216876454673582], [106.86326146634156, -6.216821519901907], [106.8633215200796, -6.216766586031146], [106.86338157380166, -6.2167116512530365], [106.86340535796054, -6.216689894402779], [106.86396320243217, -6.216689894402779], [106.86396320243217, -6.215788325373], [106.86306230153771, -6.215788325373], [106.86306230153771, -6.216117818692464], [106.86304232726364, -6.216117021007911], [106.86295293005868, -6.216122119981884], [106.86287575869153, -6.21612872828653], [106.86279929230169, -6.216141060108652], [106.86272395257052, -6.216159046151574], [106.8626501592708, -6.216182588192622], [106.86257831760238, -6.216211554606836], [106.86250882724921, -6.216245786664207], [106.86242953670914, -6.216288728614998], [106.8623502461505, -6.216331669653537], [106.86231973035423, -6.2163481957277655], [106.86229888330455, -6.2163594861293765], [106.86227095467619, -6.216374611591262], [106.8621916640868, -6.216417552613536], [106.86211237258489, -6.216460495439153], [106.8620330828682, -6.216503436442011], [106.86195379132917, -6.216546377443093], [106.86187450068141, -6.216589319337007], [106.86179912737532, -6.2166306750972495], [106.86178228930216, -6.216639977591562], [106.86175262858345, -6.216656366816205], [106.86172387681299, -6.216672254648301], [106.8616921737564, -6.216689894402779], [106.86126049974872, -6.216689894402779], [106.86126049974872, -6.2169347907869446], [106.86120060919299, -6.2169695214226435], [106.86112636309645, -6.217012871332081], [106.86105224514516, -6.217056439589015], [106.8609782562521, -6.217100228902788], [106.86090439731117, -6.217144236557835], [106.86083066832236, -6.217188462554215], [106.86075707109258, -6.21723290688567], [106.8607543491921, -6.217234022252087], [106.86070921995547, -6.217252515622791], [106.86066043042695, -6.217269650273357], [106.8606307148479, -6.217277140041718], [106.86057672780102, -6.217290748694027], [106.86049198597156, -6.21730716904223], [106.86040646406025, -6.217318859771912], [106.86035959885425, -6.217322631787307], [106.86035959885425, -6.216689894402779], [106.85945869795977, -6.216689894402779], [106.85945869795977, -6.215788325373], [106.85855779706529, -6.215788325373], [106.85855779706529, -6.216342884511843], [106.85852989329003, -6.216365228076427], [106.85848278141484, -6.216423516563871], [106.85843549286317, -6.216481666431092], [106.85838803032006, -6.216539670435332], [106.85834039470477, -6.2165975330941485], [106.858310628405, -6.216635621393597], [106.85829374757398, -6.216657219577615], [106.85824863504641, -6.2167180751644375], [106.85820508227704, -6.216780059079445], [106.85816001857948, -6.216850968720603], [106.8581178476992, -6.216923639434626], [106.8580786369697, -6.21699794892396], [106.858046939059, -6.217064371257216], [106.8580424492262, -6.217073780331834], [106.8580093436648, -6.21715100958089], [106.85797937495785, -6.217229510801325], [106.85795259144714, -6.21730915633716], [106.85793204730288, -6.217365345989707], [106.8579183852605, -6.217398437353369], [106.85790638774543, -6.21742749665277], [106.85787214714094, -6.217485357420927], [106.85781461258505, -6.217544197005742], [106.85774766573546, -6.217591461866782], [106.85765689617081, -6.217591461866782], [106.85765689617081, -6.216689894402779], [106.85675599527633, -6.216689894402779], [106.85675599527633, -6.214886754777673], [106.85765689617081, -6.214886754777673], [106.85765689617081, -6.213985182617016], [106.85855779706529, -6.213985182617016], [106.85855779706529, -6.213083608891255], [106.85945869795977, -6.213083608891255], [106.85945869795977, -6.212580450401971], [106.8596138207709, -6.212517438436433], [106.85975674622856, -6.21245938268366], [106.85986336684755, -6.212414629036328], [106.8598794169985, -6.212407891781816], [106.86041750182792, -6.2121820336006115], [106.86126049974872, -6.2121820336006115], [106.86126049974872, -6.211829269530378], [106.86157924743297, -6.211695037074344], [106.86166971325979, -6.211663847187556], [106.86186433444252, -6.211583240240662], [106.86206158471916, -6.211532978288267], [106.86225551045118, -6.211519299250135], [106.86227394132956, -6.211517999285067], [106.8623365477368, -6.211518761680781], [106.86242610330564, -6.211519853231259], [106.86246401210892, -6.211520314688167], [106.86246687624148, -6.211520346194558], [106.86267430468855, -6.211522687202849], [106.86303536826489, -6.2115684009271845], [106.86304338390778, -6.211569427843561], [106.86305208288859, -6.211570542768432], [106.86305898927971, -6.211573429821473], [106.86307026308674, -6.211576319574492], [106.86317713810696, -6.211608444778909], [106.86321155389732, -6.211621189672771], [106.86327933608105, -6.211646290745777], [106.86328179402797, -6.211647200708484], [106.86338382104667, -6.211692436005057], [106.86347582506518, -6.211739000433931], [106.86356569560805, -6.211789566009607], [106.86360326941256, -6.2118129389319945], [106.86362129709157, -6.211824153837792], [106.86365325886844, -6.21184403569648], [106.86368505292681, -6.211865807826451], [106.86374470919685, -6.211902697793393], [106.86375272420983, -6.211907653250624], [106.86378100855886, -6.211925143005799], [106.86380421821843, -6.2119362528441116], [106.86382881072856, -6.21194802688243], [106.86383594213402, -6.21195143934754], [106.86391700129982, -6.21199024391072], [106.86396320243217, -6.212012360704788], [106.86396320243217, -6.2121820336006115], [106.86422675203234, -6.2121820336006115], [106.86430818207718, -6.2122594315646795], [106.8643421009616, -6.212291671680027], [106.86435147700071, -6.212300585234869], [106.8645116763795, -6.212448996163599], [106.86462026622212, -6.212549595579048], [106.86472421878993, -6.212645899400039], [106.8647822051986, -6.212699618682019], [106.86481910614012, -6.212733803919276], [106.86486410332664, -6.2127754896084895], [106.86486410332664, -6.213985182617016]]]}}, {"type": "Feature", "properties": {"class": 4}, "geometry": {"type": "Polygon", "coordinates": [[[106.86846770690458, -6.215788325373], [106.86846770690458, -6.2149835889351275], [106.86853512542312, -6.214983431951837], [106.86864492802486, -6.214983175852849], [106.86868977458175, -6.214983071582019], [106.86872033181763, -6.214982999734706], [106.86895755921603, -6.214982446837702], [106.86896434158103, -6.214982430997538], [106.86930298909374, -6.214981641447742], [106.86932251583242, -6.21498159591032], [106.86936860779905, -6.214981488369166], [106.86936860779905, -6.215788325373], [106.86846770690458, -6.215788325373]]]}}, {"type": "Feature", "properties": {"class": 3}, "geometry": {"type": "Polygon", "coordinates": [[[106.87477401316593, -6.242834714247414], [106.87477401316593, -6.245539275407889], [106.87387311227145, -6.245539275407889], [106.87387311227145, -6.242834714247414], [106.87477401316593, -6.242834714247414]]]}}, {"type": "Feature", "properties": {"class": 3}, "geometry": {"type": "Polygon", "coordinates": [[[106.87297221137698, -6.2401301389366735], [106.87297221137698, -6.245539275407889], [106.87207131048251, -6.245539275407889], [106.87207131048251, -6.2401301389366735], [106.87297221137698, -6.2401301389366735]]]}}, {"type": "Feature", "properties": {"class": 3}, "geometry": {"type": "Polygon", "coordinates": [[[106.87477401316593, -6.241031665612131], [106.87567491406043, -6.241031665612131], [106.87567491406043, -6.242834714247414], [106.87477401316593, -6.242834714247414], [106.87477401316593, -6.241031665612131]]]}}, {"type": "Feature", "properties": {"class": 3}, "geometry": {"type": "Polygon", "coordinates": [[[106.87117040958802, -6.238327080871232], [106.87207131048251, -6.238327080871232], [106.87207131048251, -6.2401301389366735], [106.87117040958802, -6.2401301389366735], [106.87117040958802, -6.238327080871232]]]}}, {"type": "Feature", "properties": {"class": 3}, "geometry": {"type": "Polygon", "coordinates": [[[106.87477401316593, -6.23922861068963], [106.87477401316593, -6.237425549481697], [106.87567491406043, -6.237425549481697], [106.87567491406043, -6.23922861068963], [106.87477401316593, -6.23922861068963]]]}}, {"type": "Feature", "properties": {"class": 3}, "geometry": {"type": "Polygon", "coordinates": [[[106.86519669840744, -6.213083608891255], [106.86537136723139, -6.213245423673277], [106.8653928189512, -6.213265297247538], [106.86539286608755, -6.213265341384782], [106.86543348530715, -6.213302970921999], [106.86543754886297, -6.213306735949239], [106.86555281801762, -6.213414901872113], [106.86573110268009, -6.213582201284842], [106.86575746661839, -6.213606940836509], [106.86585298244923, -6.213695935065048], [106.86594998581154, -6.213786317317459], [106.86611914396265, -6.213943928178692], [106.86616342130942, -6.213985182617016], [106.86486410332664, -6.213985182617016], [106.86486410332664, -6.213083608891255], [106.86519669840744, -6.213083608891255]]]}}, {"type": "Feature", "properties": {"class": 3}, "geometry": {"type": "Polygon", "coordinates": [[[106.87567491406043, -6.241031665612131], [106.87567491406043, -6.23922861068963], [106.87657581495492, -6.23922861068963], [106.87657581495492, -6.241031665612131], [106.87567491406043, -6.241031665612131]]]}}, {"type": "Feature", "properties": {"class": 3}, "geometry": {"type": "Polygon", "coordinates": [[[106.89008932837211, -6.227508600565775], [106.89008932837211, -6.228410149223055], [106.88918842747763, -6.228410149223055], [106.88918842747763, -6.227508600565775], [106.89008932837211, -6.227508600565775]]]}}, {"type": "Feature", "properties": {"class": 3}, "geometry": {"type": "Polygon", "coordinates": [[[106.88738662568868, -6.225705498546069], [106.88738662568868, -6.226607050340037], [106.88648572479418, -6.226607050340037], [106.88648572479418, -6.225705498546069], [106.88738662568868, -6.225705498546069]]]}}, {"type": "Feature", "properties": {"class": 3}, "geometry": {"type": "Polygon", "coordinates": [[[106.89279203105556, -6.222099275692347], [106.89369293195006, -6.222099275692347], [106.89369293195006, -6.222588876198314], [106.89365660341014, -6.222639159042907], [106.89361870071129, -6.222708314231659], [106.89358965981293, -6.222781638269093], [106.89356992840953, -6.222858000280592], [106.89355886721987, -6.222934730827979], [106.89355394023903, -6.223012099397787], [106.8935551800403, -6.223089614020954], [106.89356203516571, -6.223161125816855], [106.89356257855037, -6.223166785586386], [106.89356410102933, -6.223175394762349], [106.89357580759598, -6.223241536654506], [106.89357608702991, -6.223243122416217], [106.89357673079562, -6.223291442719358], [106.89357711230532, -6.223320016663544], [106.8935768954007, -6.223322772352969], [106.8935738731918, -6.2233613519530815], [106.89357332973218, -6.223368285031689], [106.89357148428815, -6.223391848991752], [106.89357110587902, -6.223396683875967], [106.89356957485207, -6.223405617739648], [106.89356571456058, -6.223428149166462], [106.89356145777158, -6.223452987569843], [106.89356117458041, -6.223454641351617], [106.89355811874061, -6.223472478316068], [106.89354902597292, -6.223506498417324], [106.8935428137347, -6.223529735371191], [106.89353826155723, -6.223546767594111], [106.89352273808062, -6.223588937161752], [106.89351169833319, -6.223618928170167], [106.89348263515576, -6.223695625641503], [106.89345578928351, -6.223773126173642], [106.8934311785635, -6.223851367317038], [106.89341871719031, -6.223895362210124], [106.89340882625393, -6.223930283890317], [106.89339976613347, -6.22396989055183], [106.8933907051155, -6.224009499025035], [106.8933822081924, -6.22409031703762], [106.89338322591225, -6.224156269427355], [106.89338346141845, -6.224171572944436], [106.89338695940702, -6.224197220768555], [106.8933921971347, -6.224235630604132], [106.89339444160916, -6.224252089638163], [106.89339625569838, -6.224259123662172], [106.89341379744394, -6.224327154166438], [106.89341454660989, -6.224335780582208], [106.89341957490508, -6.224393660897399], [106.89342050686443, -6.224404386068246], [106.89341897256091, -6.224423756421368], [106.8934182196947, -6.224433267951999], [106.89341438700465, -6.224481667603875], [106.89338969310458, -6.224552074688797], [106.89336288496573, -6.224621701852894], [106.89333398766748, -6.224690488428778], [106.89330302536628, -6.224758368327508], [106.89327668680436, -6.224827681880959], [106.8932672097654, -6.224901228711124], [106.89327511462434, -6.224974961831976], [106.89332326521448, -6.225026502252907], [106.89335823041606, -6.2250601491341335], [106.89336736994963, -6.225068945266646], [106.89342743586208, -6.22512153693778], [106.89342837835862, -6.225126878826502], [106.89343536872418, -6.2251665065736415], [106.89344181498865, -6.2252030504458435], [106.89341007290676, -6.225279483594579], [106.89335101329698, -6.225321935933001], [106.89328751874054, -6.225357401619641], [106.89322041067021, -6.225385422019733], [106.89320339323724, -6.225398456554686], [106.89316332159282, -6.225429152962387], [106.89311733621976, -6.2254844541241665], [106.89311697376502, -6.225485166981791], [106.89309419835585, -6.2255299683027445], [106.89308473775758, -6.225548577776377], [106.89305048226417, -6.225625304743619], [106.89303801575484, -6.225656271019872], [106.89301910241781, -6.225703253738523], [106.8929906430082, -6.225782317008016], [106.89296514159412, -6.22586238592085], [106.89295410696583, -6.225908953409128], [106.89294764444739, -6.225936229153903], [106.89293208759932, -6.2260081983804945], [106.8929316103285, -6.226010404383854], [106.89291704907926, -6.226084884451193], [106.89291050889717, -6.226122260614548], [106.89290396781794, -6.226159638589561], [106.89289237004908, -6.226234636045616], [106.89288131406978, -6.226305260949707], [106.89287301594693, -6.22633766070822], [106.89286357910552, -6.226374510204149], [106.89283932822578, -6.226441751230729], [106.89279951609913, -6.226501289656124], [106.89279203105556, -6.2265097654058765], [106.89279203105556, -6.222099275692347]]]}}, {"type": "Feature", "properties": {"class": 3}, "geometry": {"type": "Polygon", "coordinates": [[[106.89189113016108, -6.222099275692347], [106.89189113016108, -6.22119771606057], [106.89279203105556, -6.22119771606057], [106.89279203105556, -6.222099275692347], [106.89189113016108, -6.222099275692347]]]}}, {"type": "Feature", "properties": {"class": 3}, "geometry": {"type": "Polygon", "coordinates": [[[106.89279203105556, -6.219394592096566], [106.89369293195006, -6.219394592096566], [106.89369293195006, -6.22119771606057], [106.89279203105556, -6.22119771606057], [106.89279203105556, -6.219394592096566]]]}}, {"type": "Feature", "properties": {"class": 2}, "geometry": {"type": "Polygon", "coordinates": [[[106.87477401316593, -6.23922861068963], [106.87567491406043, -6.23922861068963], [106.87567491406043, -6.241031665612131], [106.87477401316593, -6.241031665612131], [106.87477401316593, -6.242834714247414], [106.87387311227145, -6.242834714247414], [106.87387311227145, -6.245539275407889], [106.87297221137698, -6.245539275407889], [106.87297221137698, -6.2401301389366735], [106.87207131048251, -6.2401301389366735], [106.87207131048251, -6.237425549481697], [106.87477401316593, -6.237425549481697], [106.87477401316593, -6.23922861068963]]]}}, {"type": "Feature", "properties": {"class": 2}, "geometry": {"type": "Polygon", "coordinates": [[[106.89279203105556, -6.22119771606057], [106.89189113016108, -6.22119771606057], [106.89189113016108, -6.222099275692347], [106.89279203105556, -6.222099275692347], [106.89279203105556, -6.2265097654058765], [106.8927521108539, -6.22655496936979], [106.89271883736177, -6.226583764399161], [106.89269796374373, -6.226601828928994], [106.89269630971926, -6.22660291078745], [106.89268998235245, -6.226607050340037], [106.89189113016108, -6.226607050340037], [106.89189113016108, -6.226804049541592], [106.89185353997433, -6.22684109699303], [106.89182710576476, -6.226870889142551], [106.89180932278747, -6.226890932580279], [106.89180142203838, -6.2268998368468065], [106.89175334657152, -6.226961933743048], [106.89170952941897, -6.227027110242077], [106.8916708620345, -6.227096042157715], [106.89161706955814, -6.2271539317894], [106.89155117244613, -6.227197525154996], [106.89151357496036, -6.227223353787247], [106.89148866829221, -6.227240464412924], [106.89143775008912, -6.227296673785907], [106.89140116264291, -6.22736312541858], [106.89139012206671, -6.227442901100934], [106.89138316892144, -6.227508600565775], [106.88918842747763, -6.227508600565775], [106.88918842747763, -6.228410149223055], [106.88648572479418, -6.228410149223055], [106.88648572479418, -6.227508600565775], [106.88558482389972, -6.227508600565775], [106.88558482389972, -6.226607050340037], [106.88738662568868, -6.226607050340037], [106.88738662568868, -6.225705498546069], [106.88918842747763, -6.225705498546069], [106.88918842747763, -6.223902390254333], [106.89008932837211, -6.223902390254333], [106.89008932837211, -6.222099275692347], [106.89099022926659, -6.222099275692347], [106.89099022926659, -6.220296154861903], [106.89189113016108, -6.220296154861903], [106.89189113016108, -6.219394592096566], [106.89279203105556, -6.219394592096566], [106.89279203105556, -6.22119771606057]]]}}, {"type": "Feature", "properties": {"class": 1}, "geometry": {"type": "Polygon", "coordinates": [[[106.86306230153771, -6.242834714247414], [106.86306230153771, -6.241933190715787], [106.86396320243217, -6.241933190715787], [106.86396320243217, -6.242834714247414], [106.86306230153771, -6.242834714247414]]]}}, {"type": "Feature", "properties": {"class": 1}, "geometry": {"type": "Polygon", "coordinates": [[[106.88378302211075, -6.230213241831357], [106.88648572479418, -6.230213241831357], [106.88648572479418, -6.231114785781933], [106.88738662568868, -6.231114785781933], [106.88738662568868, -6.2320163281631595], [106.88648572479418, -6.2320163281631595], [106.88648572479418, -6.23922861068963], [106.88288212121627, -6.23922861068963], [106.88288212121627, -6.239792455594174], [106.8825506854128, -6.239812199249927], [106.88210968738436, -6.239832859406783], [106.88196687630422, -6.23983954874157], [106.88170905244041, -6.239851626355595], [106.88108031942731, -6.239881077848587], [106.88108031942731, -6.23922861068963], [106.88198122032179, -6.23922861068963], [106.88198122032179, -6.238327080871232], [106.88108031942731, -6.238327080871232], [106.88108031942731, -6.237425549481697], [106.88198122032179, -6.237425549481697], [106.88198122032179, -6.235622481990116], [106.88108031942731, -6.235622481990116], [106.88108031942731, -6.234720945888516], [106.88017941853283, -6.234720945888516], [106.88017941853283, -6.233819408216673], [106.88108031942731, -6.233819408216673], [106.88108031942731, -6.232917868974814], [106.87927851763834, -6.232917868974814], [106.87927851763834, -6.2320163281631595], [106.87837761674388, -6.2320163281631595], [106.87837761674388, -6.231114785781933], [106.87927851763834, -6.231114785781933], [106.87927851763834, -6.230213241831357], [106.88017941853283, -6.230213241831357], [106.88017941853283, -6.2293116963116555], [106.88108031942731, -6.2293116963116555], [106.88108031942731, -6.228410149223055], [106.88198122032179, -6.228410149223055], [106.88198122032179, -6.2293116963116555], [106.88378302211075, -6.2293116963116555], [106.88378302211075, -6.230213241831357]], [[106.88540543231149, -6.236843519660437], [106.8854035376206, -6.236824801644661], [106.88540345333001, -6.236823969230842], [106.88540543231149, -6.236843519660437]]]}}, {"type": "Feature", "properties": {"class": 1}, "geometry": {"type": "Polygon", "coordinates": [[[106.87927851763834, -6.225705498546069], [106.88017941853283, -6.225705498546069], [106.88017941853283, -6.226607050340037], [106.88108031942731, -6.226607050340037], [106.88108031942731, -6.227508600565775], [106.87747671584938, -6.227508600565775], [106.87747671584938, -6.226607050340037], [106.87657581495492, -6.226607050340037], [106.87657581495492, -6.225705498546069], [106.87747671584938, -6.225705498546069], [106.87747671584938, -6.224803945184093], [106.87927851763834, -6.224803945184093], [106.87927851763834, -6.225705498546069]]]}}, {"type": "Feature", "properties": {"class": 1}, "geometry": {"type": "Polygon", "coordinates": [[[106.88198122032179, -6.223000833757009], [106.88378302211075, -6.223000833757009], [106.88378302211075, -6.225705498546069], [106.88198122032179, -6.225705498546069], [106.88198122032179, -6.226607050340037], [106.88108031942731, -6.226607050340037], [106.88108031942731, -6.223902390254333], [106.88198122032179, -6.223902390254333], [106.88198122032179, -6.223000833757009]]]}}, {"type": "Feature", "properties": {"class": 1}, "geometry": {"type": "Polygon", "coordinates": [[[106.86936860779905, -6.214981488369166], [106.8695765477227, -6.214981003206546], [106.86961995863547, -6.214980901221393], [106.86962001555393, -6.214980901020098], [106.86997527868432, -6.214980072169069], [106.87048936023312, -6.2149834677527656], [106.87069461009162, -6.214984823764122], [106.8709442904274, -6.214986473627661], [106.87103956988229, -6.214987102959334], [106.87107402574355, -6.214987330917973], [106.87111125805461, -6.214987576172066], [106.87115676281041, -6.214987877133994], [106.87116280541592, -6.214987917228802], [106.8711922992513, -6.214988111205897], [106.87123466344164, -6.2149883916318345], [106.87129429260004, -6.214988785442992], [106.87133995817167, -6.214989086723971], [106.87140408404498, -6.214989510716941], [106.87145338438941, -6.214989835287341], [106.87146179777119, -6.214989889589928], [106.87153673672262, -6.214990385594558], [106.87157669127245, -6.2149906501113525], [106.87163848610665, -6.21499105791608], [106.87166382474324, -6.2149912249866315], [106.87166470113807, -6.214991230925353], [106.8717656572424, -6.2149918978934275], [106.87178233132038, -6.214992007933239], [106.8718007681259, -6.214992129814324], [106.87199649405379, -6.214993422294126], [106.87203500932007, -6.214993677406226], [106.87212371920339, -6.214994214073639], [106.87221655090664, -6.214991473955234], [106.87222816209487, -6.214991130848633], [106.8723977922332, -6.214986124159426], [106.87244261992836, -6.214984800842423], [106.87258729316956, -6.214980529858181], [106.87258815680347, -6.214980504195328], [106.87265076307972, -6.214978656769984], [106.87280528137391, -6.214974095882957], [106.87299915463421, -6.2149683729284835], [106.8730979151833, -6.214965457042753], [106.87349892283612, -6.214936392616339], [106.8740828072423, -6.214914111751531], [106.87408383977535, -6.214914071925299], [106.87421555071208, -6.214909047186836], [106.87422707121834, -6.2149083589736795], [106.87438675678703, -6.2148988245780155], [106.87448564037767, -6.214892921598382], [106.8745022292166, -6.2148919306018], [106.87450446033398, -6.214891797918331], [106.87458892996027, -6.214886754777673], [106.87837761674388, -6.214886754777673], [106.87837761674388, -6.215788325373], [106.87747671584938, -6.215788325373], [106.87747671584938, -6.217591461866782], [106.87567491406043, -6.217591461866782], [106.87567491406043, -6.219394592096566], [106.87657581495492, -6.219394592096566], [106.87657581495492, -6.218493027764783], [106.87837761674388, -6.218493027764783], [106.87837761674388, -6.22119771606057], [106.87567491406043, -6.22119771606057], [106.87567491406043, -6.223000833757009], [106.87747671584938, -6.223000833757009], [106.87747671584938, -6.223902390254333], [106.87567491406043, -6.223902390254333], [106.87567491406043, -6.224803945184093], [106.87657581495492, -6.224803945184093], [106.87657581495492, -6.225705498546069], [106.87567491406043, -6.225705498546069], [106.87567491406043, -6.227508600565775], [106.87117040958802, -6.227508600565775], [106.87117040958802, -6.225705498546069], [106.86846770690458, -6.225705498546069], [106.86846770690458, -6.223000833757009], [106.86576500422113, -6.223000833757009], [106.86576500422113, -6.220296154861903], [106.86666590511562, -6.220296154861903], [106.86666590511562, -6.219394592096566], [106.86576500422113, -6.219394592096566], [106.86576500422113, -6.216689894402779], [106.86486410332664, -6.216689894402779], [106.86486410332664, -6.214886754777673], [106.86730096052501, -6.214886754777673], [106.86756993824264, -6.214965902322776], [106.86785207671743, -6.2149850229458865], [106.86825989701063, -6.214984072842411], [106.8683079183789, -6.214983961000979], [106.86846770690458, -6.2149835889351275], [106.86846770690458, -6.215788325373], [106.86936860779905, -6.215788325373], [106.86936860779905, -6.214981488369166]], [[106.87512707778389, -6.226151361436247], [106.87510162744752, -6.226019008602902], [106.87511792177561, -6.226103747161506], [106.87512707778389, -6.226151361436247]], [[106.87487458438838, -6.224670547274662], [106.87484611687343, -6.224484002300316], [106.87484855885367, -6.224500006096988], [106.87487458438838, -6.224670547274662]], [[106.87482114256868, -6.224297023577627], [106.87482956077044, -6.224360050805401], [106.87484611687343, -6.224484002300316], [106.87482114256868, -6.224297023577627]], [[106.87469864155145, -6.223324952787404], [106.87467134111799, -6.223090613026861], [106.87467695085743, -6.22313876614779], [106.87469864155145, -6.223324952787404]], [[106.87465695565228, -6.222972854439975], [106.87461730077129, -6.222648237690164], [106.87461960188101, -6.222667074691396], [106.87465695565228, -6.222972854439975]], [[106.87456984455356, -6.222265306610356], [106.8745677122038, -6.222241825300728], [106.87456539560984, -6.22221632387269], [106.87456984455356, -6.222265306610356]], [[106.87453065856943, -6.221785641106895], [106.87453478301867, -6.221832040038202], [106.87454234587457, -6.221917106246822], [106.87453478392216, -6.221832040034996], [106.874533857989, -6.221821629336513], [106.87453065856943, -6.221785641106895]], [[106.87444485080452, -6.220312360334934], [106.87444232024396, -6.220255784968308], [106.87442855593498, -6.219948102230552], [106.87444485080452, -6.220312360334934]]]}}, {"type": "Feature", "properties": {"class": 1}, "geometry": {"type": "Polygon", "coordinates": [[[106.86486410332664, -6.2127754896084895], [106.86499502244754, -6.2128967739422025], [106.86506646222378, -6.2129629574114045], [106.86508714707291, -6.212982119428122], [106.86513268638305, -6.21302430757154], [106.86519669840744, -6.213083608891255], [106.86486410332664, -6.213083608891255], [106.86486410332664, -6.2127754896084895]]]}}]}