{"type": "FeatureCollection", "features": [{"type": "Feature", "properties": {"name": "Cipinang", "source": "Bing", "waterway": "river", "osm_type": "way", "osm_id": 28775376}, "geometry": {"type": "LineString", "coordinates": [[106.87884966470584, -6.239980261046299], [106.8788492, -6.2399721], [106.8788491, -6.2399112], [106.8788284, -6.2379376], [106.8785929, -6.23693], [106.8785307, -6.2364166], [106.8782094, -6.2347909], [106.8774648, -6.2321989], [106.8773245, -6.2314502], [106.8772845, -6.2313583], [106.8772285, -6.2312295], [106.8771914, -6.2311122], [106.8771711, -6.2309382], [106.8771724, -6.2307602], [106.8772816, -6.2304997], [106.877767, -6.229848], [106.8781078, -6.2294689], [106.8783497, -6.2291318], [106.8780963, -6.2290493], [106.8778263, -6.2290346], [106.8776775, -6.2289498], [106.877342, -6.2287328], [106.8771176, -6.2287845], [106.8770291, -6.2287618], [106.8769176, -6.2287221], [106.8768454, -6.2286832], [106.8767823, -6.2286272], [106.8767661, -6.2285506], [106.8767877, -6.2284192], [106.8768239, -6.2283166], [106.8768587, -6.2282755], [106.877013, -6.2282166], [106.8772085, -6.2281594], [106.8773805, -6.2281659], [106.8774707, -6.2281533], [106.8775401, -6.2281152], [106.8775744, -6.2280772], [106.8774921, -6.2280126], [106.8773923, -6.2279207], [106.8773085, -6.2278355], [106.8772401, -6.2277745], [106.8771642, -6.2276916], [106.8770537, -6.2275638], [106.8770015, -6.2275383], [106.8769471, -6.2275459], [106.8768591, -6.2275923], [106.8768151, -6.2277342], [106.8766968, -6.2277998], [106.8766046, -6.227788], [106.8765525, -6.227663], [106.8765219, -6.227179], [106.8764251, -6.2268316], [106.8763511, -6.2264234], [106.8763656, -6.2260474], [106.8764774, -6.2254339], [106.8765823, -6.2252704], [106.8767685, -6.2251835], [106.8769683, -6.2251118], [106.877184, -6.22494], [106.8772638, -6.2247556], [106.8772871, -6.2247072], [106.8773081, -6.2246635], [106.8773589, -6.2245572], [106.877419, -6.224432], [106.87738, -6.2242401], [106.8773521, -6.224038], [106.8774765, -6.2235589], [106.8778324, -6.2233909], [106.878032, -6.2232578], [106.878168, -6.223137], [106.8782389, -6.2230204], [106.8783298, -6.2228708], [106.8783349, -6.222866], [106.8784104, -6.2227955], [106.8785727, -6.2227798], [106.8787175, -6.2228265], [106.8788168, -6.2228984], [106.8789439, -6.223052], [106.879118, -6.223341], [106.87923, -6.2233531], [106.8793392, -6.2233649], [106.8794723, -6.2233793], [106.8796105, -6.2233943], [106.8797682, -6.2233866], [106.8797849, -6.2232465], [106.8797721, -6.223094], [106.8797637, -6.2229946], [106.8797894, -6.222908], [106.8799845, -6.2227808], [106.8801115, -6.222698], [106.8803284, -6.2225072], [106.8804376, -6.2224112], [106.880533, -6.2223666], [106.8807025, -6.2222875], [106.8807823, -6.2222503], [106.8808842, -6.2222027], [106.8809121, -6.2220846], [106.8809572, -6.2218937], [106.880988, -6.2217633], [106.8810106, -6.2215645], [106.8810191, -6.2214595], [106.8810155, -6.221306], [106.8810144, -6.2212584], [106.8809704, -6.2209644], [106.8810117, -6.2208226], [106.8811397, -6.2205826], [106.8818389, -6.2207191], [106.8820213, -6.2205165], [106.882042, -6.2201064], [106.8821413, -6.2200498], [106.8822539, -6.2200024], [106.8823491, -6.2199751], [106.8824591, -6.2200231], [106.8829848, -6.2199338], [106.8832765, -6.219915], [106.8834341, -6.2199004], [106.8835514, -6.2199715], [106.8837238, -6.2201195], [106.8837789, -6.2201094], [106.8838078, -6.2200763], [106.8838017, -6.2198241], [106.8838365, -6.2197001], [106.8839156, -6.2196401], [106.8840538, -6.2196428], [106.8842429, -6.2196868], [106.884444, -6.2198054], [106.8845272, -6.2199721], [106.8846235, -6.2201001], [106.8847702, -6.2202163], [106.885327, -6.2201406], [106.885374, -6.2196908], [106.8857524, -6.2192095], [106.8856486, -6.2189852], [106.8855789, -6.2187951], [106.8856395, -6.2185258], [106.8856014, -6.2184029], [106.8855679, -6.2183269], [106.8855451, -6.2181602], [106.8856301, -6.2180997], [106.8857929, -6.2179674], [106.8858935, -6.2178987], [106.8860198, -6.2178467], [106.8861389, -6.2178331], [106.8864361, -6.2177645], [106.8873381, -6.2176091], [106.8876922, -6.2173638], [106.8878853, -6.2170118], [106.8880248, -6.2169051], [106.8886135, -6.2168464], [106.8888101, -6.2168847], [106.8891942, -6.2170545], [106.8895054, -6.2170545], [106.8900096, -6.2171718], [106.8902242, -6.2171931], [106.8904066, -6.2171185], [106.8907178, -6.2169318], [106.8910021, -6.2167238], [106.891175, -6.2165732], [106.8914869, -6.2161057], [106.8917498, -6.2156021], [106.8919765, -6.2152981], [106.892136, -6.2152098], [106.8923854, -6.2151794], [106.8924813, -6.2151312], [106.8925303, -6.2149688], [106.8924054, -6.2141155], [106.89237, -6.2137913], [106.8923701, -6.2135477]]}}, {"type": "Feature", "properties": {"natural": "water", "water": "river", "osm_type": "way", "osm_id": 29253815}, "geometry": {"type": "Polygon", "coordinates": [[[106.8639171, -6.2252142], [106.864011, -6.2254008], [106.8641102, -6.2254821], [106.8643677, -6.2260034], [106.8647325, -6.2265367], [106.8648934, -6.2268034], [106.8649363, -6.2270593], [106.8649851, -6.2285944], [106.8648191, -6.2289137], [106.8646421, -6.2291591], [106.8641746, -6.2296521], [106.8639474, -6.2298823], [106.8637115, -6.2301429], [106.8635891, -6.2304057], [106.863493, -6.2305099], [106.8634309, -6.2306448], [106.8634128, -6.2308135], [106.8634987, -6.2310589], [106.863756, -6.2313521], [106.8642831, -6.2316267], [106.8647038, -6.2318802], [106.8651713, -6.2322436], [106.8653456, -6.2323704], [106.8654728, -6.2325414], [106.8657088, -6.232904], [106.8659663, -6.2332773], [106.8661138, -6.2335094], [106.8664037, -6.2340146], [106.866427, -6.2341219], [106.8664695, -6.2343619], [106.8664815, -6.2345232], [106.8664413, -6.2347045], [106.8663579, -6.2348051], [106.866256, -6.2349091], [106.8662198, -6.2349281], [106.8661648, -6.2349571], [106.866036, -6.2349784], [106.8658939, -6.2349997], [106.8656318, -6.2350303], [106.8654955, -6.2351264], [106.8654539, -6.2352571], [106.8653977, -6.2353891], [106.8654406, -6.2355597], [106.8656283, -6.2357196], [106.8658, -6.2358636], [106.8658054, -6.2359277], [106.8660736, -6.2361676], [106.8661862, -6.2362476], [106.8662882, -6.2363969], [106.8663252, -6.2364705], [106.8664169, -6.2366529], [106.8664705, -6.2367116], [106.8665819, -6.2369862], [106.8666744, -6.2373514], [106.8667196, -6.2374774], [106.866728, -6.2375008], [106.8668843, -6.2378977], [106.8670177, -6.2382366], [106.8669102, -6.2382492], [106.86690779222566, -6.238249482889376], [106.86690501037522, -6.238226523250935], [106.86689443531196, -6.238190711101533], [106.8668923420687, -6.238183623639047], [106.86688807327775, -6.238169169622677], [106.8668575263763, -6.238093922234051], [106.86682697858275, -6.23801867484405], [106.86682657114645, -6.23801766815841], [106.86681641012407, -6.237992639263932], [106.86679643260759, -6.237943427443065], [106.86676588574032, -6.237868180040708], [106.86673533888444, -6.237792932633775], [106.8667140999225, -6.237740614087489], [106.86670479203995, -6.237717685222263], [106.86669563624822, -6.2376968832878585], [106.86668964017619, -6.237683261782962], [106.86668572992602, -6.2376743769732546], [106.86666666690935, -6.237631067821614], [106.8666659120276, -6.237629921319099], [106.86663053156151, -6.237576173683172], [106.86661607923415, -6.237545126577207], [106.86660640408087, -6.237517473909389], [106.86660028957535, -6.237500000228893], [106.86659667475416, -6.237487278052651], [106.86658722281237, -6.237454018848688], [106.86657276789683, -6.237422493452273], [106.86655406633575, -6.237406769601181], [106.86653534356451, -6.237385306265303], [106.86652540079282, -6.2373624528783695], [106.86652067027721, -6.2372920605849975], [106.86651782693353, -6.237231547606265], [106.86651498268586, -6.237171033726254], [106.86650894071568, -6.237084933718475], [106.8665011774221, -6.2370524271097345], [106.86648697489082, -6.236996975131934], [106.8664605822968, -6.236930088125677], [106.86643837156642, -6.236868924955953], [106.86641616265324, -6.236807762681375], [106.86639334323783, -6.236766597897555], [106.86638469559564, -6.23675099844971], [106.86635322763618, -6.236694232408949], [106.8663212225501, -6.2366488343673705], [106.86628921837362, -6.236603436318942], [106.86624200455925, -6.236537397900151], [106.8661947916582, -6.236471358566102], [106.8661475787734, -6.236405320128275], [106.8661003649981, -6.236339281685729], [106.8660643890925, -6.236305916579321], [106.86605063531754, -6.2362917438747685], [106.86604193888927, -6.236282781972813], [106.86601896907644, -6.236259111234176], [106.86597354906849, -6.236212305882616], [106.8659281290655, -6.23616549962053], [106.8658715262329, -6.236113071149043], [106.86581492340808, -6.236060641763896], [106.86580733430608, -6.236053612629682], [106.86575832059745, -6.2360082132733305], [106.86569595008245, -6.2359471922362], [106.86565554416408, -6.235907660174773], [106.86563357958498, -6.235886172091384], [106.86557121000214, -6.235825151027385], [106.86550884043686, -6.235764130855718], [106.86546658342849, -6.235712128918702], [106.86542432462515, -6.235660127886234], [106.86539798286877, -6.2356193118345296], [106.86536469428395, -6.23556273566935], [106.86534925206331, -6.235535580754362], [106.8653288521473, -6.235499706557688], [106.8653071479159, -6.235452176115138], [106.86528181143, -6.235379305172921], [106.86525290777593, -6.235318165581095], [106.86523229955358, -6.235239711929861], [106.86521169314761, -6.235161258269375], [106.86520475873006, -6.235138526184947], [106.8651971890946, -6.23506260864019], [106.8652049383437, -6.2350052877454365], [106.86520650737992, -6.234993679195772], [106.8652204049004, -6.234938615910425], [106.86525779768503, -6.234895893434251], [106.86530919259721, -6.234857872721436], [106.86536831497658, -6.234833573204345], [106.86543157765796, -6.234824468687968], [106.86550002528955, -6.234837766995104], [106.8655142166116, -6.234840524155047], [106.86559685556658, -6.234856579607648], [106.86567949542317, -6.234872634138433], [106.8657214690456, -6.234880789282143], [106.86576213257376, -6.234888689568475], [106.86583270541415, -6.234902793136705], [106.8659032764486, -6.23491689670076], [106.86594474506035, -6.234921233567514], [106.86597941644582, -6.234923503193163], [106.86601287980997, -6.234922189416074], [106.86604133387992, -6.234918262290097], [106.86611964791295, -6.234891192228841], [106.86616069440845, -6.234870952089458], [106.86620173999657, -6.234850711951], [106.86624466355472, -6.234820895609402], [106.86628758891767, -6.23479108016346], [106.86633888066677, -6.23474512489778], [106.86637739160335, -6.234688016963364], [106.86640078575326, -6.234623222114114], [106.86641001403603, -6.234552646553092], [106.86640602217881, -6.234481582551342], [106.86639089757519, -6.234410617647316], [106.86636728016403, -6.234342013721285], [106.86635474684971, -6.234258527974613], [106.86634221263972, -6.234175042229425], [106.86634141225376, -6.234169712372079], [106.86632967933784, -6.234091555575149], [106.86632323531354, -6.234073877799179], [106.86631271402408, -6.234056282271711], [106.86630060854806, -6.234036038665548], [106.86629593776806, -6.234028226147349], [106.86625576310163, -6.233961037966009], [106.8662109167665, -6.233886037261825], [106.8662051562366, -6.233876403116326], [106.86616607044299, -6.233811035645692], [106.86612122413744, -6.233736034925874], [106.86607637784668, -6.233661034198232], [106.86606609288674, -6.233643833842939], [106.86603153156754, -6.233586032558607], [106.86598875821188, -6.233522858932124], [106.86594598486451, -6.233459684394814], [106.86590321062829, -6.233396510758182], [106.86586738000064, -6.233343590945678], [106.86586043730384, -6.233333336207522], [106.86581625971853, -6.233279814835319], [106.8657948106428, -6.233253828549795], [106.865772083043, -6.233226292549295], [106.86572790457633, -6.233172772071448], [106.86568947495192, -6.233121235747739], [106.86565104443216, -6.2330696994220895], [106.86561739772392, -6.233019102755134], [106.86558375102295, -6.232968506083996], [106.86555203902233, -6.232924123134456], [106.86552032702438, -6.232879739277205], [106.86550116034314, -6.232849176208428], [106.86548859305441, -6.232829135825733], [106.86545685909141, -6.2327785323704425], [106.86541838038737, -6.23271360025239], [106.86540590731357, -6.232692605650927], [106.86537413155575, -6.232639118085301], [106.8653443221611, -6.232591856789539], [106.86531451187227, -6.232544596397739], [106.8652664705604, -6.232479697187536], [106.86524030642597, -6.232450727563103], [106.86523287307294, -6.2324424971357875], [106.86521974792329, -6.232427965006842], [106.86519927378333, -6.232405297086842], [106.86515705942395, -6.232365256826316], [106.86511484326385, -6.2323252165668315], [106.86504237235897, -6.232272706558241], [106.86496990056999, -6.232220198346756], [106.86489743059781, -6.2321676892103515], [106.86482588096703, -6.23211584859032], [106.86482495883484, -6.232115180970127], [106.8647524879852, -6.232062671808196], [106.86471453919076, -6.232035176002012], [106.86468001714856, -6.232010162631878], [106.86462181763744, -6.231974384962589], [106.86461166543174, -6.231968143328807], [106.86454331372096, -6.2319261231094005], [106.86447496292614, -6.231884103778764], [106.86440661123704, -6.231842084439146], [106.864338259554, -6.231800064183207], [106.86426990788341, -6.2317580448192516], [106.86425777016689, -6.231751404231422], [106.86420184505542, -6.231720805586519], [106.86413378224478, -6.231683569054519], [106.86406572033903, -6.231646330699321], [106.86399765844423, -6.231609093236575], [106.86399470730117, -6.231607478904985], [106.86392959474703, -6.23157185486437], [106.86386200813037, -6.231534877902834], [106.86386153196428, -6.231534617381388], [106.86379085372269, -6.231490012140066], [106.86372017459104, -6.231445407792962], [106.86370374741664, -6.231435040056244], [106.86364949637314, -6.231400803429534], [106.8635788181623, -6.231356198148869], [106.86357847121276, -6.231355941691176], [106.86352439180814, -6.231316060710651], [106.86351409557663, -6.231305868403874], [106.86347632701309, -6.231268480390375], [106.86343562929396, -6.231214455439022], [106.86342269316533, -6.2311922734295555], [106.8634226511928, -6.231192156942016], [106.86341576119577, -6.231173002373612], [106.86341005102078, -6.231157130235838], [106.86339297157632, -6.231109650168256], [106.86336325090026, -6.23102702599491], [106.86333352933657, -6.230944402724205], [106.86331201425546, -6.230875832652646], [106.86330498285412, -6.2308043072588495], [106.86331273132599, -6.230732856223235], [106.86333493242756, -6.2306645050987814], [106.86335599973577, -6.230625378434352], [106.8633776819179, -6.230585110363148], [106.86342043230778, -6.230505717432746], [106.86346212885618, -6.230428276678244], [106.86346318177425, -6.230426321793252], [106.86347936058637, -6.230396272026343], [106.86350593123676, -6.230346927962185], [106.86352658619434, -6.2302954167485805], [106.86353271138258, -6.23028013931364], [106.86354001612071, -6.230261922826674], [106.86354724024883, -6.230243906442624], [106.86355975888631, -6.230223059431119], [106.86358022506411, -6.230188977358383], [106.86358916784775, -6.230174085986835], [106.86363024841356, -6.230105678100024], [106.86363109544052, -6.230104266435002], [106.86363450601462, -6.2300985853376645], [106.86364780072127, -6.23007644716421], [106.86367302211728, -6.230034445982001], [106.86370928365669, -6.229974061407164], [106.86371494878789, -6.229964626432956], [106.86372846529507, -6.229945431400875], [106.86378187606262, -6.229879857863094], [106.86383528591104, -6.229814283422755], [106.86388869665369, -6.229748709881738], [106.8639319521654, -6.229689338556772], [106.86394385476879, -6.2296749439548185], [106.86399850986105, -6.229623521445541], [106.86405316583637, -6.229572096218062], [106.86407672695931, -6.2295499280887405], [106.86407687914593, -6.229549784694578], [106.86410782090373, -6.22952067279949], [106.86415437081784, -6.229481087176428], [106.86416337975143, -6.2294734260869085], [106.86421879355036, -6.229426300136419], [106.86421893767884, -6.229426177566268], [106.86427449741238, -6.229378931748695], [106.86429593545225, -6.2293573253647985], [106.86435273434442, -6.229316611290168], [106.86439269589852, -6.229281902440001], [106.86440549908448, -6.2292707813034225], [106.86445377028805, -6.229220233048961], [106.86447171694307, -6.229197539551961], [106.86449650243195, -6.229166198968384], [106.86449712757481, -6.229165407432565], [106.8645366195894, -6.229109539426707], [106.86457501205417, -6.229052910393039], [106.86461229058376, -6.228995540274002], [106.8646484408056, -6.228937452628541], [106.86468082419378, -6.2288847082833225], [106.86469146143745, -6.228867380553624], [106.86472119307017, -6.228811320105498], [106.86472998798413, -6.2287947375817625], [106.86476386696506, -6.228719811776922], [106.86479296389865, -6.228642898368922], [106.86479903362932, -6.228623185353984], [106.86481287387001, -6.228578237071707], [106.86481716332167, -6.228564305178377], [106.86483222565553, -6.228501597714973], [106.8648363705609, -6.228484342664675], [106.8648505072284, -6.228403327558548], [106.86485506580388, -6.228361974452657], [106.86485951754922, -6.228321583743784], [106.8648602166721, -6.228306684440271], [106.86486336833248, -6.2282394341201135], [106.8648631908568, -6.228153576336178], [106.86486305615145, -6.2280887933135824], [106.86486301157517, -6.228067717654225], [106.86486283410792, -6.227981859869728], [106.86486280026337, -6.22796536009299], [106.86486265664492, -6.227896002084966], [106.86486247918292, -6.227810143395781], [106.86486230082485, -6.227724285613635], [106.86486038168184, -6.227644389643064], [106.86485617789288, -6.227564581312743], [106.8648496933027, -6.2274849257078], [106.86484093356297, -6.227405487906913], [106.86482990613872, -6.227326334790651], [106.86481981325693, -6.227266471197355], [106.86481661938566, -6.227247529619801], [106.86480108437311, -6.227169136549658], [106.86477870833464, -6.227087752302538], [106.86475962782217, -6.227028511783934], [106.86475283221543, -6.227007413869077], [106.8647235044345, -6.226928272070891], [106.86469077792174, -6.226850475905293], [106.86465471643604, -6.226774170714716], [106.86464822557535, -6.226761851050702], [106.86461538644019, -6.226699500023735], [106.864572861612, -6.2266266037148], [106.86452722284744, -6.226555618932417], [106.86448092096637, -6.226485925808386], [106.86443438924815, -6.226416386290525], [106.86443430478336, -6.226416261815727], [106.86439819706587, -6.226362683558496], [106.86438762769596, -6.226347001282899], [106.86434063721971, -6.226277772590555], [106.8643003609096, -6.226218855552983], [106.86429341691274, -6.22620869931244], [106.86427106633053, -6.2261762359661885], [106.8642459685852, -6.226139782346231], [106.86419829224667, -6.226071024404315], [106.86415038969778, -6.22600242367192], [106.86410225913794, -6.225933981963649], [106.86407164040713, -6.225883518977118], [106.86404130838044, -6.225832881376804], [106.86403571841603, -6.225823401175224], [106.86399629690752, -6.225756546218961], [106.86395216726375, -6.225679697995988], [106.86394662910395, -6.225669790848818], [106.8639089258053, -6.225602345727253], [106.86386657708458, -6.225524499342686], [106.86382512837076, -6.225446170570891], [106.8637858996897, -6.225369925260859], [106.86378458421304, -6.225367368437657], [106.86374494916691, -6.225288103777036], [106.86371274012946, -6.225221790020324], [106.8639171, -6.2252142]]]}}, {"type": "Feature", "properties": {"natural": "water", "water": "river", "osm_type": "way", "osm_id": 29257908}, "geometry": {"type": "MultiPolygon", "coordinates": [[[[106.8669212, -6.2386633], [106.8669158, -6.2385246], [106.86690496237861, -6.238484650682841], [106.86690540708268, -6.238473640177218], [106.8669089234252, -6.238386549728866], [106.86691030071525, -6.238352435709088], [106.86691243977403, -6.238299460184722], [106.8669099356851, -6.238267173651285], [106.86690779222566, -6.238249482889376], [106.8669102, -6.2382492], [106.8670177, -6.2382366], [106.8670179, -6.2382397], [106.8670243, -6.2383248], [106.8670284, -6.2383806], [106.8670392, -6.2387273], [106.8669965, -6.2388834], [106.8669782, -6.2389502], [106.8669493, -6.2390558], [106.8668872, -6.2391509], [106.8667726, -6.2392681], [106.8665967, -6.2392882], [106.86657730535795, -6.239274810286643], [106.86659624528521, -6.239278697241601], [106.86666666556476, -6.239267139409164], [106.8667030563806, -6.239253511428376], [106.86672574373077, -6.239235106559046], [106.8667457540349, -6.239214940848402], [106.86674994606759, -6.239208727122007], [106.86676021762572, -6.239193501861017], [106.86676735433392, -6.239182465799013], [106.86679587959179, -6.239138353272702], [106.86680450718906, -6.239122745053473], [106.86683032441894, -6.2390760327431], [106.86684923687736, -6.239041812261723], [106.86686476743566, -6.239013713124077], [106.86687188996193, -6.238990248637446], [106.86687302331462, -6.238986514992589], [106.86687421829902, -6.2389825804074865], [106.86688126334361, -6.238946671446133], [106.8668857949209, -6.238876085407541], [106.86689032558668, -6.238805496659896], [106.86689479690735, -6.2387358483153745], [106.8669212, -6.2386633]]], [[[106.8662399, -6.2390419], [106.8660682, -6.2388233], [106.8659131, -6.2385176], [106.8657732, -6.238242], [106.8657105, -6.2380892], [106.8656082, -6.23784], [106.8656069, -6.2378367], [106.8655425, -6.2377621], [106.8655124, -6.2376815], [106.8654703, -6.2375685], [106.8654406, -6.2373195], [106.86547239748964, -6.237312050526473], [106.86547579614854, -6.237329052577538], [106.86549288309995, -6.2374145294497945], [106.86550996914775, -6.237500003610345], [106.86553096204052, -6.237571174701557], [106.86554752008784, -6.237624355292718], [106.86555514202585, -6.237648837170031], [106.8655662926538, -6.2376742107028695], [106.86558935683682, -6.23770666314979], [106.86560047006394, -6.237721205063139], [106.86560422984404, -6.237726124804987], [106.86561359480143, -6.237738379073952], [106.86562552134728, -6.23775398500612], [106.86562723966153, -6.237756232973238], [106.8656543864273, -6.2378279039519855], [106.865675419905, -6.237860723436515], [106.86569349720413, -6.237902522584951], [106.86570271566066, -6.237974257960735], [106.86573166015266, -6.238047118755134], [106.8657520954324, -6.2380985613759625], [106.86576060465839, -6.238119980449505], [106.86578954916826, -6.238192840331414], [106.86580077143758, -6.238221089707974], [106.86580735893733, -6.23823767204099], [106.86581849369183, -6.238265701113311], [106.86584743822596, -6.238338561891024], [106.86586561077279, -6.238407274597907], [106.86588359257993, -6.238437647386564], [106.86591671558989, -6.238493812640644], [106.86595806370023, -6.238566928736355], [106.8659994100139, -6.238640043927468], [106.8660407572478, -6.238713160012643], [106.86608210359171, -6.238786276094177], [106.86612788861919, -6.2388470410892225], [106.86617367456164, -6.238907806073804], [106.86620430686045, -6.23894846034], [106.86621945961522, -6.238968571958446], [106.86626524467708, -6.239029336931703], [106.86629117456502, -6.239056573955858], [106.8663177338343, -6.239084470587116], [106.86633090736888, -6.239098308971314], [106.86634867488199, -6.239116972362398], [106.8662399, -6.2390419]]]]}}, {"type": "Feature", "properties": {"natural": "water", "source": "HOT_InAWARESurvey_2017", "water": "river", "osm_type": "way", "osm_id": 29257912}, "geometry": {"type": "MultiPolygon", "coordinates": [[[[106.8628606, -6.2397333], [106.8628219035113, -6.2397239509283295], [106.86282236558732, -6.2397219145513585], [106.86283411193875, -6.239670141821104], [106.86284734940621, -6.239611804178324], [106.86285301927586, -6.239586809576566], [106.8628719266107, -6.239503477332896], [106.86287226825158, -6.239501973420234], [106.86289083394328, -6.23942014509006], [106.8628997289249, -6.239399366000705], [106.86291250274311, -6.239379356187711], [106.86293158092674, -6.239366131449349], [106.86294351660186, -6.239361305347969], [106.86294831007473, -6.2393575470015685], [106.86295424424897, -6.23935289402815], [106.8629563940221, -6.239350418082718], [106.8629625778814, -6.239343295885391], [106.8629708852563, -6.239326520660531], [106.86297441637261, -6.239310959431755], [106.86297318299451, -6.239300198032442], [106.8629723556946, -6.2392818755645045], [106.8629720224089, -6.239274490708965], [106.86297188623908, -6.239271495728256], [106.86297300130384, -6.239248764967203], [106.86297889443966, -6.239224822012208], [106.86298482289165, -6.239211643790574], [106.86298716288277, -6.239197282067241], [106.86298712907828, -6.239187712620284], [106.86298708682592, -6.239175751715729], [106.86299850105765, -6.239141993625241], [106.86299915291212, -6.239140064567028], [106.8630115175658, -6.239113699998866], [106.86303331984372, -6.239067219879897], [106.86303732133455, -6.239058462555112], [106.8630447065644, -6.239042299992826], [106.86305227457436, -6.239019307708606], [106.86306117624221, -6.238994541277193], [106.86306205486767, -6.238992096953187], [106.86306742592014, -6.238977150370112], [106.86308063658541, -6.2389273453290945], [106.86309758573242, -6.238852646553402], [106.86311647285166, -6.2387855972989605], [106.86314234936343, -6.2387118244432], [106.86316822587065, -6.238638051588131], [106.86316850765019, -6.238637250415055], [106.86319410237651, -6.238564279637892], [106.8632187547242, -6.23850486455879], [106.86324340616126, -6.238445448579133], [106.86324333855441, -6.238426310591616], [106.86323756069766, -6.238414849179858], [106.86323265489979, -6.238401898253959], [106.86323176931808, -6.238399559627953], [106.86323170757018, -6.238382335713484], [106.86323351979992, -6.238353622414562], [106.8632334978769, -6.238347416379341], [106.86323345895275, -6.238336397592741], [106.86323723619446, -6.238322988285839], [106.86324483214054, -6.238307651376484], [106.8632648509381, -6.238256598031727], [106.8632732628434, -6.2382351452512195], [106.86330169444767, -6.238162640027506], [106.86332053481193, -6.238114589930838], [106.8633301242364, -6.2380901339066295], [106.8633599970218, -6.238019695906622], [106.86338986889801, -6.237949257910315], [106.86341974167522, -6.237878820815437], [106.86344961444355, -6.237808382816943], [106.86347393541705, -6.237745460798534], [106.86349825457641, -6.23768253788284], [106.8635225764456, -6.237619615862163], [106.86353578958249, -6.237588937291451], [106.8635488019898, -6.237558728686779], [106.86357955999983, -6.23750000358399], [106.86362338031815, -6.237439520707756], [106.86365158085857, -6.2374041851650235], [106.86366996742544, -6.237381145570594], [106.86371921967157, -6.237325005113058], [106.86377103177338, -6.237271220863548], [106.86382529029707, -6.2372199089543185], [106.86389158659534, -6.237169672890352], [106.86395893417117, -6.2371208562398746], [106.86402730057489, -6.237073480816918], [106.86409665697097, -6.237027568422751], [106.86412447512409, -6.237011113853291], [106.86416614238806, -6.236986466567313], [106.86423868641549, -6.236951049145498], [106.86431382363646, -6.236921542032615], [106.86439810637125, -6.236892830751259], [106.8644827205911, -6.236865115567117], [106.86454570357924, -6.236845306895857], [106.86456765637695, -6.236838401939905], [106.86465290017968, -6.236812690821487], [106.86472915993784, -6.236793017780294], [106.86480659497786, -6.236778659703063], [106.86488483600685, -6.236769685707274], [106.86496350912184, -6.236766138706539], [106.86503445217762, -6.236768598223282], [106.86510488563444, -6.236777443759106], [106.8651742364123, -6.236792604105891], [106.86524193937419, -6.236813954682807], [106.86529914339725, -6.236846789902156], [106.86534525594404, -6.236893968083896], [106.86536045964326, -6.23691804157331], [106.86538029087346, -6.23694944220687], [106.86538995967727, -6.236971232414788], [106.8653965363836, -6.236986050797952], [106.86540690557483, -6.237009418984467], [106.86541062043688, -6.23702273657195], [106.8652426, -6.236845], [106.8650222, -6.2367969], [106.8648303, -6.2368149], [106.8647669, -6.2368208], [106.864679, -6.2368467], [106.8645243, -6.2368924], [106.8644796, -6.2369056], [106.8643341, -6.2370035], [106.8639694, -6.2372528], [106.8636113, -6.2376074], [106.8632251, -6.2386847], [106.8631178, -6.2389939], [106.8630427, -6.2392872], [106.8630025, -6.2394765], [106.862986, -6.2395761], [106.8629542, -6.2396871], [106.8628606, -6.2397333]]], [[[106.8654406, -6.2373195], [106.86541489131395, -6.237038047444412], [106.86542453717753, -6.237072627364399], [106.86544162319053, -6.23715810243898], [106.86545871011974, -6.237243578412033], [106.86547239748964, -6.237312050526473], [106.8654406, -6.2373195]]]]}}, {"type": "Feature", "properties": {"natural": "water", "water": "river", "osm_type": "way", "osm_id": 29257915}, "geometry": {"type": "Polygon", "coordinates": [[[106.8628606, -6.2397333], [106.8629542, -6.2396871], [106.8629111, -6.2398846], [106.8628925, -6.2399698], [106.8628215, -6.2404382], [106.8627841, -6.2406852], [106.862742, -6.2411769], [106.8627591, -6.2418481], [106.8627659, -6.2420807], [106.8627676, -6.242314], [106.8627396, -6.2428069], [106.86268274004806, -6.243103607190354], [106.86253749957066, -6.243104901075146], [106.86251114711385, -6.243105136282792], [106.86251096481902, -6.24307323836847], [106.86251080900452, -6.243046021166606], [106.86251051997189, -6.242995423913153], [106.86251048865316, -6.242989885175476], [106.8625104856409, -6.242989288444361], [106.8625101393526, -6.242928880416368], [106.86251007512512, -6.242917608553437], [106.86250978579277, -6.242866925406146], [106.86250963028507, -6.2428397940976055], [106.86250922030848, -6.242768009322447], [106.86250912544186, -6.242683120429527], [106.86250911589678, -6.242674538231709], [106.86250902966624, -6.242598228827094], [106.86250902666251, -6.242595844583106], [106.86250893480462, -6.2425133390294825], [106.8625088399439, -6.24242844832746], [106.86250883885327, -6.242427628263456], [106.86250883818056, -6.242426670766547], [106.86250874509366, -6.242343559433469], [106.8625086493344, -6.242258667829969], [106.86250855358563, -6.2421737780344815], [106.86250854680938, -6.242160097301139], [106.8625085340304, -6.242138836160156], [106.86250850315398, -6.242085858257654], [106.86250845272988, -6.241997939384685], [106.86250845069914, -6.2419948074016744], [106.86250840140346, -6.241910019610473], [106.86250836428917, -6.241846068009899], [106.86250835098811, -6.24182210073694], [106.86250831684836, -6.241764104789484], [106.86250829967045, -6.241734180962179], [106.86250824836033, -6.241646262091277], [106.86250819795492, -6.241558342312738], [106.86250816228448, -6.24149658599274], [106.86250814665357, -6.241470423441272], [106.86250866044813, -6.241458059122776], [106.86251187618764, -6.2413805915657], [106.86251560482145, -6.241290759693405], [106.86252466631473, -6.241232196307988], [106.8625264496953, -6.241195827628276], [106.86254222116969, -6.241112309356837], [106.86255799173934, -6.241028791089359], [106.86257376321132, -6.240945272819465], [106.86257793357159, -6.240923186757682], [106.86258953377536, -6.240861753649375], [106.86260530524493, -6.2407782353809935], [106.86261761588533, -6.240713041191423], [106.86262107580977, -6.240694717116589], [106.86263825199929, -6.240608311436829], [106.86264472724442, -6.240575736266766], [106.86264733723682, -6.240562608660573], [106.86265542818721, -6.240521905757932], [106.86267260256332, -6.2404354991821185], [106.86268444516504, -6.240375929585533], [106.86268977965477, -6.240349094405863], [106.86270695583474, -6.240262687825366], [106.86272413201311, -6.240176281245702], [106.86274130728957, -6.240089875574241], [106.86274904226022, -6.240050966870731], [106.86275848256443, -6.240003469903608], [106.86277739081412, -6.2399201376524704], [106.86279629815805, -6.239836805405396], [106.86281520459617, -6.239753473162351], [106.8628219035113, -6.2397239509283295], [106.8628606, -6.2397333]]]}}, {"type": "Feature", "properties": {"natural": "water", "water": "river", "osm_type": "way", "osm_id": 29992734}, "geometry": {"type": "Polygon", "coordinates": [[[106.8957227, -6.2133592], [106.8957279253155, -6.213197939520715], [106.89575246525024, -6.2131982753634984], [106.89575653012984, -6.213198331313763], [106.8957565193517, -6.21319910619881], [106.89575600198144, -6.213243362000402], [106.8957552310648, -6.2133318762741885], [106.8957550742768, -6.2133592], [106.8957227, -6.2133592]]]}}, {"type": "Feature", "properties": {"natural": "water", "water": "river", "osm_type": "way", "osm_id": 31506148}, "geometry": {"type": "Polygon", "coordinates": [[[106.8568394, -6.2149341], [106.8565142, -6.215743], [106.8563648, -6.2162008], [106.8564013, -6.2163827], [106.8565025, -6.2165442], [106.8567542, -6.2168696], [106.8572759, -6.2175102], [106.8575549, -6.2175349], [106.857807, -6.2174469], [106.85783974372632, -6.217518495826758], [106.85781461258505, -6.217544197005742], [106.85774739511093, -6.2175916529292525], [106.85767270910013, -6.21762616044389], [106.85759301889489, -6.217646581589976], [106.8575109512905, -6.217652242574412], [106.85748572986277, -6.217649523820274], [106.85744749867806, -6.217645402333468], [106.85732603540784, -6.2176163428715325], [106.85725071486601, -6.217569687241486], [106.8571856129922, -6.21753415570213], [106.85718392173781, -6.217537525112306], [106.85718076988941, -6.217535072359583], [106.85713692306656, -6.217500955260576], [106.85707359380642, -6.217447386760248], [106.85701249271065, -6.2173912851061495], [106.85695372130256, -6.217332744878793], [106.8568965441952, -6.2172702361154295], [106.85683998582462, -6.217207164589926], [106.85678405344727, -6.2171435384144225], [106.85677325162608, -6.21713100405064], [106.85672874979271, -6.21707936300451], [106.856674082111, -6.217014644663991], [106.8566200558421, -6.216949388798954], [106.8565666764323, -6.216883602623722], [106.85651394571394, -6.216817293365355], [106.85646187364435, -6.216750466414036], [106.85642271093846, -6.216704591372192], [106.8563741033124, -6.216645361630942], [106.85633410341762, -6.216580001294652], [106.85630536658753, -6.216514102509138], [106.85628232350552, -6.216432525798743], [106.85627245397806, -6.216360013723049], [106.8562779203588, -6.216282543434919], [106.85629349711458, -6.216206458976291], [106.85631991659555, -6.216120832832958], [106.85633761705435, -6.216063186647168], [106.85634621939005, -6.216035169125745], [106.85635677206399, -6.216000627583252], [106.85637240008363, -6.2159494696819655], [106.85639846138042, -6.215863732683813], [106.85642440328685, -6.215777959939594], [106.85645022489634, -6.215692150548304], [106.8564759262121, -6.215606305414146], [106.85650150814085, -6.215520425438035], [106.85650330736921, -6.215514352218669], [106.85652696976966, -6.215434507910747], [106.85653412162843, -6.2154102495498265], [106.85655231111132, -6.215348556448852], [106.85657753215314, -6.21526256743578], [106.85658946742116, -6.215221663906079], [106.85659202785148, -6.215212890006112], [106.85660263290474, -6.2151765435839526], [106.856627614276, -6.2150904866984895], [106.85663594265405, -6.21506164374233], [106.85664304544694, -6.215037050112279], [106.85664630905372, -6.215030670665792], [106.85665148574058, -6.215018222121281], [106.85665790419273, -6.2150027891110025], [106.85669006192654, -6.2149388851149645], [106.85671449072164, -6.214890340932549], [106.8568394, -6.2149341]]]}}, {"type": "Feature", "properties": {"natural": "water", "water": "river", "osm_type": "way", "osm_id": 31506182}, "geometry": {"type": "Polygon", "coordinates": [[[106.857807, -6.2174469], [106.8578756, -6.2173061], [106.8579224, -6.2171562], [106.8580472, -6.2168995], [106.858117, -6.2167622], [106.8581879, -6.2166603], [106.8584147, -6.2164022], [106.8586344, -6.216139], [106.8587781, -6.2161569], [106.8588559, -6.2161876], [106.8588653, -6.2162542], [106.8590195, -6.2162635], [106.8591428, -6.2163191], [106.8594432, -6.2165963], [106.8599796, -6.2171083], [106.8602049, -6.217183], [106.8607158, -6.2171389], [106.8611441, -6.2169222], [106.8619376, -6.2164634], [106.8628261, -6.2160427], [106.8630723, -6.216013], [106.8631195, -6.2161111], [106.8631222041601, -6.216120210939431], [106.86304232726364, -6.216117021007911], [106.86295293005868, -6.216122119981884], [106.86287575869153, -6.21612872828653], [106.86279929230169, -6.216141060108652], [106.86272395257052, -6.216159046151574], [106.8626501592708, -6.216182588192622], [106.86257831760238, -6.216211554606836], [106.86250882724921, -6.216245786664207], [106.86242953670914, -6.216288728614998], [106.8623502461505, -6.216331669653537], [106.86231973035423, -6.2163481957277655], [106.86229888330455, -6.2163594861293765], [106.86227095467619, -6.216374611591262], [106.8621916640868, -6.216417552613536], [106.86211237258489, -6.216460495439153], [106.8620330828682, -6.216503436442011], [106.86195379132917, -6.216546377443093], [106.86187450068141, -6.216589319337007], [106.86179912737532, -6.2166306750972495], [106.86178228930216, -6.216639977591562], [106.86175262858345, -6.216656366816205], [106.86172387681299, -6.216672254648301], [106.861648748988, -6.216714056181963], [106.86157374571049, -6.2167560805960695], [106.86149886697406, -6.216798326082422], [106.861424112785, -6.21684079444936], [106.86134948493752, -6.216883482074022], [106.86127498344118, -6.2169263916689195], [106.86120060919299, -6.2169695214226435], [106.86112636309645, -6.217012871332081], [106.86105224514516, -6.217056439589015], [106.8609782562521, -6.217100228902788], [106.86090439731117, -6.217144236557835], [106.86083066832236, -6.217188462554215], [106.86075707109258, -6.21723290688567], [106.8607543491921, -6.217234022252087], [106.86070921995547, -6.217252515622791], [106.86066043042695, -6.217269650273357], [106.8606307148479, -6.217277140041718], [106.86057672780102, -6.217290748694027], [106.86049198597156, -6.21730716904223], [106.86040646406025, -6.217318859771912], [106.8603204257604, -6.217325784691682], [106.86023413662964, -6.217327923878557], [106.86014887377145, -6.217322327095693], [106.86006546270528, -6.217303775359772], [106.85998585740492, -6.217272703925189], [106.85991192342564, -6.217229840401408], [106.8598453890554, -6.217176187745909], [106.85978052615182, -6.217116364657938], [106.85971656336525, -6.217055578176019], [106.85965351340496, -6.2169938454347164], [106.85959139166204, -6.216931175421743], [106.85953735869141, -6.216875658651733], [106.85948303310616, -6.216820428615725], [106.85942841761985, -6.216765486208242], [106.85937351133529, -6.216710833240653], [106.85931831787587, -6.216656472412592], [106.85926283814501, -6.216602403720809], [106.85921201795526, -6.216554835790072], [106.85915955620477, -6.216509087364295], [106.85914350425108, -6.216496054351555], [106.85910551814035, -6.216465214271231], [106.8590660565852, -6.216439760917332], [106.85902580623349, -6.216415577961532], [106.85895319007423, -6.2163743596949725], [106.8589343307535, -6.216364087896028], [106.85887986375819, -6.216334420582067], [106.85880584992255, -6.216295775009511], [106.8587642617155, -6.216288112965653], [106.85874603743414, -6.216284754820804], [106.85874211557194, -6.216284032628928], [106.85873218434412, -6.2162822031820015], [106.85865768111249, -6.216289953405193], [106.85858837962567, -6.216318395946886], [106.85852989329003, -6.216365228076427], [106.85848278141484, -6.216423516563871], [106.85843549286317, -6.216481666431092], [106.85838803032006, -6.216539670435332], [106.85834039470477, -6.2165975330941485], [106.858310628405, -6.216635621393597], [106.85829374757398, -6.216657219577615], [106.85824863504641, -6.2167180751644375], [106.85820508227704, -6.216780059079445], [106.85816001857948, -6.216850968720603], [106.8581178476992, -6.216923639434626], [106.8580786369697, -6.21699794892396], [106.858046939059, -6.217064371257216], [106.8580424492262, -6.217073780331834], [106.8580093436648, -6.21715100958089], [106.85797937495785, -6.217229510801325], [106.85795259144714, -6.21730915633716], [106.85793204730288, -6.217365345989707], [106.8579183852605, -6.217398437353369], [106.85790638774543, -6.21742749665277], [106.85787214714094, -6.217485357420927], [106.85783974372632, -6.217518495826758], [106.857807, -6.2174469]]]}}, {"type": "Feature", "properties": {"natural": "water", "water": "river", "osm_type": "way", "osm_id": 31506194}, "geometry": {"type": "Polygon", "coordinates": [[[106.8606795, -6.2201444], [106.86060339673512, -6.220119681748641], [106.86061284273414, -6.220102383585376], [106.86065358408788, -6.220030505261037], [106.86069545709572, -6.219959280271782], [106.86073845007554, -6.219888726741685], [106.86078259420891, -6.2198169214214225], [106.86079043412124, -6.219804166908929], [106.86082502962434, -6.219747883411458], [106.8608267319982, -6.219745113410691], [106.860870865244, -6.219673300894859], [106.86090111176165, -6.219624076993791], [106.86091499304918, -6.219601485685396], [106.86095911541058, -6.219529666878157], [106.8610032314279, -6.2194578453804565], [106.86104686372997, -6.21939234925099], [106.86109049511593, -6.219326852220026], [106.86113412739908, -6.219261356089487], [106.8611777596696, -6.219195859054272], [106.86122139193381, -6.219130362922663], [106.86122914900007, -6.219118719004358], [106.8612650232819, -6.219064865889563], [106.86130865643065, -6.2189993697537025], [106.8613631283789, -6.218931972870952], [106.86137395116113, -6.2189185821728845], [106.86141410292902, -6.2188527691880635], [106.86144999682533, -6.2188116917185665], [106.86150814442333, -6.218745147158272], [106.86172514718876, -6.218496804937], [106.86178118362945, -6.218432674666391], [106.86198592999065, -6.218198359260126], [106.862014201948, -6.218166004800578], [106.86212902303507, -6.217980214009464], [106.86228176974348, -6.217733056562087], [106.86228312990556, -6.217734457729786], [106.86231268074049, -6.217698645791308], [106.8623446183377, -6.217665330854403], [106.86240520070676, -6.217605232445007], [106.8624664903188, -6.2175458548639835], [106.86252847908374, -6.217487209893593], [106.8625911579858, -6.217429302990288], [106.8626037226448, -6.217417969426695], [106.86265451712168, -6.217372144134437], [106.86271855019237, -6.2173157405812205], [106.86278324458097, -6.217260101416414], [106.86284071968079, -6.217203060034679], [106.86284788914608, -6.217196214723129], [106.862899285614, -6.217147141381893], [106.86295891896006, -6.217092365431639], [106.86301896133146, -6.217039317684272], [106.86301959991559, -6.217038753048912], [106.86308130415662, -6.216986324210522], [106.86311318580253, -6.216957160424624], [106.86312509083795, -6.216947607652639], [106.86312451427034, -6.21694679685018], [106.86314135792992, -6.216931389445249], [106.86320141259388, -6.216876454673582], [106.86326146634156, -6.216821519901907], [106.8633215200796, -6.216766586031146], [106.86338157380166, -6.2167116512530365], [106.8634416284112, -6.216656715564388], [106.86350168211081, -6.216601781684018], [106.86354501913979, -6.21652698008154], [106.86356516084518, -6.216442897743937], [106.86356041888888, -6.216364750310023], [106.86353456725274, -6.216299756801605], [106.86349049386243, -6.216245460390114], [106.86343510926994, -6.216208733597915], [106.8634322240344, -6.216206820633103], [106.86337133488095, -6.2161768699849835], [106.8633076167645, -6.216153547712177], [106.86328649005131, -6.21614851823541], [106.86322050569177, -6.216132808783547], [106.86313179835338, -6.216120594410632], [106.86313073389962, -6.2161205520508], [106.86312537728934, -6.21612033766024], [106.8631222041601, -6.216120210939431], [106.8631195, -6.2161111], [106.8630723, -6.216013], [106.8631941, -6.2159844], [106.8632711, -6.2159781], [106.8633214, -6.2159858], [106.863359, -6.2160071], [106.8633899, -6.2160245], [106.8634588, -6.2160737], [106.8635122, -6.216111], [106.8635654, -6.2161634], [106.8636451, -6.2162435], [106.8637063, -6.2163304], [106.8637207, -6.2163984], [106.8637, -6.2164712], [106.8635363, -6.2167523], [106.8634212, -6.2169143], [106.8629502, -6.2172223], [106.862636, -6.2174595], [106.8623936, -6.2177129], [106.8622517, -6.2179026], [106.8620716, -6.2182504], [106.8617642, -6.2186891], [106.8612719, -6.2193077], [106.8609873, -6.2197541], [106.8608125, -6.2202172], [106.8606795, -6.2201444]]]}}, {"type": "Feature", "properties": {"natural": "water", "source": "HOT_InAWARESurvey_2017", "water": "river", "osm_type": "way", "osm_id": 31507293}, "geometry": {"type": "MultiPolygon", "coordinates": [[[[106.863724, -6.2248302], [106.863762, -6.2249057], [106.8639171, -6.2252142], [106.86371274012946, -6.225221790020324], [106.86370697041573, -6.225209911012979], [106.86370623140506, -6.225208388314446], [106.86369212075788, -6.225178467238356], [106.86368736167671, -6.225168374695262], [106.86367660732037, -6.225145568310057], [106.86367290510533, -6.225137717049644], [106.86366843186266, -6.225128231088454], [106.8636598353494, -6.2251008926958935], [106.86365065495436, -6.225071697423576], [106.86364819970726, -6.225063885159239], [106.8636431832516, -6.225047932796633], [106.86363921405481, -6.225031240754729], [106.86362348585538, -6.224965101352649], [106.86362304475675, -6.22495889679582], [106.86361745282208, -6.224880171943974], [106.86362524202664, -6.224795385413802], [106.86366600228385, -6.224715629824399], [106.8636827265679, -6.224696044662967], [106.86372415802445, -6.224647528845665], [106.8637965275971, -6.224594805259337], [106.86387915481338, -6.224560343717441], [106.86396751978988, -6.224546027251788], [106.86405558196485, -6.224549612282207], [106.86414368978362, -6.2245517938895025], [106.86423182065188, -6.224552570345322], [106.86431995288527, -6.224551941726442], [106.86440806479935, -6.22454990810966], [106.8644957245746, -6.224546484582766], [106.86449613199935, -6.22454646958136], [106.86458413371393, -6.224541628927631], [106.86467204735202, -6.224535385324315], [106.86475985033218, -6.2245277406597666], [106.86484752097964, -6.224518697723277], [106.86493219779175, -6.224500282044949], [106.86501400805047, -6.224471694810216], [106.8650917353361, -6.224433360750873], [106.86516422608757, -6.224385850849807], [106.86523040310708, -6.22432986873078], [106.86528481787138, -6.224266059322963], [106.8653314109282, -6.224196326414524], [106.86536954415523, -6.224121621622875], [106.86539869534208, -6.22404297120005], [106.86541846442826, -6.223961451598445], [106.86542858069252, -6.223878178595499], [106.86542890631533, -6.223794292814728], [106.86541943722472, -6.223710943448036], [106.86541063238903, -6.22365145957204], [106.86539910697168, -6.223592442809518], [106.86537772842851, -6.223509210563245], [106.86534893478385, -6.2234282486212305], [106.86531296326815, -6.223350214366891], [106.86528797571688, -6.223306798404333], [106.86527794506233, -6.2232893701195815], [106.86527010434651, -6.22327574510412], [106.8652207098118, -6.223205447178957], [106.86519593983574, -6.223172992395121], [106.86517585354818, -6.223146674731638], [106.86513882171162, -6.2231017750925455], [106.86512881244114, -6.2230896378327945], [106.86509154327715, -6.223039695658151], [106.86507703957692, -6.223020259671233], [106.8650234448005, -6.222952282140626], [106.86496806442022, -6.222885753032258], [106.86494631308075, -6.222860990953559], [106.86491093745158, -6.222820719223686], [106.86485210471699, -6.222757227586101], [106.86479160792948, -6.2226953213709955], [106.86478651671067, -6.222690190196523], [106.86473134569896, -6.2226345924285384], [106.86472073079847, -6.22262364896885], [106.86467177406297, -6.2225731829209385], [106.86461290028774, -6.222511103672596], [106.86455473162995, -6.222448362795526], [106.86454148365097, -6.222433746009246], [106.86449727533989, -6.2223849665934345], [106.86445022825053, -6.222329778606631], [106.8643959813693, -6.2222587427078], [106.86435766981245, -6.22220857356321], [106.8643417354105, -6.222187707699789], [106.86432330396762, -6.222163571285132], [106.86428748856082, -6.222116671780733], [106.86423324263038, -6.222045635848355], [106.86417899581222, -6.221974599909073], [106.86415406355722, -6.221941951218776], [106.86412474901303, -6.221903564863804], [106.8640705031299, -6.221832528901108], [106.86401625635904, -6.221761492931474], [106.86398662414545, -6.22172268996478], [106.8639620114141, -6.221690457849508], [106.86395961967133, -6.221687326164093], [106.86394882460422, -6.221673190745915], [106.8639077637713, -6.221619421862839], [106.86386788099078, -6.221565877567291], [106.86386000865318, -6.221555309568582], [106.86381271493566, -6.221490856580269], [106.86376588623583, -6.2214260637894325], [106.86371952528008, -6.221360935707363], [106.86367363298461, -6.221295475947599], [106.86362539442676, -6.221224915083655], [106.86357961940894, -6.22115273069904], [106.86356223482437, -6.221123105037899], [106.86353635972561, -6.221079006698182], [106.86349567080741, -6.221003833301748], [106.86348672702965, -6.220985852294714], [106.86348123010352, -6.220974803031555], [106.86346015141704, -6.220932430066407], [106.86345759904043, -6.220927298049865], [106.86344144786412, -6.220891809108202], [106.86342218992313, -6.220849493006542], [106.86340387024605, -6.220805248648277], [106.86338948624977, -6.220770512053689], [106.86335952719422, -6.220690447277621], [106.86333363618881, -6.220604373601865], [106.86331097017896, -6.220517393432478], [106.86329156120881, -6.220429626909794], [106.86327543591432, -6.220341197809835], [106.86326261731419, -6.220252229017207], [106.86324620729884, -6.2201768424417505], [106.86322480001434, -6.220102719415896], [106.8631984924094, -6.220030194133682], [106.86316739856349, -6.219959590782983], [106.86313166143532, -6.219891224408253], [106.8630914393074, -6.219825400054149], [106.86308196693584, -6.219812716546712], [106.8631483, -6.2198537], [106.8632884, -6.2200178], [106.8633333, -6.2202217], [106.8634115, -6.2205279], [106.8635677, -6.2209313], [106.8637052, -6.2212425], [106.8642718, -6.2219551], [106.8645695, -6.2223325], [106.8648287, -6.2225939], [106.8651667, -6.2229691], [106.8653682, -6.2232331], [106.8654352, -6.2233677], [106.8655385, -6.2235664], [106.8655613, -6.2237117], [106.8655519, -6.2240343], [106.8654795, -6.2242396], [106.8654165, -6.224341], [106.8652689, -6.2244863], [106.8650651, -6.2245596], [106.8646869, -6.2246223], [106.8643892, -6.2246023], [106.863987, -6.2245965], [106.8638205, -6.2246062], [106.863724, -6.2248302]]], [[[106.8606795, -6.2201444], [106.8608125, -6.2202172], [106.8607052, -6.2204652], [106.8604289, -6.2208357], [106.8603331, -6.2209574], [106.8602806, -6.2210397], [106.8602666, -6.2211664], [106.8602823, -6.221259], [106.8602997, -6.2213063], [106.8603452, -6.2213786], [106.8603971, -6.2214254], [106.8605401, -6.2214723], [106.8607381, -6.2215073], [106.8609628, -6.22155], [106.8611252, -6.2215589], [106.8612632, -6.2215385], [106.8613955, -6.2215069], [106.8615112, -6.221461], [106.8615863, -6.221415], [106.8616413, -6.221357], [106.8616722, -6.2213063], [106.8617183, -6.2211859], [106.8617373, -6.2210792], [106.8616948, -6.2208598], [106.8616292, -6.2207584], [106.8615328, -6.2206485], [106.8614159, -6.2204326], [106.86142456582881, -6.2203554675084085], [106.8614383315879, -6.22044015473311], [106.86147180877731, -6.220519511110814], [106.86151458229118, -6.220588418850335], [106.86156481558312, -6.220652085123466], [106.86161344815399, -6.220701191087809], [106.86162187788536, -6.22070970293193], [106.86166807234122, -6.220765084181679], [106.86168480901861, -6.2207895766221695], [106.86170876474019, -6.220824631274158], [106.86174358363584, -6.220887799410413], [106.86177220895233, -6.220954007444288], [106.86179349212618, -6.2210319194247585], [106.86180691469039, -6.221111564348887], [106.86181234194866, -6.221192151557333], [106.86181361557963, -6.221273945084161], [106.86179955989577, -6.221354530450187], [106.86177066899175, -6.221431053304738], [106.86172796603205, -6.221500808424402], [106.86166733636335, -6.221565811207312], [106.86165997167112, -6.221570857038863], [106.86159401840969, -6.221616042321462], [106.8615272203401, -6.221645304784977], [106.86152142560955, -6.221647439126053], [106.86151172291049, -6.221651013095224], [106.86145879163102, -6.221670510619813], [106.86138897681248, -6.221691569451675], [106.86131802769663, -6.221708406251321], [106.86127267266406, -6.221723926802765], [106.8612273842726, -6.22173964331794], [106.8611536247004, -6.221762993594665], [106.8610784037186, -6.221781081402954], [106.86100209596934, -6.221793818622371], [106.86092508069522, -6.221801140624541], [106.8608619335592, -6.221802668743364], [106.8608477408548, -6.221803011701073], [106.86077817182797, -6.2217935425891895], [106.86076876555633, -6.221792263802929], [106.86069083978983, -6.221775515833156], [106.8606192928186, -6.221748271635669], [106.86054845420077, -6.221719231989693], [106.86047837008165, -6.221688415720018], [106.86040908299252, -6.221655841664201], [106.86034063818782, -6.221621532266901], [106.86029015557274, -6.221594613447525], [106.86027307910547, -6.2215855072667114], [106.86023658668381, -6.221561804066864], [106.86017145987341, -6.221506784109566], [106.86011780133563, -6.2214405167332165], [106.86009086085622, -6.221382182343304], [106.86007223405248, -6.2213206821522], [106.8600687028966, -6.22124686482028], [106.86007382484117, -6.221173140881958], [106.86008753025834, -6.221100522333927], [106.86009462618706, -6.221077880782923], [106.86010963020954, -6.221030007126108], [106.86013982090913, -6.220962563775208], [106.86017407633854, -6.220901776068088], [106.8602115151607, -6.220842897576486], [106.86025203226487, -6.220786098651492], [106.86028783970211, -6.2207265459796215], [106.86032322340606, -6.220666739828052], [106.86035817796551, -6.220606682928308], [106.86036034030049, -6.220602907694449], [106.86039270610061, -6.220546377983378], [106.86042645465861, -6.220470957393035], [106.86046139231495, -6.220396081437581], [106.86049750828457, -6.220321766429685], [106.86050249701354, -6.22031190260061], [106.86053015571858, -6.220257207727045], [106.86053479541224, -6.220248033190003], [106.8605732438227, -6.220174899836306], [106.86060339673512, -6.220119681748641], [106.8606795, -6.2201444]]], [[[106.8620349, -6.2196854], [106.8622607, -6.2196212], [106.8626378, -6.2196527], [106.86270399812462, -6.219659475615382], [106.8626940077624, -6.219661581769078], [106.86260666660753, -6.219680114777858], [106.86254105742577, -6.219690269202761], [106.86251843279163, -6.219693771197276], [106.862429578121, -6.219702509380976], [106.86241877218004, -6.219702968813868], [106.86235479200691, -6.219705688032975], [106.86225579429903, -6.219697362567248], [106.86218796136433, -6.219702828608675], [106.86218741377917, -6.21970280883924], [106.86212369527944, -6.21970158408787], [106.8620599652914, -6.219701459726007], [106.86199075185083, -6.2197061665977795], [106.86197371391533, -6.219709807196413], [106.8620349, -6.2196854]]]]}}, {"type": "Feature", "properties": {"waterway": "stream", "osm_type": "way", "osm_id": 31610697}, "geometry": {"type": "LineString", "coordinates": [[106.86762, -6.2408483], [106.86759, -6.2405801], [106.8671105, -6.240528], [106.8667495, -6.240615], [106.8666194, -6.2406307], [106.8663954, -6.2406577], [106.8662189, -6.2405652], [106.8652153, -6.2406417], [106.8649041, -6.2405723], [106.8645406, -6.2404982], [106.8640536, -6.2403195], [106.8632412, -6.2401351], [106.862986, -6.2395761], [106.8629277, -6.2394167]]}}, {"type": "Feature", "properties": {"boat": "no", "name": "Ci Liwung", "name:en": "Ciliwung River", "waterway": "river", "osm_type": "way", "osm_id": 56676576}, "geometry": {"type": "MultiLineString", "coordinates": [[[106.86673031986041, -6.239230494889691], [106.8667334, -6.2392301], [106.866778, -6.2391946], [106.8668442, -6.2390948], [106.8669386, -6.2388828], [106.8669749, -6.2385155], [106.8669102, -6.2382492], [106.86690635179926, -6.238237594518647]], [[106.8668639997428, -6.238109868333408], [106.8667901, -6.237887], [106.8665805, -6.2373329], [106.8664828, -6.2369199], [106.8662024, -6.2363727], [106.86538273479736, -6.2355933967224395]], [[106.865361707008, -6.235557482589094], [106.86530692356564, -6.235451530855372]], [[106.86524156817295, -6.235274996731177], [106.8652508, -6.2349977], [106.865461, -6.2348593], [106.86556230609303, -6.234849867186911]], [[106.86583547553994, -6.2333030949019514], [106.8656874, -6.2330451], [106.8654761, -6.2327587], [106.8650265, -6.2321492], [106.8644257, -6.2317653], [106.8637648, -6.231424], [106.8634695, -6.2312249], [106.86334341557442, -6.230971885575194]], [[106.86333497776111, -6.230948429213988], [106.863327, -6.2307709], [106.8638163, -6.2298711], [106.86436755846289, -6.229303735712173]]]}}, {"type": "Feature", "properties": {"source": "Bing", "waterway": "river", "osm_type": "way", "osm_id": 97948225}, "geometry": {"type": "MultiLineString", "coordinates": [[[106.8920173, -6.2395089], [106.8921011, -6.2390785], [106.8923592, -6.2384865], [106.89251392777373, -6.238396020480855]], [[106.89272319400804, -6.238223156874264], [106.8927959, -6.2380426], [106.89280027526105, -6.2379379472912175]], [[106.89253817270567, -6.236864237409512], [106.89259758573043, -6.236828709736545]], [[106.89265633174384, -6.2351814], [106.89259615516151, -6.2351814]], [[106.89258123983278, -6.235186804296077], [106.89251437778192, -6.2352454621711635]], [[106.89239270450159, -6.235452109229293], [106.892379, -6.2355168], [106.89225, -6.2357043], [106.89223377302048, -6.2357100553243905]], [[106.89190319748089, -6.23491939126023], [106.8919026, -6.2349051], [106.89201112330892, -6.234774538288475]], [[106.89145040889274, -6.232439390407601], [106.8913456, -6.2323028], [106.8909399, -6.2319749], [106.8907949, -6.2318456], [106.8907321668716, -6.231789720070501]], [[106.8900634391577, -6.230901349551924], [106.8900614, -6.2307723], [106.8900542, -6.2306238], [106.8900467, -6.2305929], [106.89003886480984, -6.230519385476707]], [[106.89003507884858, -6.229651125031592], [106.8900333, -6.229628], [106.89007056503657, -6.229559166765793]], [[106.89030580512049, -6.22918093888441], [106.8903384, -6.2291204], [106.8903951, -6.2290638], [106.8904978, -6.2290377], [106.89061717433546, -6.228965899605871]], [[106.89077011821425, -6.228805702652505], [106.8907875, -6.2287737], [106.8909136, -6.2287044], [106.8915117, -6.2285657], [106.89159282818935, -6.228541129115912]], [[106.89141978773837, -6.227329297750072], [106.8914205, -6.2273205], [106.8914265919312, -6.2273169396937185]], [[106.89299683251195, -6.225765121907698], [106.8929976, -6.225758], [106.89300053166102, -6.22575484527782]], [[106.89329401704272, -6.225353771910864], [106.8933087, -6.2253421], [106.89332801515533, -6.22533478183556]], [[106.89406595259135, -6.222187924948397], [106.8941615, -6.2220891], [106.8942259, -6.2220518], [106.8943510830558, -6.221950276971936]], [[106.89440429057376, -6.221907125857708], [106.8945169, -6.2218158], [106.8948119, -6.2216225], [106.8950427, -6.2215586], [106.89514961978152, -6.221512896075081]], [[106.89533301410238, -6.221414994557821], [106.8954061, -6.2213639], [106.8955133, -6.2213692], [106.8956568, -6.2213572], [106.89568662028933, -6.221329972779322]], [[106.89569536771192, -6.221293886037997], [106.8957025, -6.2212559], [106.8957072060198, -6.221244511767036]], [[106.89584644565458, -6.220817109111799], [106.89592310415293, -6.220635145074052]], [[106.89503056306202, -6.218001481529691], [106.895029, -6.2179772], [106.89503371944446, -6.217960772207003]], [[106.89555721239466, -6.216942772070627], [106.8956099, -6.2169323], [106.8956829460337, -6.216962551387695]]]}}, {"type": "Feature", "properties": {"natural": "water", "source": "Bing", "water": "river", "osm_type": "way", "osm_id": 97966868}, "geometry": {"type": "Polygon", "coordinates": [[[106.8913326, -6.2323816], [106.8912738, -6.2323416], [106.8910922, -6.232218], [106.8909026, -6.2320489], [106.8907631, -6.2319245], [106.8906324, -6.2318071], [106.8905058, -6.2316225], [106.8904341, -6.2314716], [106.8903202, -6.2313667], [106.8902021, -6.2312912], [106.8902239559047, -6.231257778014331], [106.89025254042267, -6.231268998562661], [106.8902884526448, -6.231291472429816], [106.8903210796139, -6.231311887589548], [106.89037107043565, -6.231357918987244], [106.89040476725293, -6.231399056817692], [106.8904082978709, -6.231403782759465], [106.8904289686446, -6.231431451293227], [106.89043413999292, -6.231441975933316], [106.89044309565695, -6.231460202939176], [106.89046463658133, -6.23150404432513], [106.89050858605763, -6.2315748916001485], [106.89052788078178, -6.231599773979012], [106.89055967165733, -6.23164077305816], [106.8906173378639, -6.231700969184766], [106.89067301932558, -6.231748107591984], [106.89067393372677, -6.231748881873637], [106.89068095711727, -6.231754826726418], [106.89074983614152, -6.231801759572021], [106.89079898262783, -6.231828209351441], [106.89082322500573, -6.231841255953605], [106.89088453384933, -6.231891272820329], [106.8909458417971, -6.231941288775426], [106.89097010111094, -6.231961080192191], [106.89100714885554, -6.23199130562717], [106.89104294159104, -6.232020506648257], [106.89106845592161, -6.23204132156403], [106.89108854063056, -6.2320577066802345], [106.89112976481205, -6.232091339291923], [106.89119068316123, -6.2321410374403445], [106.8911910718967, -6.232141354303178], [106.89121977496517, -6.232164770734127], [106.89125237990221, -6.232191371108723], [106.89129810812521, -6.232239151799068], [106.8913059581839, -6.232247354023502], [106.89134991586855, -6.232299508053422], [106.89135589986653, -6.2323066066872865], [106.89138030678366, -6.2323395760063836], [106.8913326, -6.2323816]]]}}, {"type": "Feature", "properties": {"natural": "water", "source": "Bing", "water": "river", "osm_type": "way", "osm_id": 98074305}, "geometry": {"type": "Polygon", "coordinates": [[[106.8787289, -6.2377501], [106.8788496, -6.2377234], [106.8788812, -6.2378914], [106.8788899, -6.2379401], [106.8788946, -6.2380114], [106.8789086, -6.2382794], [106.8789026, -6.2387433], [106.87892, -6.2393519], [106.8789135, -6.2399074], [106.8788491, -6.2399112], [106.8787528, -6.2399147], [106.8786646, -6.2398645], [106.8786693, -6.2397405], [106.8787014, -6.2394992], [106.8787041, -6.2393112], [106.8787202, -6.2388926], [106.8787216, -6.2385687], [106.8787189, -6.2383474], [106.8786924, -6.2379248], [106.8786991, -6.2377641], [106.8787162, -6.2377546], [106.8787289, -6.2377501]]]}}, {"type": "Feature", "properties": {"natural": "water", "source": "Bing", "water": "canal", "osm_type": "way", "osm_id": 98074306}, "geometry": {"type": "Polygon", "coordinates": [[[106.879556, -6.2398966], [106.8799052, -6.2398735], [106.880548, -6.2398335], [106.8807453, -6.2398222], [106.88067039747168, -6.239900372572811], [106.88044047467567, -6.239911491675152], [106.87978419025333, -6.239943232273815], [106.87978411798578, -6.239943236148371], [106.87961537554918, -6.239951397157687], [106.87938749744646, -6.239960026443246], [106.8793875, -6.2399596], [106.8793862, -6.2399059], [106.879556, -6.2398966]]]}}, {"type": "Feature", "properties": {"natural": "water", "source": "Bing", "water": "canal", "osm_type": "way", "osm_id": 98074307}, "geometry": {"type": "Polygon", "coordinates": [[[106.8793875, -6.2399596], [106.87938749744646, -6.239960026443246], [106.87925987332405, -6.23996485931215], [106.87895241718584, -6.239976500630959], [106.87894646019667, -6.239976726223953], [106.87885131278539, -6.239980329691253], [106.87884783372728, -6.239980184783331], [106.87882257466718, -6.2399816139486814], [106.87882250135232, -6.239959515977635], [106.8787884932148, -6.2399590803634615], [106.87871057574056, -6.239958081707577], [106.87865859441439, -6.2399610790574], [106.8786066130861, -6.239964076402266], [106.87852444327807, -6.239971596384119], [106.87844312413974, -6.239985587910197], [106.87836316312331, -6.240005960565263], [106.87835736055472, -6.240007939644614], [106.87828505943386, -6.240032591414469], [106.87827758798986, -6.2400358180716795], [106.8782774, -6.2400001], [106.8782797, -6.2399505], [106.8787528, -6.2399147], [106.8788491, -6.2399112], [106.8789135, -6.2399074], [106.8793862, -6.2399059], [106.8793875, -6.2399596]]]}}, {"type": "Feature", "properties": {"natural": "water", "source": "Bing", "water": "canal", "osm_type": "way", "osm_id": 98074308}, "geometry": {"type": "Polygon", "coordinates": [[[106.881075, -6.2398056], [106.8823268, -6.2397425], [106.88355, -6.2396809], [106.8835535, -6.2397448], [106.88355374752503, -6.23975244852332], [106.88355351725735, -6.239752462239502], [106.88291809304799, -6.239790312749452], [106.8825506854128, -6.239812199249927], [106.88210968738436, -6.239832859406783], [106.88196687630422, -6.23983954874157], [106.88170905244041, -6.239851626355595], [106.88087735143432, -6.2398905853983715], [106.8808564990548, -6.23989156221646], [106.88073082197768, -6.239897450434259], [106.88067039747168, -6.239900372572811], [106.8807453, -6.2398222], [106.881075, -6.2398056]]]}}, {"type": "Feature", "properties": {"natural": "water", "source": "Bing", "water": "canal", "osm_type": "way", "osm_id": 98074309}, "geometry": {"type": "Polygon", "coordinates": [[[106.8835535, -6.2397448], [106.88355, -6.2396809], [106.8845824, -6.2396347], [106.8848563, -6.2396214], [106.8872465, -6.2395053], [106.8886518, -6.2394677], [106.8892684, -6.2394022], [106.8904058, -6.2393879], [106.8907465, -6.2393677], [106.8907397, -6.239456], [106.89073864432387, -6.239473946494174], [106.89066008826943, -6.239472380164796], [106.89045513936924, -6.239468294156746], [106.89042134565705, -6.239467619825856], [106.89037590666769, -6.239466713341188], [106.8899643425935, -6.239458507217896], [106.88976962209263, -6.239454623827922], [106.88974855794233, -6.239454203947534], [106.88954556512783, -6.239463503595284], [106.88938495987566, -6.23947086179636], [106.88933521710388, -6.239473140579508], [106.88907551741934, -6.239485037659376], [106.88879317127326, -6.239497972421712], [106.88865600910239, -6.239504253575973], [106.88865514277873, -6.239504293752747], [106.88836994282126, -6.239517359683803], [106.8881776085851, -6.239526170334792], [106.88817360397078, -6.239526352863713], [106.88811389429905, -6.239529075942721], [106.88791359943292, -6.239538208887718], [106.8877643148311, -6.239545016990468], [106.88762039077588, -6.239551579801813], [106.88753273729306, -6.239555575651605], [106.88732910079918, -6.239564862307593], [106.88726063928824, -6.2395679837398115], [106.88719130873547, -6.239571144443398], [106.88714306001071, -6.239573344435077], [106.88708279111351, -6.2395760938159865], [106.88698712475241, -6.239580456440216], [106.88693743063232, -6.239582721266156], [106.88666559357677, -6.2395951163658046], [106.88659948891399, -6.239598130718892], [106.88606457366109, -6.23962328327703], [106.88572014278556, -6.2396394767091365], [106.88510331394787, -6.239668479437169], [106.88499267470633, -6.239673681007688], [106.8848232582556, -6.239682922886233], [106.88453624254919, -6.239698578238428], [106.88430729787407, -6.239711068195261], [106.88360841215442, -6.239749191796586], [106.88357173275276, -6.239751377210755], [106.88355374752503, -6.23975244852332], [106.8835535, -6.2397448]]]}}, {"type": "Feature", "properties": {"name": "Kali Malang", "note": "Saluran Irigasi Tarum Barat", "source": "Bing", "waterway": "canal", "osm_type": "way", "osm_id": 98074310}, "geometry": {"type": "LineString", "coordinates": [[106.89216399437576, -6.239516445550342], [106.8920173, -6.2395089], [106.89171992450025, -6.239501868538927]]}}, {"type": "Feature", "properties": {"natural": "water", "source": "Bing", "water": "river", "osm_type": "way", "osm_id": 98076259}, "geometry": {"type": "MultiPolygon", "coordinates": [[[[106.89138030678366, -6.2323395760063836], [106.89140200985229, -6.232368892916463], [106.89140523713776, -6.232372925555643], [106.89142366516273, -6.232395953885866], [106.89144512715842, -6.232422771429495], [106.89144742444928, -6.232429999922385], [106.89145813325985, -6.232463694957533], [106.89146472906178, -6.23248444842557], [106.89146879181051, -6.232497231043754], [106.89147959313696, -6.232535457480137], [106.8913686, -6.2324191], [106.8913326, -6.2323816], [106.89138030678366, -6.2323395760063836]]], [[[106.892054, -6.2346715], [106.8920117, -6.2344568], [106.8917914, -6.2337157], [106.89162176716314, -6.233077278223616], [106.89163538640209, -6.233122668669628], [106.89164114085015, -6.233141848330041], [106.8916666668878, -6.233226922164592], [106.89169156458297, -6.233305322987146], [106.89169423108929, -6.233313721012419], [106.89171646228868, -6.2333837238060825], [106.89174136001145, -6.233462126429618], [106.89175978976535, -6.233520157585804], [106.89176625773183, -6.233540525433014], [106.891791154569, -6.233618927148396], [106.89181605322048, -6.233697327949547], [106.89182467321513, -6.233724470021509], [106.89183157890471, -6.233746216012172], [106.89184095097903, -6.233775728750288], [106.8918658487514, -6.233854130451521], [106.89186996273732, -6.233867083758418], [106.89189074743132, -6.233932530337638], [106.89189081057575, -6.233932754337577], [106.89191315254917, -6.234011459051005], [106.89191415087834, -6.234014977090876], [106.89192986512545, -6.23407033629824], [106.89193755433948, -6.234097424744761], [106.89196095870854, -6.234179870583654], [106.89198436219147, -6.234262318230548], [106.89199606394025, -6.2343035429568], [106.89200445040991, -6.234333080019127], [106.89200744631935, -6.234343637750253], [106.89200776658878, -6.2343447658707], [106.89203117009026, -6.234427212606474], [106.89203501503914, -6.234447024772697], [106.8920457831241, -6.234502514742356], [106.89206039616523, -6.234577816876366], [106.89206770314028, -6.23461546794104], [106.89207436671101, -6.234649811260836], [106.89207500921367, -6.234653119008507], [106.89206367459735, -6.234676532964688], [106.892054, -6.2346715]]]]}}, {"type": "Feature", "properties": {"natural": "water", "water": "river", "osm_type": "way", "osm_id": 117092055}, "geometry": {"type": "Polygon", "coordinates": [[[106.8837847, -6.2283671], [106.8844058, -6.2285249], [106.8850937, -6.2287062], [106.8850212, -6.2289498], [106.8832539, -6.2285148], [106.8833579, -6.2282506], [106.8837847, -6.2283671]]]}}, {"type": "Feature", "properties": {"natural": "water", "water": "river", "osm_type": "way", "osm_id": 117092056}, "geometry": {"type": "Polygon", "coordinates": [[[106.8781457, -6.2290215], [106.8781972, -6.2290005], [106.8783501, -6.2288912], [106.8786532, -6.2287944], [106.8787739, -6.2288032], [106.8791891, -6.2284003], [106.8795673, -6.2282643], [106.8798328, -6.2282456], [106.8821931, -6.2282003], [106.8833579, -6.2282506], [106.8832539, -6.2285148], [106.8828486, -6.228478], [106.8820573, -6.2284686], [106.8814829, -6.2285045], [106.8810264, -6.2284856], [106.8806509, -6.2284749], [106.8802679, -6.2285266], [106.8799184, -6.2286567], [106.8793996, -6.2288887], [106.8792403, -6.2290216], [106.8787911, -6.229018], [106.8786748, -6.2290739], [106.8785719, -6.2291428], [106.8784929, -6.2292195], [106.8784399, -6.2292913], [106.8784212, -6.2293284], [106.8781645, -6.2295988], [106.8775052, -6.2303737], [106.8773222, -6.230228], [106.8779432, -6.2294789], [106.8780343, -6.2293469], [106.8780987, -6.2292202], [106.8781457, -6.2290215]]]}}, {"type": "Feature", "properties": {"natural": "water", "water": "river", "osm_type": "way", "osm_id": 117092057}, "geometry": {"type": "Polygon", "coordinates": [[[106.8854695, -6.2288128], [106.8861405, -6.2289991], [106.8869688, -6.2291894], [106.8876187, -6.2293241], [106.8885161, -6.2294162], [106.8884926, -6.2296689], [106.8881466, -6.2296546], [106.8874486, -6.2295381], [106.8867789, -6.2294389], [106.8864143, -6.2293608], [106.8858195, -6.2291655], [106.8850212, -6.2289498], [106.8850937, -6.2287062], [106.8854695, -6.2288128]]]}}, {"type": "Feature", "properties": {"natural": "water", "water": "river", "osm_type": "way", "osm_id": 117092059}, "geometry": {"type": "Polygon", "coordinates": [[[106.8899732, -6.2299275], [106.8897941, -6.2299071], [106.8894233, -6.2298557], [106.8891022, -6.2297872], [106.888712, -6.2297344], [106.8884926, -6.2296689], [106.8885161, -6.2294162], [106.8889034, -6.2294816], [106.8889698, -6.2294918], [106.8889858, -6.2295145], [106.8891917, -6.2295496], [106.8892918, -6.2295883], [106.8894094, -6.2296079], [106.8897158, -6.2296391], [106.8898622, -6.2296668], [106.8900103, -6.2296748], [106.89002531429068, -6.229676784344849], [106.8900128203639, -6.229709615895836], [106.88999874754734, -6.229800766629564], [106.88999092392, -6.229851441006316], [106.88998030842808, -6.229951325489976], [106.8899732, -6.2299275]]]}}, {"type": "Feature", "properties": {"source": "Bing", "waterway": "stream", "osm_type": "way", "osm_id": 117943882}, "geometry": {"type": "LineString", "coordinates": [[106.8824521, -6.2167206], [106.8816994, -6.2167546], [106.8815787, -6.2168421], [106.8812772, -6.217163], [106.88067, -6.2170785], [106.880558, -6.2170805], [106.8803622, -6.2170584], [106.8801605, -6.217011], [106.8795468, -6.2169252], [106.8791414, -6.2168633], [106.8789063, -6.2168797], [106.8786361, -6.2168801], [106.8784339, -6.2168197], [106.8782327, -6.2166944], [106.8781053, -6.2167788], [106.8779547, -6.2169801], [106.8778327, -6.2169585], [106.8774817, -6.2174356], [106.8771881, -6.2179354], [106.8766531, -6.2181549], [106.8766034, -6.2182324], [106.8766244, -6.2187825], [106.8766576, -6.219296], [106.8766272, -6.2193373], [106.8764493, -6.2193453], [106.8763729, -6.2193833], [106.8763771, -6.21951], [106.8763814, -6.2198097], [106.8763499, -6.2199832], [106.8762698, -6.2200069], [106.876174, -6.220012], [106.8760636, -6.2200258], [106.8759273, -6.2200901], [106.8757572, -6.2200629], [106.8755873, -6.2200123], [106.8753647, -6.219888], [106.8752391, -6.2197717], [106.875133, -6.2196788], [106.8749971, -6.2195733], [106.8749334, -6.219358], [106.8749037, -6.2191554]]}}, {"type": "Feature", "properties": {"source": "Bing", "waterway": "stream", "osm_type": "way", "osm_id": 118664725}, "geometry": {"type": "LineString", "coordinates": [[106.883258, -6.2341871], [106.8831816, -6.2338743], [106.8831899, -6.2331891], [106.8831078, -6.2311576], [106.8830847, -6.2307579], [106.8830647, -6.2305407], [106.8829933, -6.230442], [106.8827154, -6.2302013], [106.8826241, -6.2301145], [106.8826082, -6.2300395], [106.8830647, -6.2289424], [106.8831919, -6.228678], [106.8832539, -6.2285148], [106.8832925, -6.2284133], [106.8833579, -6.2282506], [106.8834358, -6.2280561], [106.8835738, -6.2277117], [106.8880247, -6.2171512], [106.8881121, -6.2169821], [106.8882409, -6.2169288], [106.8884216, -6.2169592], [106.8888101, -6.2168847]]}}, {"type": "Feature", "properties": {"layer": "-1", "source": "Bing", "tunnel": "yes", "waterway": "stream", "osm_type": "way", "osm_id": 447489924}, "geometry": {"type": "LineString", "coordinates": [[106.86929902090435, -6.244777568447749], [106.8695222, -6.2443439]]}}, {"type": "Feature", "properties": {"source": "Bing", "waterway": "stream", "osm_type": "way", "osm_id": 447489942}, "geometry": {"type": "LineString", "coordinates": [[106.8703373, -6.2420664], [106.8703949, -6.2411822], [106.8703105, -6.240488], [106.8701585, -6.2400712], [106.870121, -6.2400006], [106.8701039, -6.2399526], [106.8700966, -6.239905], [106.8700758, -6.239785], [106.8700604, -6.2396737], [106.8700396, -6.2395864], [106.8700023, -6.2395239], [106.8699921, -6.2394428], [106.8699777, -6.2393279], [106.8699597, -6.239184], [106.8699398, -6.2390248], [106.869938, -6.2389347], [106.8699411, -6.2388141], [106.86996, -6.238611], [106.8699568, -6.2384906], [106.8699533, -6.2383579], [106.8699491, -6.2381989], [106.8699398, -6.2378461], [106.8699819, -6.2373957], [106.8699819, -6.2370317], [106.8699671, -6.2364478], [106.869941, -6.236176], [106.8699537, -6.2359345], [106.869943, -6.2358265]]}}, {"type": "Feature", "properties": {"natural": "water", "water": "river", "osm_type": "way", "osm_id": 473700098}, "geometry": {"type": "Polygon", "coordinates": [[[106.877123, -6.2316762], [106.8770774, -6.2317068], [106.8769138, -6.2317498], [106.8768957, -6.2316872], [106.8768816, -6.2316385], [106.8770204, -6.2316009], [106.8770425, -6.2315895], [106.8770961, -6.2313309], [106.8770915, -6.2312256], [106.8772088, -6.2312429], [106.8772155, -6.2313442], [106.8772139, -6.231369], [106.8772101, -6.2314269], [106.8771873, -6.2315535], [106.8771645, -6.2316242], [106.877123, -6.2316762]]]}}, {"type": "Feature", "properties": {"natural": "water", "water": "river", "osm_type": "way", "osm_id": 481930972}, "geometry": {"type": "Polygon", "coordinates": [[[106.8582113, -6.2131175], [106.858224, -6.2131396], [106.8582315, -6.2131528], [106.8582663, -6.2131602], [106.8583052, -6.2131402], [106.8583481, -6.2131848], [106.8584313, -6.2133341], [106.8584393, -6.2134595], [106.8583776, -6.2135928], [106.8583025, -6.2136995], [106.8581926, -6.2137421], [106.8580987, -6.2137794], [106.8579056, -6.2138194], [106.8577125, -6.2138141], [106.8576079, -6.2137928], [106.8575247, -6.2138114], [106.8574496, -6.2138834], [106.8573316, -6.2140274], [106.8572055, -6.2141847], [106.8571331, -6.2142967], [106.8570768, -6.2144061], [106.8570553, -6.2144861], [106.85696238560755, -6.214417185867557], [106.8569928089816, -6.214361035988092], [106.85713387995624, -6.214122752421278], [106.85714804241671, -6.214107137600824], [106.85734117596725, -6.213894200047461], [106.85748578079006, -6.213812429105343], [106.85760998271465, -6.213776650167516], [106.8576502723873, -6.213774001394873], [106.85773518202822, -6.213768419187968], [106.85784165222289, -6.213779272937297], [106.85792066734881, -6.213779046844295], [106.85798493958212, -6.213778862597934], [106.85803423311833, -6.213778721032186], [106.85807375101454, -6.2137662331874495], [106.85814134242129, -6.213744873649595], [106.85825160795785, -6.213677665318172], [106.85825629513796, -6.213674807984112], [106.85831504643694, -6.2135997788878585], [106.85833225397586, -6.213557242917957], [106.85830907056213, -6.213469687147446], [106.85828148603017, -6.213423509319896], [106.85825383242855, -6.213381076751372], [106.85822088756761, -6.213330527166757], [106.8581772628263, -6.213264062155519], [106.85817231057273, -6.213256518089934], [106.85809936289938, -6.213145377713119], [106.85813045329289, -6.213129090383585], [106.85820341824132, -6.213098877413308], [106.8582113, -6.2131175]]]}}, {"type": "Feature", "properties": {"boat": "no", "name": "Ci Liwung", "name:en": "Ciliwung River", "waterway": "river", "osm_type": "way", "osm_id": 482132398}, "geometry": {"type": "MultiLineString", "coordinates": [[[106.8625561, -6.242686], [106.8625451, -6.2425188], [106.8625642, -6.2415719], [106.8627382, -6.2403111], [106.8628606, -6.2397333], [106.8629277, -6.2394167], [106.86293907707157, -6.239363100438991]], [[106.86323699462966, -6.238413354804261], [106.86356288131945, -6.237531847556297]], [[106.86358009358545, -6.237499267103877], [106.8639818, -6.2371425], [106.86439129513191, -6.23689515102966]]]}}, {"type": "Feature", "properties": {"waterway": "river", "osm_type": "way", "osm_id": 482164495}, "geometry": {"type": "LineString", "coordinates": [[106.8667687, -6.2153062], [106.8667187, -6.2152115], [106.8666781, -6.2151529], [106.8665547, -6.2151389], [106.8663777, -6.2151235], [106.8661591, -6.2150382], [106.8660881, -6.2149959], [106.8660492, -6.2149462], [106.8659117, -6.2146976], [106.8657293, -6.2144696], [106.8656086, -6.2143516], [106.8652686, -6.2140173], [106.8652264, -6.2139903], [106.8649253, -6.2136793], [106.864358, -6.2131234], [106.8642373, -6.2129997], [106.8641018, -6.2128451]]}}, {"type": "Feature", "properties": {"boat": "no", "name": "Ci Liwung", "name:en": "Ciliwung River", "name:ja": "チリウン川", "waterway": "river", "osm_type": "way", "osm_id": 482170940}, "geometry": {"type": "MultiLineString", "coordinates": [[[106.86459557072891, -6.2290212714408035], [106.8648806, -6.2286509], [106.8648589134906, -6.228327064370824]], [[106.86478202136607, -6.22709980218208], [106.8647647, -6.2268034], [106.8646252, -6.2265367], [106.8643828, -6.2261936], [106.8638335, -6.225383], [106.86362300767017, -6.224819706681867]], [[106.86511901197217, -6.224415483845825], [106.8651404, -6.2244085], [106.8652838, -6.2243017], [106.86532609402165, -6.224204283895374]], [[106.86339249807673, -6.220777785457433], [106.8633572, -6.2206698], [106.86329497894648, -6.220445081771581]], [[106.86181270312923, -6.221279176430421], [106.8617631, -6.2214183], [106.8616082, -6.2215943], [106.8613343, -6.2216622], [106.8610247, -6.2217142], [106.8608892, -6.2216942], [106.8606042, -6.221613], [106.8603915, -6.2215406], [106.8602265, -6.2214287], [106.860159, -6.2212431], [106.8601805, -6.221026], [106.8603222, -6.2207396], [106.8605891, -6.2203232], [106.8606795, -6.2201444], [106.86094686822848, -6.2195496018495104]], [[106.86095717626976, -6.219532823254572], [106.8619624, -6.2182371], [106.86197570628265, -6.218210059454849]], [[106.86283247475848, -6.217211242739239], [106.8633404, -6.2168537], [106.8634882, -6.216626], [106.86349124792687, -6.216611326311844]], [[106.86339729630325, -6.216189640098868], [106.8633652, -6.2161615], [106.8632915, -6.2161195], [106.8632164, -6.2161031], [106.8631195, -6.2161111], [106.86309107041441, -6.216118967594721]], [[106.85997254384102, -6.2172649853326245], [106.85977706468076, -6.217113075078805]], [[106.8597200840524, -6.217058924030644], [106.85954850338021, -6.21688710938482]], [[106.85954385577803, -6.216882334154835], [106.8593939, -6.2166577], [106.8591193, -6.2164359], [106.8589461, -6.216334], [106.85885267458782, -6.216320224032909]], [[106.85819434349956, -6.21679695700169], [106.8580893, -6.2169137], [106.85805250603521, -6.217052705770706]], [[106.8579130202089, -6.217411432097706], [106.85790470837992, -6.217430334493388]], [[106.85737893017674, -6.217628997672615], [106.856989012094, -6.217367896851866]], [[106.85689978763591, -6.21727378200079], [106.8564878, -6.216703], [106.8562869, -6.2163505], [106.85631642823807, -6.216132138679516]], [[106.85697578904956, -6.21439244825456], [106.85715, -6.214147], [106.85741281032222, -6.213853692348066]], [[106.85832422319653, -6.213526913429811], [106.8583344, -6.2134894], [106.8583257, -6.2133453], [106.85813195708504, -6.213128467700658]]]}}, {"type": "Feature", "properties": {"waterway": "river", "osm_type": "way", "osm_id": 482389159}, "geometry": {"type": "LineString", "coordinates": [[106.8697313, -6.2306511], [106.8697763, -6.2299386], [106.8699265, -6.2292666], [106.870125, -6.2284481], [106.870241, -6.2279908], [106.8703268, -6.2274976], [106.8704234, -6.2271163], [106.8705575, -6.2266657], [106.8706218, -6.2263964], [106.8706487, -6.2260604], [106.8706648, -6.2258631], [106.8706299, -6.2257004], [106.870587, -6.2256098], [106.8705253, -6.2254924], [106.8704609, -6.2253591], [106.8704207, -6.2252551], [106.8703721, -6.2251101], [106.8702946, -6.2247962], [106.8702183, -6.2244687], [106.8701453, -6.224202], [106.8700834, -6.223967], [106.8699238, -6.2233737], [106.8697468, -6.2227604], [106.8695724, -6.2223005], [106.8695013, -6.2221072], [106.8694638, -6.2219578], [106.8692908, -6.2213819], [106.8691258, -6.2207926], [106.8688388, -6.2198087], [106.8687074, -6.2194248], [106.8684396, -6.2187821], [106.8683377, -6.2185875], [106.8682572, -6.2184315], [106.86795, -6.2178349], [106.8678132, -6.2175516], [106.8677569, -6.2174436], [106.8674565, -6.216769], [106.86727, -6.2162957], [106.8672244, -6.216201], [106.8670109, -6.2157623], [106.8669144, -6.2155383], [106.8667687, -6.2153062]]}}, {"type": "Feature", "properties": {"natural": "water", "water": "river", "osm_type": "way", "osm_id": 483368290}, "geometry": {"type": "Polygon", "coordinates": [[[106.8639203, -6.2401828], [106.8642073, -6.2403242], [106.8642528, -6.2403359], [106.8643743, -6.2403795], [106.8645969, -6.2404261], [106.864904, -6.2405341], [106.8651468, -6.2405941], [106.8652635, -6.2405808], [106.8654485, -6.2405781], [106.8656336, -6.2405621], [106.8659193, -6.2405421], [106.866162, -6.2405088], [106.8663511, -6.2405248], [106.8664959, -6.2405635], [106.8666891, -6.2405621], [106.8667816, -6.2405501], [106.8667776, -6.2406541], [106.8666072, -6.2406821], [106.8664396, -6.2406821], [106.8663565, -6.2406768], [106.8662586, -6.2406341], [106.8661486, -6.2406101], [106.8658911, -6.2406354], [106.8656242, -6.2406501], [106.8654915, -6.2406741], [106.8653386, -6.2406794], [106.8651884, -6.2406914], [106.8651119, -6.2406554], [106.8649362, -6.2406381], [106.8646881, -6.2405995], [106.864377, -6.2405115], [106.864153, -6.2404328], [106.8639452, -6.2403675], [106.8639203, -6.2401828]]]}}, {"type": "Feature", "properties": {"name": "Sodetan Ciliwung", "waterway": "drain", "osm_type": "way", "osm_id": 483385976}, "geometry": {"type": "LineString", "coordinates": [[106.8768957, -6.2316872], [106.8770371, -6.2316575], [106.8770975, -6.2316015], [106.8771914, -6.2311122]]}}, {"type": "Feature", "properties": {"natural": "water", "water": "river", "osm_type": "way", "osm_id": 483385983}, "geometry": {"type": "Polygon", "coordinates": [[[106.8773934, -6.2306563], [106.8773676, -6.2308863], [106.8773872, -6.2310874], [106.8774327, -6.2313357], [106.8775253, -6.2318015], [106.8773385, -6.2318122], [106.877306, -6.2317048], [106.8772584, -6.2316268], [106.8771645, -6.2316242], [106.8771873, -6.2315535], [106.8772101, -6.2314269], [106.8772139, -6.231369], [106.8772155, -6.2313442], [106.8772088, -6.2312429], [106.8770915, -6.2312256], [106.8770009, -6.2310429], [106.8769848, -6.2309323], [106.8769956, -6.2308243], [106.8770264, -6.230695], [106.8770868, -6.2305616], [106.877186, -6.230403], [106.8773222, -6.230228], [106.8775052, -6.2303737], [106.8773934, -6.2306563]]]}}, {"type": "Feature", "properties": {"waterway": "stream", "osm_type": "way", "osm_id": 485294456}, "geometry": {"type": "LineString", "coordinates": [[106.8641018, -6.2128451], [106.8637495, -6.2125141], [106.863663, -6.2124361], [106.8635355, -6.2123448], [106.8635107, -6.2123421], [106.8633713, -6.2122348], [106.8632325, -6.2121175], [106.863083, -6.2120059], [106.862796, -6.2117659], [106.862709, -6.2117412], [106.8625868, -6.2116539], [106.8624761238792, -6.211520450562097]]}}, {"type": "Feature", "properties": {"layer": "-1", "tunnel": "culvert", "waterway": "stream", "osm_type": "way", "osm_id": 485294460}, "geometry": {"type": "LineString", "coordinates": [[106.86056543605974, -6.212119939011233], [106.8607035, -6.2124204]]}}, {"type": "Feature", "properties": {"natural": "water", "water": "river", "osm_type": "way", "osm_id": 486024635}, "geometry": {"type": "Polygon", "coordinates": [[[106.8570553, -6.2144861], [106.8568394, -6.2149341], [106.85671449072164, -6.214890340932549], [106.85677513486445, -6.214769830677373], [106.85682494742849, -6.214670845735913], [106.85683588558906, -6.214650655448176], [106.85691733521394, -6.214500331614816], [106.85696238560755, -6.214417185867557], [106.8570553, -6.2144861]]]}}, {"type": "Feature", "properties": {"waterway": "river", "osm_type": "way", "osm_id": 497080882}, "geometry": {"type": "LineString", "coordinates": [[106.869783, -6.2334195], [106.8697387, -6.2328076], [106.8697226, -6.2324516], [106.8697025, -6.2318837], [106.8697012, -6.2316304], [106.869724, -6.2310398], [106.8697313, -6.2306511]]}}, {"type": "Feature", "properties": {"natural": "water", "water": "canal", "osm_type": "way", "osm_id": 502323629}, "geometry": {"type": "Polygon", "coordinates": [[[106.8907397, -6.239456], [106.8907465, -6.2393677], [106.8913769, -6.2394115], [106.8918517, -6.2394435], [106.89216660469152, -6.239461466260478], [106.89216377844147, -6.23952099362627], [106.8920405992638, -6.239515684977226], [106.89160733723928, -6.239497017658467], [106.89154676198442, -6.239494407094703], [106.89148712110108, -6.239491836566397], [106.89143337111821, -6.239489522443717], [106.89135896911031, -6.239486315059255], [106.89107208230551, -6.239480595042588], [106.89101952225823, -6.239479546920054], [106.89073864432387, -6.239473946494174], [106.8907397, -6.239456]]]}}, {"type": "Feature", "properties": {"source": "Bing", "waterway": "stream", "osm_type": "way", "osm_id": 723967066}, "geometry": {"type": "LineString", "coordinates": [[106.8702683, -6.2423275], [106.8703373, -6.2420664]]}}, {"type": "Feature", "properties": {"source": "Bing", "waterway": "stream", "osm_type": "way", "osm_id": 723967067}, "geometry": {"type": "LineString", "coordinates": [[106.8696831, -6.2440148], [106.8701763, -6.2425944], [106.8702683, -6.2423275]]}}, {"type": "Feature", "properties": {"source": "Bing", "waterway": "stream", "osm_type": "way", "osm_id": 723967068}, "geometry": {"type": "LineString", "coordinates": [[106.8695222, -6.2443439], [106.8696831, -6.2440148]]}}, {"type": "Feature", "properties": {"name": "Kali Malang", "note": "Saluran Irigasi Tarum Barat", "source": "Bing", "waterway": "canal", "osm_type": "way", "osm_id": 754943890}, "geometry": {"type": "LineString", "coordinates": [[106.8809678, -6.2398754], [106.8804812, -6.2398929]]}}, {"type": "Feature", "properties": {"name": "Kali Malang", "note": "Saluran Irigasi Tarum Barat", "source": "Bing", "waterway": "canal", "osm_type": "way", "osm_id": 754943891}, "geometry": {"type": "MultiLineString", "coordinates": [[[106.8804812, -6.2398929], [106.8793875, -6.2399596], [106.8788492, -6.2399721], [106.87882254743262, -6.239973405127469]], [[106.87841204327788, -6.2399935067649865], [106.8782774, -6.2400001]]]}}, {"type": "Feature", "properties": {"name": "Kali Malang", "note": "Saluran Irigasi Tarum Barat", "source": "Bing", "waterway": "canal", "osm_type": "way", "osm_id": 754943892}, "geometry": {"type": "LineString", "coordinates": [[106.89137296642991, -6.239486918467505], [106.8907397, -6.239456], [106.8899422, -6.2394402]]}}, {"type": "Feature", "properties": {"name": "Kali Malang", "note": "Saluran Irigasi Tarum Barat", "source": "Bing", "waterway": "canal", "osm_type": "way", "osm_id": 754943893}, "geometry": {"type": "MultiLineString", "coordinates": [[[106.8899422, -6.2394402], [106.8896078813302, -6.239460648722157]], [[106.8872237450322, -6.239569665708334], [106.8856898, -6.2396167], [106.8852365, -6.2396537], [106.8841909, -6.2397154], [106.8835535, -6.2397448], [106.8809678, -6.2398754]]]}}, {"type": "Feature", "properties": {"name": "Sodetan Ciliwung", "waterway": "drain", "osm_type": "way", "osm_id": 976211743}, "geometry": {"type": "LineString", "coordinates": [[106.8654761, -6.2327587], [106.8662895, -6.2322055], [106.8664102, -6.2321468], [106.8665108, -6.2321095]]}}, {"type": "Feature", "properties": {"waterway": "stream", "osm_type": "way", "osm_id": 1145008000}, "geometry": {"type": "LineString", "coordinates": [[106.8607035, -6.2124204], [106.8583257, -6.2133453]]}}, {"type": "Feature", "properties": {"waterway": "weir", "osm_type": "way", "osm_id": 1230869491}, "geometry": {"type": "LineString", "coordinates": [[106.8772139, -6.231369], [106.8772845, -6.2313583], [106.8774327, -6.2313357]]}}, {"type": "Feature", "properties": {"layer": "-1", "name": "Sodetan Ciliwung", "tunnel": "culvert", "waterway": "drain", "osm_type": "way", "osm_id": 1230869494}, "geometry": {"type": "LineString", "coordinates": [[106.8665108, -6.2321095], [106.866897, -6.2319721], [106.8670768, -6.2319295], [106.8723902, -6.2316668], [106.8768957, -6.2316872]]}}, {"type": "Feature", "properties": {"alt_name": "Banjir Kanal Timur", "name": "Kanal Banjir Timur", "name:en": "East Flood Canal", "waterway": "river", "width": "6", "osm_type": "way", "osm_id": 1324962039}, "geometry": {"type": "LineString", "coordinates": [[106.8789614, -6.2288286], [106.8793285, -6.2285949], [106.8797636, -6.2284452], [106.8803631, -6.2283451], [106.8812227, -6.2283172], [106.8827248, -6.2283599], [106.8832925, -6.2284133], [106.8835693, -6.228485], [106.8843287, -6.2286746], [106.8854606, -6.2289732], [106.8874133, -6.2294265], [106.8896181, -6.229757], [106.89000105240953, -6.229785837856845]]}}, {"type": "Feature", "properties": {"name": "Cipinang", "waterway": "river", "osm_type": "way", "osm_id": 1326437649}, "geometry": {"type": "LineString", "coordinates": [[106.8923701, -6.2135477], [106.892425, -6.213218], [106.89244445146203, -6.213152678280973]]}}, {"type": "Feature", "properties": {"layer": "-1", "tunnel": "culvert", "waterway": "river", "osm_type": "way", "osm_id": 1326462278}, "geometry": {"type": "LineString", "coordinates": [[106.86255398454551, -6.243104754217613], [106.8625561, -6.242686]]}}, {"type": "Feature", "properties": {"alt_name": "Banjir Kanal Timur", "name": "Kanal Banjir Timur", "name:en": "East Flood Canal", "waterway": "river", "osm_type": "way", "osm_id": 1329316427}, "geometry": {"type": "LineString", "coordinates": [[106.8783497, -6.2291318], [106.8785608, -6.2289972]]}}, {"type": "Feature", "properties": {"layer": "-1", "tunnel": "culvert", "waterway": "river", "osm_type": "way", "osm_id": 1329316428}, "geometry": {"type": "LineString", "coordinates": [[106.8789614, -6.2288286], [106.8785608, -6.2289972]]}}, {"type": "Feature", "properties": {"natural": "water", "water": "river", "osm_type": "way", "osm_id": 1337936402}, "geometry": {"type": "Polygon", "coordinates": [[[106.8902021, -6.2312912], [106.8900653, -6.2312262], [106.8900055, -6.2310887], [106.8899898, -6.2308663], [106.8899699, -6.2305843], [106.8899764, -6.230515], [106.88998049899384, -6.230337087902192], [106.890011389064, -6.230427105416176], [106.89001619792359, -6.230441118635503], [106.89001682913177, -6.230443297160427], [106.89002080760034, -6.230457035784488], [106.89004129179837, -6.230527765619138], [106.8900443097684, -6.23054148056081], [106.89004507758392, -6.230544971408123], [106.89006067628772, -6.230615868836907], [106.89006475373891, -6.230642621304253], [106.89007082134688, -6.2306824323736105], [106.8900713172765, -6.230685689118697], [106.8900742678164, -6.230705049754888], [106.89008040837535, -6.230776349969075], [106.89008200810652, -6.230794929748339], [106.89008046943316, -6.230815371551992], [106.89007873740131, -6.230838334792516], [106.89007715039827, -6.230859409667815], [106.89005705796848, -6.2309208683062804], [106.89003838256858, -6.230950870432732], [106.89002852517758, -6.2309667047158745], [106.8900250019228, -6.230972364605912], [106.89001323344414, -6.231030807034201], [106.89001096583915, -6.231043729001574], [106.89002042257022, -6.231112092436286], [106.89003965279677, -6.231152034441626], [106.89005035658745, -6.2311742668656125], [106.89009784158279, -6.231224225827305], [106.89009788783204, -6.231224273580977], [106.89012987001776, -6.231230391181022], [106.89017728725695, -6.2312394588130395], [106.89019942511726, -6.231248148714773], [106.8902239559047, -6.231257778014331], [106.8902021, -6.2312912]]]}}, {"type": "Feature", "properties": {"natural": "water", "water": "river", "osm_type": "way", "osm_id": 1349129516}, "geometry": {"type": "Polygon", "coordinates": [[[106.8775109, -6.2319408], [106.877538, -6.2320375], [106.8777291, -6.2325174], [106.8776834, -6.2326847], [106.8777737, -6.2330204], [106.8779221, -6.2335508], [106.8780813, -6.2342393], [106.8782276, -6.2347483], [106.8783739, -6.235238], [106.8784922, -6.2360677], [106.8785933, -6.236566], [106.8784814, -6.2365788], [106.8783158, -6.2355759], [106.8782706, -6.2352829], [106.8781975, -6.2350541], [106.878105, -6.2347162], [106.8780491, -6.2344297], [106.8778834, -6.2338031], [106.8777092, -6.2332385], [106.8775242, -6.2326163], [106.8774059, -6.2322164], [106.8773385, -6.2318122], [106.8775253, -6.2318015], [106.8775109, -6.2319408]]]}}, {"type": "Feature", "properties": {"natural": "water", "water": "river", "osm_type": "way", "osm_id": 1349129517}, "geometry": {"type": "Polygon", "coordinates": [[[106.8786729, -6.2370407], [106.8787267, -6.2374107], [106.8788339, -6.2377162], [106.8787135, -6.2377425], [106.878652, -6.237336], [106.8785374, -6.2368461], [106.8784814, -6.2365788], [106.8785933, -6.236566], [106.8786729, -6.2370407]]]}}], "crs": {"type": "name", "properties": {"name": "EPSG:4326"}}}