{"type": "FeatureCollection", "features": [{"type": "Feature", "properties": {"osm_id": 28775376, "waterway": "river", "name": "Cipinang", "width": "", "tunnel": "", "covered": ""}, "geometry": {"type": "LineString", "coordinates": [[106.8791118, -6.2466363], [106.8791828, -6.2466936], [106.8792392, -6.2467016], [106.879287, -6.2466777], [106.8795096, -6.2465604], [106.8796839, -6.2464404], [106.8797394, -6.2463342], [106.8797966, -6.2462245], [106.8798636, -6.2460032], [106.8798985, -6.2457925], [106.8798086, -6.2456205], [106.8795458, -6.2454392], [106.8795052, -6.2453366], [106.8795009, -6.2451396], [106.8795007, -6.2451318], [106.8795112, -6.2448575], [106.8794498, -6.2446199], [106.8793425, -6.2444532], [106.8792636, -6.2443684], [106.8791601, -6.2442572], [106.8791325, -6.244211], [106.8790676, -6.2441026], [106.8790904, -6.2440026], [106.8791701, -6.2438645], [106.8792974, -6.2436937], [106.879445, -6.2428688], [106.8794144, -6.2427373], [106.8793584, -6.2425855], [106.8793432, -6.242378], [106.8793764, -6.242199], [106.8794501, -6.2418011], [106.879221, -6.2413254], [106.8789156, -6.2411382], [106.8788492, -6.2399721], [106.8788491, -6.2399112], [106.8788284, -6.2379376], [106.8785929, -6.23693], [106.8785307, -6.2364166], [106.8782094, -6.2347909], [106.8774648, -6.2321989], [106.8773245, -6.2314502], [106.8772845, -6.2313583], [106.8772285, -6.2312295], [106.8771914, -6.2311122], [106.8771711, -6.2309382], [106.8771724, -6.2307602], [106.8772816, -6.2304997], [106.877767, -6.229848], [106.8781078, -6.2294689], [106.8783497, -6.2291318], [106.8780963, -6.2290493], [106.8778263, -6.2290346], [106.8776775, -6.2289498], [106.877342, -6.2287328], [106.8771176, -6.2287845], [106.8770291, -6.2287618], [106.8769176, -6.2287221], [106.8768454, -6.2286832], [106.8767823, -6.2286272], [106.8767661, -6.2285506], [106.8767877, -6.2284192], [106.8768239, -6.2283166], [106.8768587, -6.2282755], [106.877013, -6.2282166], [106.8772085, -6.2281594], [106.8773805, -6.2281659], [106.8774707, -6.2281533], [106.8775401, -6.2281152], [106.8775744, -6.2280772], [106.8774921, -6.2280126], [106.8773923, -6.2279207], [106.8773085, -6.2278355], [106.8772401, -6.2277745], [106.8771642, -6.2276916], [106.8770537, -6.2275638], [106.8770015, -6.2275383], [106.8769471, -6.2275459], [106.8768591, -6.2275923], [106.8768151, -6.2277342], [106.8766968, -6.2277998], [106.8766046, -6.227788], [106.8765525, -6.227663], [106.8765219, -6.227179], [106.8764251, -6.2268316], [106.8763511, -6.2264234], [106.8763656, -6.2260474], [106.8764774, -6.2254339], [106.8765823, -6.2252704], [106.8767685, -6.2251835], [106.8769683, -6.2251118], [106.877184, -6.22494], [106.8772638, -6.2247556], [106.8772871, -6.2247072], [106.8773081, -6.2246635], [106.8773589, -6.2245572], [106.877419, -6.224432], [106.87738, -6.2242401], [106.8773521, -6.224038], [106.8774765, -6.2235589], [106.8778324, -6.2233909], [106.878032, -6.2232578], [106.878168, -6.223137], [106.8782389, -6.2230204], [106.8783298, -6.2228708], [106.8783349, -6.222866], [106.8784104, -6.2227955], [106.8785727, -6.2227798], [106.8787175, -6.2228265], [106.8788168, -6.2228984], [106.8789439, -6.223052], [106.879118, -6.223341], [106.87923, -6.2233531], [106.8793392, -6.2233649], [106.8794723, -6.2233793], [106.8796105, -6.2233943], [106.8797682, -6.2233866], [106.8797849, -6.2232465], [106.8797721, -6.223094], [106.8797637, -6.2229946], [106.8797894, -6.222908], [106.8799845, -6.2227808], [106.8801115, -6.222698], [106.8803284, -6.2225072], [106.8804376, -6.2224112], [106.880533, -6.2223666], [106.8807025, -6.2222875], [106.8807823, -6.2222503], [106.8808842, -6.2222027], [106.8809121, -6.2220846], [106.8809572, -6.2218937], [106.880988, -6.2217633], [106.8810106, -6.2215645], [106.8810191, -6.2214595], [106.8810155, -6.221306], [106.8810144, -6.2212584], [106.8809704, -6.2209644], [106.8810117, -6.2208226], [106.8811397, -6.2205826], [106.8818389, -6.2207191], [106.8820213, -6.2205165], [106.882042, -6.2201064], [106.8821413, -6.2200498], [106.8822539, -6.2200024], [106.8823491, -6.2199751], [106.8824591, -6.2200231], [106.8829848, -6.2199338], [106.8832765, -6.219915], [106.8834341, -6.2199004], [106.8835514, -6.2199715], [106.8837238, -6.2201195], [106.8837789, -6.2201094], [106.8838078, -6.2200763], [106.8838017, -6.2198241], [106.8838365, -6.2197001], [106.8839156, -6.2196401], [106.8840538, -6.2196428], [106.8842429, -6.2196868], [106.884444, -6.2198054], [106.8845272, -6.2199721], [106.8846235, -6.2201001], [106.8847702, -6.2202163], [106.885327, -6.2201406], [106.885374, -6.2196908], [106.8857524, -6.2192095], [106.8856486, -6.2189852], [106.8855789, -6.2187951], [106.8856395, -6.2185258], [106.8856014, -6.2184029], [106.8855679, -6.2183269], [106.8855451, -6.2181602], [106.8856301, -6.2180997], [106.8857929, -6.2179674], [106.8858935, -6.2178987], [106.8860198, -6.2178467], [106.8861389, -6.2178331], [106.8864361, -6.2177645], [106.8873381, -6.2176091], [106.8876922, -6.2173638], [106.8878853, -6.2170118], [106.8880248, -6.2169051], [106.8886135, -6.2168464], [106.8888101, -6.2168847], [106.8891942, -6.2170545], [106.8895054, -6.2170545], [106.8900096, -6.2171718], [106.8902242, -6.2171931], [106.8904066, -6.2171185], [106.8907178, -6.2169318], [106.8910021, -6.2167238], [106.891175, -6.2165732], [106.8914869, -6.2161057], [106.8917498, -6.2156021], [106.8919765, -6.2152981], [106.892136, -6.2152098], [106.8923854, -6.2151794], [106.8924813, -6.2151312], [106.8925303, -6.2149688], [106.8924054, -6.2141155], [106.89237, -6.2137913], [106.8923701, -6.2135477]]}}, {"type": "Feature", "properties": {"osm_id": 28809562, "waterway": "river", "name": "Sunter", "width": "", "tunnel": "", "covered": ""}, "geometry": {"type": "LineString", "coordinates": [[106.8961649, -6.2160814], [106.896082, -6.215764], [106.8959569, -6.2155353], [106.8958382, -6.2146087], [106.8957569, -6.2136182]]}}, {"type": "Feature", "properties": {"osm_id": 29093299, "waterway": "stream", "name": "", "width": "", "tunnel": "", "covered": ""}, "geometry": {"type": "LineString", "coordinates": [[106.852034, -6.223712], [106.8520342, -6.2235903], [106.8520611, -6.2233036], [106.8521794, -6.2228329], [106.8522916, -6.2223086], [106.8523193, -6.2219016], [106.8525179, -6.2211532], [106.8525244, -6.2211285], [106.8525617, -6.2209733], [106.8525756, -6.2207851], [106.8524994, -6.2201234], [106.8524907, -6.2197872], [106.8526312, -6.219249], [106.8526744, -6.2190144], [106.8526874, -6.2188121], [106.8527118, -6.2186367], [106.8520419, -6.218611], [106.851884, -6.2185668], [106.8511203, -6.2183949], [106.8503726, -6.2183242], [106.8496926, -6.2182361], [106.8494439, -6.2181869], [106.8492339, -6.2181082], [106.8491556, -6.2180216], [106.8490394, -6.2179282], [106.8485514, -6.2175364], [106.8483938, -6.2173914], [106.8482785, -6.2173216], [106.8482348, -6.2172483], [106.8483032, -6.217011], [106.8484159, -6.2167896], [106.8485628, -6.2166097], [106.848719, -6.216423], [106.8487297, -6.2159644], [106.8487726, -6.2121567], [106.8487941, -6.2115594], [106.8488477, -6.2111701], [106.8489335, -6.2108234], [106.848946, -6.2106871]]}}, {"type": "Feature", "properties": {"osm_id": 29497176, "waterway": "stream", "name": "", "width": "", "tunnel": "", "covered": ""}, "geometry": {"type": "LineString", "coordinates": [[106.8828045, -6.2022499], [106.8834236, -6.2022714], [106.8840534, -6.202217], [106.8854625, -6.2020257], [106.8867841, -6.2019322], [106.8875177, -6.2019117], [106.8884015, -6.2019375], [106.8891513, -6.2020054], [106.8906641, -6.2021441], [106.8925416, -6.2022294], [106.8948537, -6.2024107], [106.8969619, -6.202544], [106.8975573, -6.2025974], [106.8977368, -6.2025957]]}}, {"type": "Feature", "properties": {"osm_id": 29783028, "waterway": "river", "name": "Kali Utan Kayu", "width": "", "tunnel": "", "covered": ""}, "geometry": {"type": "LineString", "coordinates": [[106.8697453, -6.2117508], [106.8696924, -6.2117678], [106.8696206, -6.2117931], [106.869577, -6.2118044], [106.8694818, -6.2118298], [106.8693262, -6.2118731], [106.8692136, -6.2118898], [106.8691278, -6.2119004], [106.8690211, -6.2119058], [106.8688682, -6.2119031], [106.8687368, -6.2118988], [106.8686439, -6.2118934], [106.8685903, -6.2118868], [106.8685554, -6.2118808], [106.868486, -6.2118881], [106.8683523, -6.2118964], [106.8682393, -6.2119058], [106.8681769, -6.2119094], [106.8681551, -6.2119041], [106.868133, -6.2119108], [106.8681005, -6.2119288], [106.8680666, -6.2119384], [106.8680525, -6.2119394], [106.8680341, -6.2119376], [106.8680046, -6.2119463], [106.867957, -6.2119436], [106.8678832, -6.2119456], [106.8678007, -6.2119116], [106.8677042, -6.2118576], [106.867552, -6.2117429], [106.8674614, -6.2116729], [106.8673468, -6.2115829], [106.8671811, -6.2114836], [106.8671241, -6.211433], [106.867035, -6.2113916], [106.8669961, -6.211383], [106.8669478, -6.211389], [106.8668861, -6.2113543], [106.8668794, -6.2112756], [106.8668774, -6.2111763], [106.8668618, -6.2111409], [106.8668367, -6.2110539], [106.8667948, -6.2108961], [106.8667792, -6.2107783], [106.8667542, -6.2106714], [106.8667138, -6.2104884], [106.8667074, -6.2104601], [106.86665, -6.2102374], [106.8665546, -6.2099194], [106.8665273, -6.2098378], [106.86641, -6.2094533], [106.8663745, -6.2093456], [106.866345, -6.209241], [106.866328, -6.2091868], [106.8663443, -6.2091576], [106.8663639, -6.2091356], [106.8664372, -6.209118]]}}, {"type": "Feature", "properties": {"osm_id": 29969754, "waterway": "stream", "name": "", "width": "", "tunnel": "", "covered": ""}, "geometry": {"type": "LineString", "coordinates": [[106.8692136, -6.2118898], [106.8692321, -6.2117719], [106.869212, -6.2116954], [106.869218, -6.2116351], [106.8692522, -6.2115565], [106.8693072, -6.2114155], [106.8694403, -6.2111555], [106.8695115, -6.2110148], [106.8697154, -6.2107055], [106.8698978, -6.2105242], [106.8700909, -6.2101829], [106.8703698, -6.2097242], [106.8704664, -6.2096283], [106.87052, -6.2095109], [106.8709385, -6.2089243], [106.871611, -6.2079537], [106.8712067, -6.2077404], [106.871199, -6.2076744], [106.8714802, -6.2071984]]}}, {"type": "Feature", "properties": {"osm_id": 31474198, "waterway": "stream", "name": "", "width": "", "tunnel": "", "covered": ""}, "geometry": {"type": "LineString", "coordinates": [[106.8529341, -6.2146252], [106.8527759, -6.2148632], [106.8526404, -6.2153311], [106.8526136, -6.2156297], [106.8525919, -6.2158181], [106.8525803, -6.21593], [106.852588, -6.2161061], [106.8525922, -6.2162163], [106.8526619, -6.2165576], [106.8526746, -6.2166131], [106.8527613, -6.2174911], [106.8527799, -6.2176562], [106.8527531, -6.2180348], [106.8527263, -6.2185201], [106.8527118, -6.2186367]]}}, {"type": "Feature", "properties": {"osm_id": 31610697, "waterway": "stream", "name": "", "width": "", "tunnel": "", "covered": ""}, "geometry": {"type": "LineString", "coordinates": [[106.86762, -6.2408483], [106.86759, -6.2405801], [106.8671105, -6.240528], [106.8667495, -6.240615], [106.8666194, -6.2406307], [106.8663954, -6.2406577], [106.8662189, -6.2405652], [106.8652153, -6.2406417], [106.8649041, -6.2405723], [106.8645406, -6.2404982], [106.8640536, -6.2403195], [106.8632412, -6.2401351], [106.862986, -6.2395761], [106.8629277, -6.2394167]]}}, {"type": "Feature", "properties": {"osm_id": 56676576, "waterway": "river", "name": "Ci Liwung", "width": "", "tunnel": "", "covered": ""}, "geometry": {"type": "LineString", "coordinates": [[106.8666086, -6.2392461], [106.8667334, -6.2392301], [106.866778, -6.2391946], [106.8668442, -6.2390948], [106.8669386, -6.2388828], [106.8669749, -6.2385155], [106.8669102, -6.2382492], [106.8667901, -6.237887], [106.8665805, -6.2373329], [106.8664828, -6.2369199], [106.8662024, -6.2363727], [106.8653779, -6.2355888], [106.86524, -6.2353221], [106.8652508, -6.2349977], [106.865461, -6.2348593], [106.8659851, -6.2348105], [106.8662458, -6.2347111], [106.8663625, -6.2345085], [106.8662871, -6.2341593], [106.8662082, -6.2339525], [106.8656874, -6.2330451], [106.8654761, -6.2327587], [106.8650265, -6.2321492], [106.8644257, -6.2317653], [106.8637648, -6.231424], [106.8634695, -6.2312249], [106.8633353, -6.2309556], [106.863327, -6.2307709], [106.8638163, -6.2298711], [106.8644187, -6.2292511]]}}, {"type": "Feature", "properties": {"osm_id": 95226493, "waterway": "river", "name": "Ci Liwung", "width": "", "tunnel": "", "covered": ""}, "geometry": {"type": "LineString", "coordinates": [[106.8654593, -6.2369956], [106.8655217, -6.2373005], [106.8656015, -6.2377034], [106.8661869, -6.2389035], [106.8663847, -6.2391042], [106.8666086, -6.2392461]]}}, {"type": "Feature", "properties": {"osm_id": 97948225, "waterway": "river", "name": "", "width": "", "tunnel": "", "covered": ""}, "geometry": {"type": "LineString", "coordinates": [[106.8920173, -6.2395089], [106.8921011, -6.2390785], [106.8923592, -6.2384865], [106.8926966, -6.2382892], [106.8927959, -6.2380426], [106.8928058, -6.2378058], [106.8926867, -6.2376676], [106.8924783, -6.2376084], [106.8922513, -6.2374632], [106.8922637, -6.2372554], [106.8922897, -6.2370855], [106.892379, -6.2369573], [106.8924981, -6.2368882], [106.8927058, -6.236764], [106.8928554, -6.236612], [106.8930142, -6.2364048], [106.8930341, -6.236168], [106.8929844, -6.2359509], [106.8928455, -6.235724], [106.8929944, -6.2355563], [106.8930341, -6.2353984], [106.892905, -6.2352603], [106.8927462, -6.2351814], [106.8925874, -6.2351814], [106.8924187, -6.2353294], [106.892379, -6.2355168], [106.89225, -6.2357043], [106.892111, -6.2357536], [106.8920217, -6.2355859], [106.891982, -6.23528], [106.8919125, -6.2351419], [106.8919026, -6.2349051], [106.8920912, -6.2346782], [106.8920515, -6.2344118], [106.891525, -6.2325366], [106.8913456, -6.2323028], [106.8909399, -6.2319749], [106.8907949, -6.2318456], [106.8906521, -6.2317184], [106.8904834, -6.2314224], [106.89035, -6.2313243], [106.8902551, -6.2312546], [106.8902156, -6.2312363], [106.8901436, -6.2312028], [106.8900916, -6.2311786], [106.8900483, -6.2310819], [106.8900635, -6.2309052], [106.8900614, -6.2307723], [106.8900542, -6.2306238], [106.8900467, -6.2305929], [106.8900352, -6.230485], [106.8900242, -6.2303586], [106.8900359, -6.2302303], [106.8900517, -6.2301715], [106.8900601, -6.2301149], [106.8900698, -6.2299328], [106.8900457, -6.2297892], [106.8900333, -6.229628], [106.8901203, -6.2294673], [106.8902543, -6.2292766], [106.8903384, -6.2291204], [106.8903951, -6.2290638], [106.8904978, -6.2290377], [106.8907151, -6.228907], [106.8907875, -6.2287737], [106.8909136, -6.2287044], [106.8915117, -6.2285657], [106.8917316, -6.2284991], [106.8917531, -6.2284031], [106.8917209, -6.2283071], [106.891635, -6.2282538], [106.8915492, -6.2281844], [106.8914312, -6.2280511], [106.8913615, -6.2279765], [106.8913293, -6.2278645], [106.8913615, -6.2277632], [106.8914151, -6.2276618], [106.8914044, -6.2275925], [106.8914097, -6.2274539], [106.8914205, -6.2273205], [106.8915117, -6.2272672], [106.8916189, -6.2272139], [106.891678, -6.2271819], [106.8917209, -6.2271126], [106.8919086, -6.2268353], [106.8920427, -6.2267393], [106.89215, -6.2266966], [106.8923056, -6.2266913], [106.8924236, -6.2266913], [106.8926275, -6.2266699], [106.8927602, -6.2265713], [106.8928367, -6.2265206], [106.8928635, -6.2264246], [106.8928903, -6.2263233], [106.892944, -6.2261847], [106.8929815, -6.226062], [106.8929815, -6.2259074], [106.8929976, -6.225758], [106.893062, -6.2256887], [106.8930888, -6.2256034], [106.8931424, -6.2255287], [106.8931746, -6.2254487], [106.8933087, -6.2253421], [106.8934214, -6.2252994], [106.8934769, -6.2252026], [106.8934482, -6.2251128], [106.8933785, -6.2250168], [106.8932926, -6.2249475], [106.8932926, -6.2248408], [106.8933356, -6.2247235], [106.8933677, -6.2246488], [106.8934212, -6.2245902], [106.8934641, -6.2245049], [106.8934588, -6.2243876], [106.8934427, -6.2242969], [106.8934266, -6.2240249], [106.8934588, -6.2239183], [106.8935768, -6.2235397], [106.8936304, -6.2234117], [106.8936573, -6.2232784], [106.8936465, -6.2232197], [106.8935822, -6.2229584], [106.8936465, -6.2228037], [106.8936948, -6.2226384], [106.8938021, -6.2225318], [106.8940274, -6.2222278], [106.8941615, -6.2220891], [106.8942259, -6.2220518], [106.8945169, -6.2218158], [106.8948119, -6.2216225], [106.8950427, -6.2215586], [106.8952612, -6.2214652], [106.8954061, -6.2213639], [106.8955133, -6.2213692], [106.8956568, -6.2213572], [106.895689, -6.2213278], [106.8957025, -6.2212559], [106.8957306, -6.2211879], [106.8958138, -6.2208946], [106.8959385, -6.2205986], [106.8960022, -6.2204335], [106.8961302, -6.219948], [106.8961691, -6.2197494], [106.8961906, -6.2195814], [106.8961356, -6.2194668], [106.8960565, -6.2193827], [106.8959908, -6.2192694], [106.895964, -6.2191561], [106.895964, -6.2190228], [106.8959532, -6.2188788], [106.8959036, -6.2188128], [106.8958682, -6.2187831], [106.8957648, -6.2187134], [106.8955181, -6.2185731], [106.8951552, -6.2184415], [106.895115, -6.2183615], [106.8950449, -6.2182242], [106.895029, -6.2179772], [106.8950473, -6.2179135], [106.8950788, -6.2177202], [106.8951432, -6.2176256], [106.89517, -6.2175296], [106.8951915, -6.2174282], [106.8951968, -6.2173376], [106.8952076, -6.2172309], [106.8952398, -6.2171669], [106.8952827, -6.2170763], [106.8953363, -6.2169909], [106.8954061, -6.2169643], [106.8955294, -6.2169483], [106.8956099, -6.2169323], [106.8957386, -6.2169856], [106.8958084, -6.2170016], [106.8959049, -6.2169963], [106.8959425, -6.2169216], [106.8959264, -6.2168523], [106.8959157, -6.2166816], [106.8960406, -6.2165593]]}}, {"type": "Feature", "properties": {"osm_id": 98074310, "waterway": "canal", "name": "Kali Malang", "width": "", "tunnel": "", "covered": ""}, "geometry": {"type": "LineString", "coordinates": [[106.9014508, -6.2447968], [106.9001014, -6.2443495], [106.8991117, -6.243994], [106.8987285, -6.2437718], [106.8983007, -6.2434545], [106.8973493, -6.2426547], [106.8963532, -6.2418549], [106.8957275, -6.2413154], [106.8946739, -6.2404014], [106.8938885, -6.2398682], [106.8932819, -6.2396397], [106.8926945, -6.2395381], [106.8922156, -6.2395191], [106.8920173, -6.2395089], [106.8916409, -6.2395]]}}, {"type": "Feature", "properties": {"osm_id": 98419937, "waterway": "stream", "name": "", "width": "", "tunnel": "", "covered": ""}, "geometry": {"type": "LineString", "coordinates": [[106.8651204, -6.2618124], [106.8650802, -6.2614461], [106.8650547, -6.2612032], [106.8650656, -6.2606121], [106.8650584, -6.2603402], [106.8650178, -6.2598454], [106.8649708, -6.259285], [106.8649875, -6.2587053], [106.8649991, -6.2585416], [106.8649745, -6.2583712], [106.8649411, -6.2581072], [106.864921, -6.2579051], [106.8648806, -6.2577638], [106.8648157, -6.2575439], [106.8648414, -6.2573148], [106.8648511, -6.2570728], [106.8649947, -6.2558423], [106.8650165, -6.2555329], [106.8650359, -6.2553342], [106.8650568, -6.2552434], [106.8650869, -6.2551233], [106.8651067, -6.254997], [106.8651436, -6.254789], [106.8651958, -6.2545803], [106.8652352, -6.2544468], [106.8653294, -6.2539247], [106.8655395, -6.2534049], [106.8656247, -6.252694], [106.8655821, -6.2525755], [106.8656247, -6.2522624], [106.8658375, -6.2518308], [106.8662036, -6.251103], [106.866425, -6.2507983], [106.8667229, -6.2504852], [106.8672678, -6.2499351], [106.8674977, -6.2495881], [106.8675658, -6.2492834], [106.8676594, -6.2490041], [106.8677197, -6.2489338], [106.8677871, -6.248801], [106.8678808, -6.2484202], [106.8680022, -6.2479953], [106.8681277, -6.2475823], [106.8681647, -6.2474564], [106.8682469, -6.2471761], [106.8683235, -6.246973], [106.868336, -6.2467861], [106.868349, -6.2465921], [106.8684512, -6.2462959], [106.8686271, -6.2459325], [106.8689962, -6.2453713], [106.8690491, -6.2452632]]}}, {"type": "Feature", "properties": {"osm_id": 117313929, "waterway": "river", "name": "Cipinang", "width": "", "tunnel": "", "covered": ""}, "geometry": {"type": "LineString", "coordinates": [[106.8925792, -6.2127509], [106.8926945, -6.212638], [106.8928288, -6.2125816], [106.8929729, -6.212581], [106.8939783, -6.2123875], [106.8945761, -6.212387], [106.8952289, -6.2124568], [106.8957911, -6.2125167]]}}, {"type": "Feature", "properties": {"osm_id": 117943882, "waterway": "stream", "name": "", "width": "", "tunnel": "", "covered": ""}, "geometry": {"type": "LineString", "coordinates": [[106.8824521, -6.2167206], [106.8816994, -6.2167546], [106.8815787, -6.2168421], [106.8812772, -6.217163], [106.88067, -6.2170785], [106.880558, -6.2170805], [106.8803622, -6.2170584], [106.8801605, -6.217011], [106.8795468, -6.2169252], [106.8791414, -6.2168633], [106.8789063, -6.2168797], [106.8786361, -6.2168801], [106.8784339, -6.2168197], [106.8782327, -6.2166944], [106.8781053, -6.2167788], [106.8779547, -6.2169801], [106.8778327, -6.2169585], [106.8774817, -6.2174356], [106.8771881, -6.2179354], [106.8766531, -6.2181549], [106.8766034, -6.2182324], [106.8766244, -6.2187825], [106.8766576, -6.219296], [106.8766272, -6.2193373], [106.8764493, -6.2193453], [106.8763729, -6.2193833], [106.8763771, -6.21951], [106.8763814, -6.2198097], [106.8763499, -6.2199832], [106.8762698, -6.2200069], [106.876174, -6.220012], [106.8760636, -6.2200258], [106.8759273, -6.2200901], [106.8757572, -6.2200629], [106.8755873, -6.2200123], [106.8753647, -6.219888], [106.8752391, -6.2197717], [106.875133, -6.2196788], [106.8749971, -6.2195733], [106.8749334, -6.219358], [106.8749037, -6.2191554]]}}, {"type": "Feature", "properties": {"osm_id": 118052494, "waterway": "stream", "name": "", "width": "", "tunnel": "", "covered": ""}, "geometry": {"type": "LineString", "coordinates": [[106.9046761, -6.2242682], [106.9048433, -6.224083], [106.90488, -6.2239291], [106.9050502, -6.2235655], [106.9051726, -6.2232989], [106.905365, -6.2230322], [106.9054521, -6.2228984], [106.9057276, -6.2224302], [106.9062397, -6.2217163], [106.906243, -6.2217077], [106.9063377, -6.2214643], [106.9063389, -6.2214613], [106.9065086, -6.2211605], [106.9065674, -6.2210427], [106.9065783, -6.2209692], [106.9065965, -6.2209473]]}}, {"type": "Feature", "properties": {"osm_id": 118664725, "waterway": "stream", "name": "", "width": "", "tunnel": "", "covered": ""}, "geometry": {"type": "LineString", "coordinates": [[106.883258, -6.2341871], [106.8831816, -6.2338743], [106.8831899, -6.2331891], [106.8831078, -6.2311576], [106.8830847, -6.2307579], [106.8830647, -6.2305407], [106.8829933, -6.230442], [106.8827154, -6.2302013], [106.8826241, -6.2301145], [106.8826082, -6.2300395], [106.8830647, -6.2289424], [106.8831919, -6.228678], [106.8832539, -6.2285148], [106.8832925, -6.2284133], [106.8833579, -6.2282506], [106.8834358, -6.2280561], [106.8835738, -6.2277117], [106.8880247, -6.2171512], [106.8881121, -6.2169821], [106.8882409, -6.2169288], [106.8884216, -6.2169592], [106.8888101, -6.2168847]]}}, {"type": "Feature", "properties": {"osm_id": 121963547, "waterway": "river", "name": "Kali Sunter", "width": "", "tunnel": "", "covered": ""}, "geometry": {"type": "LineString", "coordinates": [[106.9053196, -6.2604092], [106.9053665, -6.2600519], [106.9053944, -6.2599077], [106.9054625, -6.2597834], [106.9055457, -6.2596994], [106.905746, -6.2595585], [106.9059315, -6.2594963], [106.9061445, -6.2594193], [106.9062862, -6.2593144], [106.9063509, -6.2591893], [106.9062742, -6.2589424], [106.9060036, -6.2587535], [106.9057175, -6.2587739], [106.9054718, -6.2587776], [106.9053581, -6.2586722], [106.90524, -6.2583998], [106.9051581, -6.257991], [106.905153, -6.2578506], [106.9052238, -6.2576977], [106.9052713, -6.2576122], [106.9053756, -6.2575374], [106.9055393, -6.257508], [106.9056481, -6.2574829], [106.9057498, -6.2574721], [106.9058212, -6.2574603], [106.9059858, -6.2574094], [106.9061789, -6.2572934], [106.9062675, -6.2571215], [106.9062621, -6.2569761], [106.906022, -6.2566198], [106.9058889, -6.2564196], [106.9056638, -6.2563525], [106.9055564, -6.2563969], [106.9054735, -6.2566606], [106.9053609, -6.2567966], [106.9051587, -6.2568862], [106.9049352, -6.2569475], [106.904734, -6.2569813], [106.9044472, -6.2571241], [106.9042181, -6.2570732], [106.9039959, -6.2568684], [106.903843, -6.2562979], [106.9038792, -6.2561192], [106.9041244, -6.2559136], [106.9042156, -6.255827], [106.9042435, -6.2557087], [106.9041228, -6.255482], [106.903945, -6.2552181], [106.9036875, -6.2549688], [106.903438, -6.2547694], [106.9032581, -6.2545365], [106.9031518, -6.2543223], [106.9031443, -6.2540315], [106.9031668, -6.2538486], [106.9033952, -6.2534506], [106.9034381, -6.2533372], [106.9034502, -6.2532119], [106.9034193, -6.2530919], [106.9025852, -6.2522907], [106.9018074, -6.2513216], [106.9005802, -6.2495191], [106.9005508, -6.2493578], [106.9005561, -6.2492805], [106.9006017, -6.2491525], [106.9006339, -6.2490406], [106.9006419, -6.2489072], [106.9006137, -6.2487019], [106.9005145, -6.2484393], [106.9001815, -6.2481775], [106.9001725, -6.2480618], [106.9001869, -6.2479162], [106.9001805, -6.2477898], [106.9001537, -6.2476752], [106.9000249, -6.2473259], [106.8999016, -6.2469313], [106.8996655, -6.2464913], [106.8996659, -6.2463011], [106.8995714, -6.2461771], [106.899365, -6.2461341], [106.8991972, -6.2460418], [106.8991103, -6.2459181], [106.8990228, -6.2458765], [106.8988132, -6.2458734], [106.8986554, -6.2458478], [106.8984813, -6.2456722], [106.8983409, -6.2455866], [106.8980063, -6.2454979], [106.8978389, -6.2453662], [106.8975208, -6.245166], [106.8972432, -6.2450526], [106.8969632, -6.2449342], [106.8968317, -6.2447876], [106.8964184, -6.244538], [106.8963111, -6.2444607], [106.8960928, -6.2443263], [106.8949807, -6.2438448], [106.8946471, -6.2437544], [106.8944712, -6.2437181], [106.8941761, -6.2436101], [106.8937577, -6.2434928], [106.893468, -6.2433862], [106.8932243, -6.2432704], [106.8932006, -6.2430691], [106.8932461, -6.2429731], [106.8933822, -6.2428636], [106.8933682, -6.2427052], [106.8932502, -6.2425452], [106.8932716, -6.2422359], [106.8936472, -6.2421506], [106.8936825, -6.2419811], [106.8935479, -6.241884], [106.8933365, -6.2418084], [106.8932712, -6.2417616], [106.8932484, -6.2416763], [106.893272, -6.241291], [106.8933789, -6.240946], [106.8933146, -6.240626], [106.8931214, -6.2404554], [106.8929423, -6.2404959], [106.8927352, -6.2404874], [106.8926172, -6.2403807], [106.8924455, -6.24037], [106.8922846, -6.2403274], [106.8922309, -6.2401247], [106.8921666, -6.2399434], [106.8922156, -6.2395191]]}}, {"type": "Feature", "properties": {"osm_id": 133285979, "waterway": "stream", "name": "", "width": "", "tunnel": "", "covered": ""}, "geometry": {"type": "LineString", "coordinates": [[106.8507656, -6.2539878], [106.8508218, -6.2539201], [106.8510632, -6.2536801], [106.8512509, -6.2534615], [106.8515681, -6.2530077], [106.8517612, -6.2525385], [106.8519168, -6.2523359], [106.8521528, -6.2521066], [106.8523084, -6.2519572], [106.8522816, -6.2517493], [106.8522226, -6.251504], [106.8523243, -6.2507039], [106.8525047, -6.2504324], [106.8526389, -6.2503524], [106.8530192, -6.2503841], [106.8532733, -6.2503985], [106.8534999, -6.2503737], [106.8543447, -6.2502991], [106.8544329, -6.2503271], [106.8544798, -6.2503618], [106.8544918, -6.2504228], [106.8546044, -6.2504161], [106.8547225, -6.2503031], [106.8548243, -6.2501549], [106.8549302, -6.2500882], [106.8552145, -6.2501111], [106.8555577, -6.2500911], [106.8556847, -6.2500335], [106.8557485, -6.249654], [106.8557631, -6.2492537], [106.8557524, -6.248939], [106.8557363, -6.248891], [106.8554761, -6.248835], [106.8553152, -6.2482991], [106.8550989, -6.2475821]]}}, {"type": "Feature", "properties": {"osm_id": 155956804, "waterway": "river", "name": "Cipinang", "width": "", "tunnel": "", "covered": ""}, "geometry": {"type": "LineString", "coordinates": [[106.8752345, -6.2798859], [106.8755254, -6.2797296], [106.8757657, -6.2796869], [106.8760224, -6.2795302], [106.8761948, -6.2794736], [106.8762635, -6.2793627], [106.8761605, -6.2792603], [106.8760918, -6.2789788], [106.8761084, -6.2787455], [106.8761154, -6.2786451], [106.8761862, -6.2786034], [106.8763322, -6.2785181], [106.8766068, -6.278501], [106.87683, -6.2784498], [106.8768901, -6.2783474], [106.8768643, -6.2781427], [106.8767956, -6.277972], [106.8768711, -6.2779077], [106.876841, -6.2778263], [106.8769134, -6.277781], [106.8770878, -6.277749], [106.8771709, -6.2776423], [106.8771521, -6.2775463], [106.877136, -6.277421], [106.8771629, -6.2773384], [106.8772299, -6.2772931], [106.8773613, -6.277421], [106.8774552, -6.2774264], [106.8776309, -6.2773087], [106.8777583, -6.2771524], [106.8777141, -6.2770844], [106.8774727, -6.2770004], [106.8774539, -6.2769538], [106.8774633, -6.2768072], [106.8776202, -6.2767312], [106.8776457, -6.2766379], [106.877643, -6.2764632], [106.8775706, -6.2762326], [106.8775826, -6.2760953], [106.8778066, -6.275654], [106.8782009, -6.2758007], [106.8785777, -6.275918], [106.8786957, -6.2760033], [106.8787601, -6.2760993], [106.8788459, -6.2762166], [106.8790552, -6.2763472], [106.8790042, -6.2764566], [106.8789559, -6.2766832], [106.8790981, -6.2767445], [106.8794173, -6.2765925], [106.8795406, -6.2765605], [106.879656, -6.2765499], [106.8796828, -6.2765792], [106.8796694, -6.2768885], [106.8797257, -6.2770564], [106.8799778, -6.2770324], [106.8800422, -6.2768618], [106.8800556, -6.2766832], [106.8801549, -6.2766538], [106.8802434, -6.2768005], [106.8804043, -6.2768405], [106.8805304, -6.2768378], [106.8806779, -6.2769125], [106.8807986, -6.2768165], [106.8807959, -6.2767178], [106.8806591, -6.2765605], [106.8806403, -6.2764166], [106.8806645, -6.2762539], [106.8807101, -6.2761153], [106.8807825, -6.2761286], [106.8808656, -6.2762513], [106.8809649, -6.2763366], [106.8811419, -6.2763206], [106.8812036, -6.2760913], [106.8812653, -6.2760006], [106.8813538, -6.2760326], [106.8814235, -6.276134], [106.8815174, -6.2761979], [106.8815898, -6.2760486], [106.8815952, -6.2759047], [106.8815416, -6.2757927], [106.8815979, -6.275654], [106.8816891, -6.2755554], [106.8816542, -6.2755074], [106.8815389, -6.2754328], [106.8815603, -6.2753341], [106.8816381, -6.2750622], [106.8816247, -6.2746169], [106.8816328, -6.2742863], [106.8817079, -6.274041], [106.8817776, -6.2739264], [106.8819117, -6.2738331], [106.8819895, -6.2736251], [106.8820807, -6.2736278], [106.8822309, -6.2736571], [106.8822765, -6.2735638], [106.8822631, -6.2733185], [106.8822953, -6.2730946], [106.8823543, -6.2729479], [106.8823114, -6.2726466], [106.8821397, -6.2724707], [106.8815523, -6.272676], [106.8800234, -6.2733692], [106.8785187, -6.2740917], [106.8781942, -6.2741903], [106.8777784, -6.274129], [106.8774378, -6.2737024], [106.8771213, -6.2729399], [106.8770959, -6.2724948], [106.877214, -6.2720661], [106.8774154, -6.2716181], [106.8775318, -6.2712103], [106.8776062, -6.2709278], [106.8776515, -6.2706244], [106.8776574, -6.2705221], [106.8776905, -6.2704701], [106.8778721, -6.2703052], [106.8782863, -6.2698407], [106.8785731, -6.2695451], [106.878743, -6.2693339], [106.8787787, -6.2692003], [106.8787643, -6.2690383], [106.8786368, -6.2689011], [106.8784669, -6.2688588], [106.8783713, -6.2685949], [106.8784244, -6.268426], [106.8785518, -6.2682887], [106.8786338, -6.2682215], [106.8786262, -6.2680987], [106.8785943, -6.2679298], [106.8786687, -6.2678031], [106.8788386, -6.2677609], [106.8788811, -6.2675708], [106.878913, -6.2674336], [106.8789406, -6.2672432], [106.8789452, -6.2669887], [106.8789582, -6.2668178], [106.8790125, -6.2665985], [106.879136, -6.2664834], [106.8792023, -6.2662749], [106.879136, -6.2661456], [106.8789236, -6.2660189], [106.878848, -6.2657219], [106.8786902, -6.2655004], [106.8785899, -6.2654726], [106.8785235, -6.2654067], [106.8785731, -6.2653221], [106.8787401, -6.2652826], [106.8787565, -6.2651212], [106.8787324, -6.2649737], [106.8787749, -6.2647309], [106.8788811, -6.2645514], [106.8791118, -6.2645224], [106.8793203, -6.2641981], [106.8790829, -6.2639179], [106.8790935, -6.2637173], [106.8793166, -6.2636118], [106.8795577, -6.2634332], [106.8794568, -6.263222], [106.8792922, -6.2631217], [106.8792739, -6.2629278], [106.87934, -6.2628684], [106.8794781, -6.2628472], [106.8795896, -6.2627786], [106.8796533, -6.262615], [106.8796905, -6.262388], [106.8797277, -6.2622138], [106.8797755, -6.2620924], [106.8798498, -6.2619551], [106.8799879, -6.2619023], [106.8800622, -6.2617862], [106.8801578, -6.2615381], [106.8802481, -6.2613797], [106.8802853, -6.2611633], [106.8802746, -6.260968], [106.8803596, -6.2609152], [106.8804764, -6.2608624], [106.8805508, -6.2607199], [106.8806229, -6.2605894], [106.8807398, -6.2602621], [106.8808456, -6.2599345], [106.8809442, -6.2596918], [106.8811221, -6.259523], [106.8812708, -6.2593858], [106.8813325, -6.2593631], [106.8814393, -6.2593736], [106.8816497, -6.259403], [106.8818531, -6.2594226], [106.8819612, -6.2593858], [106.8819776, -6.2593017], [106.881914, -6.2592007], [106.8817211, -6.2589706], [106.8817381, -6.258879], [106.881855, -6.2587101], [106.881993, -6.2585728], [106.8821123, -6.2584308], [106.8822639, -6.2582994], [106.8823435, -6.2581505], [106.8821896, -6.2580157], [106.8821245, -6.2579768], [106.8820992, -6.257876], [106.8821325, -6.2578062], [106.8821842, -6.2577599], [106.8823223, -6.2575702], [106.8824222, -6.2574089], [106.8825453, -6.2572109], [106.8825375, -6.2570969], [106.8824604, -6.2569364], [106.8823223, -6.2568414], [106.8822161, -6.2567041], [106.8822373, -6.2565669], [106.8823229, -6.2565344], [106.8823966, -6.2564719], [106.8824208, -6.2563491], [106.8823809, -6.2562049], [106.8822505, -6.2560731], [106.8821554, -6.255978], [106.882078, -6.2558278], [106.8821205, -6.2556378], [106.8820992, -6.2555006], [106.8817594, -6.2548143], [106.8812177, -6.2537691], [106.881154, -6.2535474], [106.8813558, -6.2532834], [106.8816319, -6.2529984], [106.8816532, -6.2523438], [106.8815045, -6.2504434], [106.8814089, -6.2499261], [106.8816213, -6.2495249], [106.8818762, -6.2491342], [106.8819631, -6.2486846], [106.8817312, -6.2481545], [106.8814901, -6.2479011]]}}, {"type": "Feature", "properties": {"osm_id": 234874862, "waterway": "stream", "name": "", "width": "", "tunnel": "", "covered": ""}, "geometry": {"type": "LineString", "coordinates": [[106.8572897, -6.2246299], [106.8572904, -6.2242533], [106.8572394, -6.223804], [106.8572394, -6.2236867], [106.8572475, -6.2233614], [106.8572227, -6.2231274], [106.8571248, -6.2229101], [106.857, -6.2226141], [106.8568556, -6.2222481], [106.8567965, -6.2220564], [106.8566234, -6.2220751], [106.8563128, -6.2220816], [106.8559945, -6.2220258], [106.855674, -6.2219445], [106.8554688, -6.2219005], [106.8552251, -6.2218296], [106.854995, -6.2217748]]}}, {"type": "Feature", "properties": {"osm_id": 258732183, "waterway": "river", "name": "Kali Malang", "width": "5", "tunnel": "", "covered": ""}, "geometry": {"type": "LineString", "coordinates": [[106.9529426, -6.2498348], [106.9524826, -6.2498216], [106.9518958, -6.2498392], [106.9492555, -6.2499131], [106.9477488, -6.2499614], [106.9464981, -6.2499873], [106.9458143, -6.2500201], [106.9434827, -6.2498553], [106.9418093, -6.2497431], [106.9402173, -6.2496199], [106.9393969, -6.2495561], [106.9381716, -6.2494448], [106.936827, -6.249364], [106.9343057, -6.2490547], [106.9326561, -6.2488497], [106.9313875, -6.248692], [106.9292029, -6.2484552], [106.927507, -6.2483104], [106.9255835, -6.2481374], [106.9251128, -6.2481009], [106.9236253, -6.2479695], [106.92244, -6.2478494], [106.9215759, -6.2478293], [106.921241, -6.24786], [106.9211056, -6.2478647], [106.9209988, -6.2478683], [106.9195754, -6.2479774], [106.917605, -6.2481246], [106.9164892, -6.248214], [106.9145387, -6.2483298], [106.9135825, -6.2483224], [106.9133204, -6.248276], [106.912151, -6.2480947], [106.9109923, -6.2477961], [106.9082672, -6.2470388], [106.9062501, -6.2465161], [106.904312, -6.2458206], [106.9040545, -6.245746], [106.9023985, -6.2451614], [106.9014508, -6.2447968]]}}, {"type": "Feature", "properties": {"osm_id": 447489924, "waterway": "stream", "name": "", "width": "", "tunnel": "yes", "covered": ""}, "geometry": {"type": "LineString", "coordinates": [[106.8690491, -6.2452632], [106.8695222, -6.2443439]]}}, {"type": "Feature", "properties": {"osm_id": 447489942, "waterway": "stream", "name": "", "width": "", "tunnel": "", "covered": ""}, "geometry": {"type": "LineString", "coordinates": [[106.8703373, -6.2420664], [106.8703949, -6.2411822], [106.8703105, -6.240488], [106.8701585, -6.2400712], [106.870121, -6.2400006], [106.8701039, -6.2399526], [106.8700966, -6.239905], [106.8700758, -6.239785], [106.8700604, -6.2396737], [106.8700396, -6.2395864], [106.8700023, -6.2395239], [106.8699921, -6.2394428], [106.8699777, -6.2393279], [106.8699597, -6.239184], [106.8699398, -6.2390248], [106.869938, -6.2389347], [106.8699411, -6.2388141], [106.86996, -6.238611], [106.8699568, -6.2384906], [106.8699533, -6.2383579], [106.8699491, -6.2381989], [106.8699398, -6.2378461], [106.8699819, -6.2373957], [106.8699819, -6.2370317], [106.8699671, -6.2364478], [106.869941, -6.236176], [106.8699537, -6.2359345], [106.869943, -6.2358265]]}}, {"type": "Feature", "properties": {"osm_id": 452223808, "waterway": "stream", "name": "", "width": "", "tunnel": "", "covered": ""}, "geometry": {"type": "LineString", "coordinates": [[106.8623856, -6.2114113], [106.8623628, -6.2112913], [106.8622354, -6.2112275], [106.8620919, -6.2112086], [106.8618841, -6.2111793], [106.8617111, -6.210918], [106.8616011, -6.21055], [106.8614831, -6.2102114], [106.8613865, -6.2099314], [106.8611342, -6.2092498], [106.8609371, -6.2087338], [106.8607809, -6.208315], [106.8606254, -6.207843], [106.86051, -6.2074031], [106.8603129, -6.2067938], [106.8601841, -6.2063418], [106.8601332, -6.2059152], [106.8601855, -6.2056459], [106.8602579, -6.2053379], [106.8602204, -6.2050752], [106.860118, -6.2047599], [106.8600365, -6.204503], [106.8598662, -6.2039553], [106.8597993, -6.2036953], [106.8596789, -6.2034042], [106.8595418, -6.2030727], [106.8592725, -6.2025012], [106.8589797, -6.2019047], [106.8589758, -6.2016904], [106.8591632, -6.2008757], [106.8592675, -6.2002264], [106.8589037, -6.1992579], [106.8588819, -6.1992041], [106.858856, -6.1991383], [106.8586866, -6.1987105], [106.858347, -6.1979048], [106.8582927, -6.197776]]}}, {"type": "Feature", "properties": {"osm_id": 482132398, "waterway": "river", "name": "Ci Liwung", "width": "", "tunnel": "", "covered": ""}, "geometry": {"type": "LineString", "coordinates": [[106.8625561, -6.242686], [106.8625451, -6.2425188], [106.8625642, -6.2415719], [106.8627382, -6.2403111], [106.8628606, -6.2397333], [106.8629277, -6.2394167], [106.8630108, -6.2390252], [106.8635724, -6.2375061], [106.8639818, -6.2371425], [106.8644528, -6.236858], [106.8646973, -6.2367712], [106.8649678, -6.2367556], [106.8652682, -6.2367727], [106.8654593, -6.2369956]]}}, {"type": "Feature", "properties": {"osm_id": 482132399, "waterway": "river", "name": "Ci Liwung", "width": "", "tunnel": "", "covered": ""}, "geometry": {"type": "LineString", "coordinates": [[106.8578867, -6.2529496], [106.8579554, -6.2526936], [106.8583416, -6.2521305], [106.8587279, -6.2517636], [106.8589855, -6.2515234], [106.8592269, -6.251348], [106.8593174, -6.251295], [106.8595297, -6.2511755], [106.859607, -6.2511457], [106.860187, -6.2509958], [106.8604092, -6.2510341], [106.8605257, -6.2511664], [106.8606313, -6.251396], [106.8607919, -6.2520506], [106.8608925, -6.2525353], [106.8610687, -6.2537134], [106.861091, -6.2538313], [106.8611803, -6.2539535], [106.8613284, -6.2540329], [106.8621469, -6.2538704], [106.8626303, -6.2536166], [106.8629114, -6.2532277], [106.8629435, -6.2531328], [106.8629169, -6.2529398], [106.862822, -6.2525742], [106.8622212, -6.2511408], [106.8621954, -6.2505265], [106.8624117, -6.2502973], [106.8631547, -6.249987], [106.8633023, -6.2498541], [106.8638335, -6.2497036], [106.8639618, -6.2496271], [106.8641035, -6.2494396], [106.8640115, -6.2492688], [106.863437, -6.2486019], [106.8628073, -6.2477725], [106.8621182, -6.2465249], [106.8619869, -6.2459909], [106.8619894, -6.2457315], [106.86204, -6.2455451], [106.8621442, -6.2451946], [106.8622509, -6.2448074], [106.8623959, -6.2444039], [106.8624973, -6.244044], [106.8625521, -6.2434778]]}}, {"type": "Feature", "properties": {"osm_id": 482164495, "waterway": "river", "name": "", "width": "", "tunnel": "", "covered": ""}, "geometry": {"type": "LineString", "coordinates": [[106.8667687, -6.2153062], [106.8667187, -6.2152115], [106.8666781, -6.2151529], [106.8665547, -6.2151389], [106.8663777, -6.2151235], [106.8661591, -6.2150382], [106.8660881, -6.2149959], [106.8660492, -6.2149462], [106.8659117, -6.2146976], [106.8657293, -6.2144696], [106.8656086, -6.2143516], [106.8652686, -6.2140173], [106.8652264, -6.2139903], [106.8649253, -6.2136793], [106.864358, -6.2131234], [106.8642373, -6.2129997], [106.8641018, -6.2128451]]}}, {"type": "Feature", "properties": {"osm_id": 482170940, "waterway": "river", "name": "Ci Liwung", "width": "", "tunnel": "", "covered": ""}, "geometry": {"type": "LineString", "coordinates": [[106.8644187, -6.2292511], [106.8648806, -6.2286509], [106.8648183, -6.2277206], [106.8647647, -6.2268034], [106.8646252, -6.2265367], [106.8643828, -6.2261936], [106.8638335, -6.225383], [106.8636103, -6.2247857], [106.8636618, -6.2245554], [106.863782, -6.2245042], [106.8638373, -6.224506], [106.8645802, -6.2245298], [106.8649836, -6.2244597], [106.8651404, -6.2244085], [106.8652838, -6.2243017], [106.8653715, -6.2240997], [106.8654104, -6.223992], [106.8654233, -6.2238656], [106.8654147, -6.2237224], [106.865368, -6.2235455], [106.8653152, -6.2233777], [106.8651821, -6.2231945], [106.8649643, -6.2229457], [106.8643869, -6.2223693], [106.8642256, -6.2220996], [106.8640409, -6.2218692], [106.8639965, -6.2218064], [106.8637675, -6.221544], [106.8636628, -6.2214067], [106.8635108, -6.2211397], [106.8633572, -6.2206698], [106.8632349, -6.2202281], [106.8630785, -6.2199592], [106.8628342, -6.219769], [106.8622943, -6.2197197], [106.8619361, -6.2198034], [106.8617193, -6.2199682], [106.8615849, -6.2202101], [106.8615637, -6.2204865], [106.8616237, -6.2206184], [106.8618242, -6.2208661], [106.8618645, -6.2211339], [106.8617631, -6.2214183], [106.8616082, -6.2215943], [106.8613343, -6.2216622], [106.8610247, -6.2217142], [106.8608892, -6.2216942], [106.8606042, -6.221613], [106.8603915, -6.2215406], [106.8602265, -6.2214287], [106.860159, -6.2212431], [106.8601805, -6.221026], [106.8603222, -6.2207396], [106.8605891, -6.2203232], [106.8606795, -6.2201444], [106.8609506, -6.2195413], [106.8619624, -6.2182371], [106.8621334, -6.2178896], [106.8623078, -6.217615], [106.8625639, -6.2174003], [106.8633404, -6.2168537], [106.8634882, -6.216626], [106.8635329, -6.2164108], [106.8634658, -6.2162497], [106.8633652, -6.2161615], [106.8632915, -6.2161195], [106.8632164, -6.2161031], [106.8631195, -6.2161111], [106.8628091, -6.216197], [106.8624526, -6.2163577], [106.8619858, -6.2165828], [106.8615178, -6.2168598], [106.8607564, -6.2172807], [106.8604295, -6.2173536], [106.8600333, -6.2173122], [106.8597641, -6.217103], [106.8595441, -6.2168827], [106.8593939, -6.2166577], [106.8591193, -6.2164359], [106.8589461, -6.216334], [106.8587006, -6.2162978], [106.8585578, -6.216371], [106.8583811, -6.2165894], [106.8580893, -6.2169137], [106.8580249, -6.217157], [106.8578531, -6.2175477], [106.8577631, -6.2176304], [106.8574315, -6.2176642], [106.8569478, -6.2173403], [106.8564878, -6.216703], [106.8562869, -6.2163505], [106.8563469, -6.2159068], [106.8564928, -6.2154631], [106.8566109, -6.2150749], [106.8568673, -6.2145453], [106.85715, -6.214147], [106.8574654, -6.213795], [106.8575646, -6.21374], [106.8576548, -6.2137214], [106.857989, -6.2137257], [106.858254, -6.213628], [106.8583156, -6.2135587], [106.8583344, -6.2134894], [106.8583257, -6.2133453], [106.8579716, -6.212949], [106.8578227, -6.2127517], [106.8577651, -6.2126357], [106.8576872, -6.2125261], [106.8576001, -6.2123584], [106.8574611, -6.2121994], [106.8572758, -6.212051], [106.8570472, -6.2118687], [106.8568908, -6.2117826], [106.8566401, -6.2116959], [106.8551056, -6.2113848], [106.8545048, -6.2111099], [106.8543681, -6.2110501], [106.8542432, -6.2108032], [106.8541871, -6.2106647], [106.8540491, -6.2105369], [106.8534508, -6.2100434], [106.8527584, -6.2095543], [106.8524993, -6.2094387], [106.8523692, -6.2093867], [106.8522352, -6.2093543], [106.8516029, -6.2091849], [106.8512897, -6.2090695], [106.8507828, -6.2087602], [106.8505427, -6.2085636], [106.8501595, -6.2081811], [106.8498953, -6.2079624], [106.8496002, -6.2077672], [106.8493637, -6.2076422], [106.8492377, -6.2075896], [106.8491261, -6.2075414], [106.8491353, -6.2074693], [106.8491407, -6.2074393], [106.8491608, -6.2072926], [106.8491903, -6.2070214], [106.8493473, -6.2063571], [106.8494993, -6.2059462], [106.8497948, -6.205614], [106.8500906, -6.2055073], [106.8504345, -6.2054647], [106.8510479, -6.2058305], [106.8514159, -6.2058836], [106.8516208, -6.20591], [106.8518129, -6.205901], [106.8521962, -6.2058633], [106.852584, -6.2058447], [106.8527889, -6.2059113], [106.8529347, -6.2060118], [106.8533438, -6.2064424], [106.8535728, -6.2065264], [106.8538427, -6.2065158], [106.8543362, -6.2063598], [106.8546769, -6.2061331], [106.855159, -6.2057078], [106.8553536, -6.2053875], [106.8555251, -6.2050754], [106.8557846, -6.2044426], [106.8557712, -6.2036639], [106.8557442, -6.2034276], [106.8557026, -6.2032116], [106.8556264, -6.2029853], [106.8555071, -6.202768], [106.8554431, -6.2026537], [106.8554049, -6.202597], [106.8553447, -6.202544], [106.8552285, -6.2024417], [106.8551588, -6.202399], [106.8550457, -6.2023628], [106.8547962, -6.2023414], [106.8544158, -6.2023084], [106.8540533, -6.202244], [106.8531494, -6.2019597], [106.8529214, -6.201881], [106.8528181, -6.2018637], [106.8527149, -6.2018667], [106.8525646, -6.2019117], [106.8524506, -6.2019784], [106.8522883, -6.2020814], [106.8518592, -6.2023734], [106.8517519, -6.2024143], [106.8516352, -6.202444], [106.8515869, -6.202434], [106.8515494, -6.2024101], [106.8514931, -6.2023694], [106.8514374, -6.2023034], [106.851357, -6.2021649], [106.8512437, -6.201928], [106.8511765, -6.2017679], [106.8510412, -6.2014174], [106.8505758, -6.2006135], [106.8503236, -6.2002828], [106.8496463, -6.1996824], [106.8492171, -6.1992046], [106.8489854, -6.1984793], [106.8487708, -6.1983769], [106.8479297, -6.1983769], [106.8474698, -6.1984109], [106.8470641, -6.1986635], [106.846649, -6.1990669], [106.8462574, -6.1993282], [106.8460598, -6.1994128], [106.8458404, -6.1994296], [106.8456392, -6.1993202], [106.8454284, -6.1991767], [106.8451456, -6.1988954], [106.8450064, -6.1986388], [106.8449505, -6.1982834], [106.845084, -6.1978896], [106.8459319, -6.1962347], [106.845852, -6.1958696], [106.8456954, -6.1957658], [106.8452596, -6.1957231], [106.8446588, -6.1957738], [106.8442913, -6.1957698], [106.8441028, -6.1957058], [106.843889, -6.1955098], [106.8437368, -6.1953059], [106.8436536, -6.1948532], [106.8436245, -6.1945844], [106.8436221, -6.1942025], [106.8436067, -6.1938145], [106.8437254, -6.1936246], [106.8439399, -6.1934379], [106.8441813, -6.1932459], [106.8444549, -6.1930379], [106.8448841, -6.1927872], [106.8452392, -6.1924775], [106.8453582, -6.1922733], [106.8454018, -6.1921371], [106.8451737, -6.1918379], [106.8435108, -6.1911073], [106.8430602, -6.1909715], [106.8426317, -6.1907213], [106.8413289, -6.1895926], [106.8412042, -6.1894633], [106.8410969, -6.1892527], [106.8410607, -6.1890607], [106.8410979, -6.18889], [106.8412026, -6.1887598], [106.8415937, -6.188471], [106.8417768, -6.1882525], [106.841845, -6.1880634], [106.8418522, -6.1878831], [106.8418149, -6.1877907], [106.8416825, -6.1875846], [106.8415589, -6.1875184], [106.8407193, -6.1872348], [106.8405084, -6.187101], [106.8404451, -6.1870074], [106.8404731, -6.186802], [106.8408057, -6.1861855], [106.8408459, -6.1859587], [106.8408396, -6.1857297], [106.8407279, -6.185572], [106.8405924, -6.1855021], [106.8404167, -6.185465], [106.8395303, -6.1854884], [106.8393372, -6.1855388], [106.8386863, -6.1858135], [106.8383984, -6.1860014], [106.838116, -6.1860973], [106.8379359, -6.1861021], [106.8377779, -6.1860406], [106.8373358, -6.1855742], [106.8365872, -6.1850484], [106.8364794, -6.1849779], [106.8362606, -6.1846778], [106.8361405, -6.1843837], [106.8361528, -6.1841233], [106.8362884, -6.1837527], [106.8366211, -6.1830206], [106.8368245, -6.1824049], [106.8368645, -6.1820159], [106.8368491, -6.1818597], [106.8362668, -6.1814829], [106.8353178, -6.1810755], [106.8351514, -6.1809132], [106.8350529, -6.1807171], [106.8350498, -6.1805395], [106.835133, -6.1803679], [106.835438, -6.1800708], [106.8356537, -6.1797951], [106.83582, -6.1796113], [106.836085, -6.1794122], [106.8362545, -6.1793356], [106.8364486, -6.1791886], [106.836541, -6.1791029], [106.8366519, -6.1788946], [106.8368183, -6.1784443], [106.8369076, -6.1780062], [106.8368768, -6.1778531], [106.8367197, -6.1777888], [106.8365441, -6.1778378], [106.8363099, -6.1779879], [106.8360049, -6.1781931], [106.8356937, -6.1783432], [106.8354472, -6.1783891], [106.8350128, -6.1783861], [106.8348649, -6.1783156], [106.8347293, -6.1782053], [106.8346307, -6.1780644], [106.8345845, -6.1778837], [106.8346123, -6.1777214], [106.834754, -6.1773323], [106.8349666, -6.1768484], [106.8350498, -6.1766033], [106.8350467, -6.1764532], [106.8349604, -6.1761745], [106.8348249, -6.1757793], [106.8345229, -6.175035], [106.8343599, -6.1747577], [106.8342395, -6.1746735], [106.8341131, -6.1747164], [106.8339622, -6.1748665], [106.833691, -6.175231], [106.8334137, -6.1755741], [106.8331272, -6.1757395], [106.8327544, -6.1757977], [106.8324001, -6.1756905], [106.8322645, -6.175571], [106.832206, -6.1754148], [106.8321844, -6.1752616], [106.8322121, -6.1751207], [106.8322707, -6.1749584], [106.8324063, -6.1744905], [106.8324414, -6.1741812], [106.832604, -6.1736033], [106.8326677, -6.1734731], [106.8331011, -6.1727421], [106.8331561, -6.1725858], [106.8331243, -6.1724491], [106.8330146, -6.17234], [106.8328128, -6.1722873], [106.8321538, -6.1722406], [106.8318747, -6.1721815], [106.8317263, -6.1721008], [106.83156, -6.171851], [106.8315115, -6.1717813], [106.8320982, -6.1710205], [106.8321832, -6.1708956], [106.8323354, -6.17082], [106.8324185, -6.1707285], [106.8324787, -6.1705332], [106.8323796, -6.170403], [106.8322451, -6.1702658], [106.8320692, -6.1701317], [106.8318204, -6.1696852], [106.8315868, -6.1688231], [106.8314771, -6.1683305], [106.831469, -6.1681956], [106.8316031, -6.1675628], [106.8317355, -6.1673661], [106.8380671, -6.1638007], [106.8381964, -6.1636034], [106.8368011, -6.1579664], [106.8345784, -6.1492606], [106.8344701, -6.1489878], [106.8341633, -6.1479886], [106.8339506, -6.1472079], [106.8339831, -6.1460805], [106.8339644, -6.1456241], [106.8339085, -6.1450563], [106.8329969, -6.1409939], [106.8328314, -6.1402308], [106.8323922, -6.1381645], [106.8317929, -6.1353409], [106.8313765, -6.1337063], [106.8306243, -6.1303092], [106.830372, -6.1291434], [106.829769, -6.1255293], [106.8297534, -6.1254457], [106.8295184, -6.1241869], [106.8291908, -6.1217876], [106.8290038, -6.1205073], [106.8289044, -6.1201703], [106.8285612, -6.1178014]]}}, {"type": "Feature", "properties": {"osm_id": 482188585, "waterway": "stream", "name": "", "width": "", "tunnel": "", "covered": ""}, "geometry": {"type": "LineString", "coordinates": [[106.8542677, -6.2110622], [106.8541363, -6.2111608]]}}, {"type": "Feature", "properties": {"osm_id": 482188586, "waterway": "stream", "name": "", "width": "", "tunnel": "", "covered": ""}, "geometry": {"type": "LineString", "coordinates": [[106.8543681, -6.2110501], [106.8542677, -6.2110622]]}}, {"type": "Feature", "properties": {"osm_id": 482338363, "waterway": "stream", "name": "", "width": "", "tunnel": "", "covered": ""}, "geometry": {"type": "LineString", "coordinates": [[106.8618841, -6.2111793], [106.8618016, -6.2112267], [106.8616568, -6.2113307], [106.8614529, -6.211424], [106.8609725, -6.2117163], [106.8608355, -6.2117934]]}}, {"type": "Feature", "properties": {"osm_id": 482389159, "waterway": "river", "name": "", "width": "", "tunnel": "", "covered": ""}, "geometry": {"type": "LineString", "coordinates": [[106.8697313, -6.2306511], [106.8697763, -6.2299386], [106.8699265, -6.2292666], [106.870125, -6.2284481], [106.870241, -6.2279908], [106.8703268, -6.2274976], [106.8704234, -6.2271163], [106.8705575, -6.2266657], [106.8706218, -6.2263964], [106.8706487, -6.2260604], [106.8706648, -6.2258631], [106.8706299, -6.2257004], [106.870587, -6.2256098], [106.8705253, -6.2254924], [106.8704609, -6.2253591], [106.8704207, -6.2252551], [106.8703721, -6.2251101], [106.8702946, -6.2247962], [106.8702183, -6.2244687], [106.8701453, -6.224202], [106.8700834, -6.223967], [106.8699238, -6.2233737], [106.8697468, -6.2227604], [106.8695724, -6.2223005], [106.8695013, -6.2221072], [106.8694638, -6.2219578], [106.8692908, -6.2213819], [106.8691258, -6.2207926], [106.8688388, -6.2198087], [106.8687074, -6.2194248], [106.8684396, -6.2187821], [106.8683377, -6.2185875], [106.8682572, -6.2184315], [106.86795, -6.2178349], [106.8678132, -6.2175516], [106.8677569, -6.2174436], [106.8674565, -6.216769], [106.86727, -6.2162957], [106.8672244, -6.216201], [106.8670109, -6.2157623], [106.8669144, -6.2155383], [106.8667687, -6.2153062]]}}, {"type": "Feature", "properties": {"osm_id": 483385976, "waterway": "drain", "name": "Sodetan Ciliwung", "width": "", "tunnel": "", "covered": ""}, "geometry": {"type": "LineString", "coordinates": [[106.8768957, -6.2316872], [106.8770371, -6.2316575], [106.8770975, -6.2316015], [106.8771914, -6.2311122]]}}, {"type": "Feature", "properties": {"osm_id": 485294456, "waterway": "stream", "name": "", "width": "", "tunnel": "", "covered": ""}, "geometry": {"type": "LineString", "coordinates": [[106.8641018, -6.2128451], [106.8637495, -6.2125141], [106.863663, -6.2124361], [106.8635355, -6.2123448], [106.8635107, -6.2123421], [106.8633713, -6.2122348], [106.8632325, -6.2121175], [106.863083, -6.2120059], [106.862796, -6.2117659], [106.862709, -6.2117412], [106.8625868, -6.2116539], [106.8623856, -6.2114113]]}}, {"type": "Feature", "properties": {"osm_id": 485294460, "waterway": "stream", "name": "", "width": "", "tunnel": "culvert", "covered": ""}, "geometry": {"type": "LineString", "coordinates": [[106.8604947, -6.211966], [106.8607035, -6.2124204]]}}, {"type": "Feature", "properties": {"osm_id": 487257043, "waterway": "stream", "name": "", "width": "", "tunnel": "", "covered": ""}, "geometry": {"type": "LineString", "coordinates": [[106.8537261, -6.2422011], [106.8536124, -6.2419627]]}}, {"type": "Feature", "properties": {"osm_id": 487257044, "waterway": "stream", "name": "", "width": "", "tunnel": "", "covered": ""}, "geometry": {"type": "LineString", "coordinates": [[106.8539128, -6.2427979], [106.8539047, -6.242792], [106.8537578, -6.2426836], [106.8537454, -6.2426744], [106.8537106, -6.2425056], [106.8537261, -6.2422011]]}}, {"type": "Feature", "properties": {"osm_id": 487257045, "waterway": "stream", "name": "", "width": "", "tunnel": "", "covered": ""}, "geometry": {"type": "LineString", "coordinates": [[106.8539558, -6.2435412], [106.8539128, -6.2427979]]}}, {"type": "Feature", "properties": {"osm_id": 487257046, "waterway": "stream", "name": "", "width": "", "tunnel": "", "covered": ""}, "geometry": {"type": "LineString", "coordinates": [[106.8550989, -6.2475821], [106.8550503, -6.2474524], [106.8550015, -6.2473245], [106.8549217, -6.2472145], [106.8548376, -6.2470986], [106.8546448, -6.2467103], [106.8546269, -6.2464607], [106.8546062, -6.2462344], [106.854701, -6.2457129], [106.8547582, -6.2454689], [106.8548221, -6.245422], [106.8548411, -6.2452831], [106.8548699, -6.2450803], [106.8547394, -6.2449415], [106.8546954, -6.2449318], [106.8545405, -6.2448518], [106.854377, -6.244821], [106.8541594, -6.2447952], [106.8540093, -6.2447602], [106.8539047, -6.2447056], [106.8539138, -6.2446337], [106.8539685, -6.2445058], [106.8540053, -6.2443358], [106.8540212, -6.2442274], [106.8539558, -6.2440958], [106.8539558, -6.2435412]]}}, {"type": "Feature", "properties": {"osm_id": 487631706, "waterway": "stream", "name": "", "width": "", "tunnel": "culvert", "covered": ""}, "geometry": {"type": "LineString", "coordinates": [[106.8520486, -6.2238273], [106.852034, -6.223712]]}}, {"type": "Feature", "properties": {"osm_id": 487631707, "waterway": "stream", "name": "", "width": "", "tunnel": "", "covered": ""}, "geometry": {"type": "LineString", "coordinates": [[106.8519792, -6.2240721], [106.8520127, -6.2239423], [106.8520486, -6.2238273]]}}, {"type": "Feature", "properties": {"osm_id": 487631713, "waterway": "stream", "name": "", "width": "", "tunnel": "", "covered": ""}, "geometry": {"type": "LineString", "coordinates": [[106.8536124, -6.2419627], [106.8532143, -6.2416256], [106.8530105, -6.2413696], [106.852753, -6.240879], [106.8525491, -6.2403031], [106.8524311, -6.2396205], [106.8524311, -6.2391299], [106.8524955, -6.2385646], [106.8529247, -6.2376048], [106.8530856, -6.2371355], [106.8531929, -6.2366769], [106.8531714, -6.2362503], [106.852989, -6.235749], [106.8529461, -6.2355143], [106.8528925, -6.2350025], [106.8527293, -6.2343453], [106.8526159, -6.2337717], [106.8525387, -6.2332658], [106.8525076, -6.2329044], [106.8524857, -6.2326999], [106.8524286, -6.2322897], [106.8523639, -6.2318214], [106.8523045, -6.2312871], [106.852266, -6.2307629], [106.8522305, -6.2303543], [106.852191, -6.229754], [106.8522297, -6.2293596], [106.8522804, -6.2291171], [106.8522888, -6.2288212], [106.8523287, -6.227442], [106.8522943, -6.2271093], [106.8518692, -6.2249955], [106.8518196, -6.2247182], [106.8518357, -6.2244662]]}}, {"type": "Feature", "properties": {"osm_id": 487631722, "waterway": "stream", "name": "", "width": "", "tunnel": "", "covered": ""}, "geometry": {"type": "LineString", "coordinates": [[106.8508923, -6.2236515], [106.8510602, -6.2233179], [106.851123, -6.2232408], [106.8511766, -6.2231235], [106.8512276, -6.2230437], [106.8512571, -6.223017], [106.8513016, -6.2229366], [106.8514046, -6.2228277], [106.8514743, -6.2227797], [106.8515511, -6.222758], [106.8516583, -6.2227473], [106.8517774, -6.2227424], [106.8518139, -6.2227473], [106.8518606, -6.222649], [106.8518847, -6.2226037], [106.8519276, -6.2225504], [106.8520001, -6.2224944], [106.8520597, -6.2224397], [106.8521679, -6.2223954], [106.8522916, -6.2223086]]}}, {"type": "Feature", "properties": {"osm_id": 492024694, "waterway": "stream", "name": "", "width": "", "tunnel": "", "covered": ""}, "geometry": {"type": "LineString", "coordinates": [[106.8536489, -6.2134912], [106.8533778, -6.2140762]]}}, {"type": "Feature", "properties": {"osm_id": 492024695, "waterway": "stream", "name": "", "width": "", "tunnel": "", "covered": ""}, "geometry": {"type": "LineString", "coordinates": [[106.8541363, -6.2111608], [106.8540947, -6.2111981], [106.8540275, -6.211266], [106.8537723, -6.2115661], [106.8535738, -6.21203], [106.8535081, -6.2125246], [106.853606, -6.212782], [106.853665, -6.2128886], [106.8536919, -6.2131766], [106.8536489, -6.2134912]]}}, {"type": "Feature", "properties": {"osm_id": 493861622, "waterway": "river", "name": "Kali Utan Kayu", "width": "", "tunnel": "", "covered": ""}, "geometry": {"type": "LineString", "coordinates": [[106.8664372, -6.209118], [106.866918, -6.2090157], [106.8672054, -6.208917], [106.8673108, -6.2088243], [106.8674387, -6.2085703], [106.8675722, -6.2083837], [106.8680906, -6.2078224], [106.8683052, -6.2076624], [106.8685744, -6.207559], [106.8689503, -6.207341], [106.8690347, -6.2072571], [106.8690562, -6.2070865], [106.8691098, -6.2068944], [106.8692171, -6.2066598], [106.8693137, -6.2063825], [106.8693566, -6.2062012], [106.8693863, -6.2060601], [106.8693995, -6.2059772], [106.8694317, -6.2056998], [106.869421, -6.2053052], [106.8693781, -6.2048359], [106.8692815, -6.204228], [106.8690026, -6.2025107], [106.8689489, -6.2021374], [106.8689489, -6.2017748], [106.8692064, -6.1994922], [106.8692386, -6.1992149], [106.8692171, -6.1989909]]}}, {"type": "Feature", "properties": {"osm_id": 497080882, "waterway": "river", "name": "", "width": "", "tunnel": "", "covered": ""}, "geometry": {"type": "LineString", "coordinates": [[106.869783, -6.2334195], [106.8697387, -6.2328076], [106.8697226, -6.2324516], [106.8697025, -6.2318837], [106.8697012, -6.2316304], [106.869724, -6.2310398], [106.8697313, -6.2306511]]}}, {"type": "Feature", "properties": {"osm_id": 508099401, "waterway": "stream", "name": "", "width": "", "tunnel": "", "covered": ""}, "geometry": {"type": "LineString", "coordinates": [[106.9074177, -6.2197048], [106.907563, -6.2194622]]}}, {"type": "Feature", "properties": {"osm_id": 508099404, "waterway": "stream", "name": "", "width": "", "tunnel": "", "covered": ""}, "geometry": {"type": "LineString", "coordinates": [[106.907563, -6.2194622], [106.9077902, -6.2189567], [106.9078168, -6.2188441], [106.9078084, -6.2187193], [106.9075984, -6.2185918], [106.9074808, -6.2184946]]}}, {"type": "Feature", "properties": {"osm_id": 567357362, "waterway": "river", "name": "Cipinang", "width": "", "tunnel": "", "covered": ""}, "geometry": {"type": "LineString", "coordinates": [[106.8814901, -6.2479011], [106.8814054, -6.2478234], [106.8812429, -6.2476745], [106.8806099, -6.2470942]]}}, {"type": "Feature", "properties": {"osm_id": 567357365, "waterway": "river", "name": "Cipinang", "width": "", "tunnel": "", "covered": ""}, "geometry": {"type": "LineString", "coordinates": [[106.8806099, -6.2470942], [106.8805087, -6.247039], [106.8803719, -6.2469324], [106.8801841, -6.2467164], [106.8800661, -6.2466124], [106.8799401, -6.2465537], [106.8797603, -6.2465457], [106.8796839, -6.2464404]]}}, {"type": "Feature", "properties": {"osm_id": 723967066, "waterway": "stream", "name": "", "width": "", "tunnel": "", "covered": ""}, "geometry": {"type": "LineString", "coordinates": [[106.8702683, -6.2423275], [106.8703373, -6.2420664]]}}, {"type": "Feature", "properties": {"osm_id": 723967067, "waterway": "stream", "name": "", "width": "", "tunnel": "", "covered": ""}, "geometry": {"type": "LineString", "coordinates": [[106.8696831, -6.2440148], [106.8701763, -6.2425944], [106.8702683, -6.2423275]]}}, {"type": "Feature", "properties": {"osm_id": 723967068, "waterway": "stream", "name": "", "width": "", "tunnel": "", "covered": ""}, "geometry": {"type": "LineString", "coordinates": [[106.8695222, -6.2443439], [106.8696831, -6.2440148]]}}, {"type": "Feature", "properties": {"osm_id": 726023381, "waterway": "stream", "name": "", "width": "", "tunnel": "culvert", "covered": ""}, "geometry": {"type": "LineString", "coordinates": [[106.9065965, -6.2209473], [106.9067235, -6.2207743], [106.9068386, -6.2205716]]}}, {"type": "Feature", "properties": {"osm_id": 726023382, "waterway": "stream", "name": "", "width": "", "tunnel": "", "covered": ""}, "geometry": {"type": "LineString", "coordinates": [[106.9068386, -6.2205716], [106.9069552, -6.2203624], [106.9070503, -6.2201511], [106.9072194, -6.2199656], [106.9074177, -6.2197048]]}}, {"type": "Feature", "properties": {"osm_id": 754943890, "waterway": "canal", "name": "Kali Malang", "width": "", "tunnel": "", "covered": ""}, "geometry": {"type": "LineString", "coordinates": [[106.8809678, -6.2398754], [106.8804812, -6.2398929]]}}, {"type": "Feature", "properties": {"osm_id": 754943891, "waterway": "canal", "name": "Kali Malang", "width": "", "tunnel": "", "covered": ""}, "geometry": {"type": "LineString", "coordinates": [[106.8804812, -6.2398929], [106.8793875, -6.2399596], [106.8788492, -6.2399721], [106.8782774, -6.2400001]]}}, {"type": "Feature", "properties": {"osm_id": 754943892, "waterway": "canal", "name": "Kali Malang", "width": "", "tunnel": "", "covered": ""}, "geometry": {"type": "LineString", "coordinates": [[106.8916409, -6.2395], [106.8907397, -6.239456], [106.8899422, -6.2394402]]}}, {"type": "Feature", "properties": {"osm_id": 754943893, "waterway": "canal", "name": "Kali Malang", "width": "", "tunnel": "", "covered": ""}, "geometry": {"type": "LineString", "coordinates": [[106.8899422, -6.2394402], [106.8890103, -6.2394972], [106.8878912, -6.2395492], [106.8856898, -6.2396167], [106.8852365, -6.2396537], [106.8841909, -6.2397154], [106.8835535, -6.2397448], [106.8809678, -6.2398754]]}}, {"type": "Feature", "properties": {"osm_id": 762333781, "waterway": "river", "name": "Sunter", "width": "", "tunnel": "", "covered": ""}, "geometry": {"type": "LineString", "coordinates": [[106.8957911, -6.2125167], [106.8959205, -6.2123329], [106.8961411, -6.212138], [106.8964469, -6.2118661], [106.8970102, -6.2114767], [106.897597, -6.2107237], [106.8976828, -6.2104785], [106.8976916, -6.2103344], [106.8976507, -6.2102131], [106.8975334, -6.2101451], [106.8973972, -6.2101198], [106.897174, -6.2101558], [106.8969694, -6.2101718], [106.8968575, -6.2101438], [106.8967775, -6.2100758], [106.8968213, -6.2098584], [106.8969184, -6.2096092], [106.8969741, -6.2091198], [106.8969599, -6.2085945], [106.8969332, -6.2084859], [106.8968957, -6.2083872], [106.8968642, -6.2083239], [106.896748, -6.2080572], [106.8967816, -6.2078119], [106.8970927, -6.20746], [106.8971585, -6.2072893], [106.8971498, -6.2070893], [106.8971088, -6.2068613], [106.897013, -6.206472], [106.8966636, -6.2054121], [106.8971357, -6.2037269], [106.8975219, -6.2030016], [106.897576, -6.2028684]]}}, {"type": "Feature", "properties": {"osm_id": 808834217, "waterway": "stream", "name": "", "width": "", "tunnel": "", "covered": ""}, "geometry": {"type": "LineString", "coordinates": [[106.8529485, -6.2146058], [106.8529341, -6.2146252]]}}, {"type": "Feature", "properties": {"osm_id": 808834218, "waterway": "stream", "name": "", "width": "", "tunnel": "culvert", "covered": ""}, "geometry": {"type": "LineString", "coordinates": [[106.8533778, -6.2140762], [106.8532, -6.2143268], [106.8529485, -6.2146058]]}}, {"type": "Feature", "properties": {"osm_id": 973447746, "waterway": "stream", "name": "", "width": "", "tunnel": "culvert", "covered": ""}, "geometry": {"type": "LineString", "coordinates": [[106.8714802, -6.2071984], [106.8714849, -6.2071244]]}}, {"type": "Feature", "properties": {"osm_id": 973447747, "waterway": "stream", "name": "", "width": "", "tunnel": "", "covered": ""}, "geometry": {"type": "LineString", "coordinates": [[106.8714849, -6.2071244], [106.8714749, -6.2069298], [106.8713479, -6.206739], [106.8711429, -6.2065895], [106.8709985, -6.2065201], [106.8709076, -6.2065138], [106.8707568, -6.2064138], [106.8707349, -6.2063742], [106.8706229, -6.2062989], [106.8705576, -6.2063018], [106.8705044, -6.2063219], [106.8703957, -6.2063], [106.8703391, -6.206281], [106.8701695, -6.2062679]]}}, {"type": "Feature", "properties": {"osm_id": 973447748, "waterway": "stream", "name": "", "width": "", "tunnel": "culvert", "covered": ""}, "geometry": {"type": "LineString", "coordinates": [[106.8701695, -6.2062679], [106.870114, -6.2062588]]}}, {"type": "Feature", "properties": {"osm_id": 973447749, "waterway": "stream", "name": "", "width": "", "tunnel": "", "covered": ""}, "geometry": {"type": "LineString", "coordinates": [[106.870114, -6.2062588], [106.869873, -6.2061872], [106.8695826, -6.2061065], [106.8695013, -6.2060816], [106.8693863, -6.2060601]]}}, {"type": "Feature", "properties": {"osm_id": 976211743, "waterway": "drain", "name": "Sodetan Ciliwung", "width": "", "tunnel": "", "covered": ""}, "geometry": {"type": "LineString", "coordinates": [[106.8654761, -6.2327587], [106.8662895, -6.2322055], [106.8664102, -6.2321468], [106.8665108, -6.2321095]]}}, {"type": "Feature", "properties": {"osm_id": 1043383051, "waterway": "river", "name": "Sunter", "width": "", "tunnel": "", "covered": ""}, "geometry": {"type": "LineString", "coordinates": [[106.8960406, -6.2165593], [106.89608, -6.2164507], [106.8961434, -6.2164101], [106.8961559, -6.2163562], [106.8961685, -6.2162086]]}}, {"type": "Feature", "properties": {"osm_id": 1043383052, "waterway": "river", "name": "Sunter", "width": "", "tunnel": "culvert", "covered": ""}, "geometry": {"type": "LineString", "coordinates": [[106.8961685, -6.2162086], [106.8961649, -6.2160814]]}}, {"type": "Feature", "properties": {"osm_id": 1096138539, "waterway": "stream", "name": "", "width": "", "tunnel": "culvert", "covered": ""}, "geometry": {"type": "LineString", "coordinates": [[106.854995, -6.2217748], [106.8549564, -6.2217656]]}}, {"type": "Feature", "properties": {"osm_id": 1096138540, "waterway": "stream", "name": "", "width": "", "tunnel": "", "covered": ""}, "geometry": {"type": "LineString", "coordinates": [[106.8549564, -6.2217656], [106.8547047, -6.2217056], [106.854345, -6.2216629], [106.8539872, -6.2215716], [106.8534951, -6.221439], [106.8533073, -6.2213896], [106.8529274, -6.2212956], [106.8528241, -6.2212756], [106.8527199, -6.2212299], [106.8525179, -6.2211532]]}}, {"type": "Feature", "properties": {"osm_id": 1144576682, "waterway": "stream", "name": "", "width": "", "tunnel": "yes", "covered": ""}, "geometry": {"type": "LineString", "coordinates": [[106.9074808, -6.2184946], [106.9074136, -6.2184738]]}}, {"type": "Feature", "properties": {"osm_id": 1144576683, "waterway": "stream", "name": "", "width": "", "tunnel": "", "covered": ""}, "geometry": {"type": "LineString", "coordinates": [[106.9074136, -6.2184738], [106.9075024, -6.2183582], [106.9076348, -6.2181864], [106.9076956, -6.2181037]]}}, {"type": "Feature", "properties": {"osm_id": 1144576684, "waterway": "stream", "name": "", "width": "", "tunnel": "yes", "covered": ""}, "geometry": {"type": "LineString", "coordinates": [[106.9076956, -6.2181037], [106.9077551, -6.2180229]]}}, {"type": "Feature", "properties": {"osm_id": 1144576685, "waterway": "stream", "name": "", "width": "", "tunnel": "", "covered": ""}, "geometry": {"type": "LineString", "coordinates": [[106.9077551, -6.2180229], [106.9079201, -6.217746], [106.9081312, -6.2174006], [106.9082649, -6.2171577], [106.9083606, -6.2169983], [106.9085377, -6.2168288]]}}, {"type": "Feature", "properties": {"osm_id": 1145008000, "waterway": "stream", "name": "", "width": "", "tunnel": "", "covered": ""}, "geometry": {"type": "LineString", "coordinates": [[106.8607035, -6.2124204], [106.8583257, -6.2133453]]}}, {"type": "Feature", "properties": {"osm_id": 1213929409, "waterway": "stream", "name": "", "width": "", "tunnel": "culvert", "covered": ""}, "geometry": {"type": "LineString", "coordinates": [[106.8608355, -6.2117934], [106.8604947, -6.211966]]}}, {"type": "Feature", "properties": {"osm_id": 1230869491, "waterway": "weir", "name": "", "width": "", "tunnel": "", "covered": ""}, "geometry": {"type": "LineString", "coordinates": [[106.8772139, -6.231369], [106.8772845, -6.2313583], [106.8774327, -6.2313357]]}}, {"type": "Feature", "properties": {"osm_id": 1230869494, "waterway": "drain", "name": "Sodetan Ciliwung", "width": "", "tunnel": "culvert", "covered": ""}, "geometry": {"type": "LineString", "coordinates": [[106.8665108, -6.2321095], [106.866897, -6.2319721], [106.8670768, -6.2319295], [106.8723902, -6.2316668], [106.8768957, -6.2316872]]}}, {"type": "Feature", "properties": {"osm_id": 1324962039, "waterway": "river", "name": "Kanal Banjir Timur", "width": "6", "tunnel": "", "covered": ""}, "geometry": {"type": "LineString", "coordinates": [[106.8789614, -6.2288286], [106.8793285, -6.2285949], [106.8797636, -6.2284452], [106.8803631, -6.2283451], [106.8812227, -6.2283172], [106.8827248, -6.2283599], [106.8832925, -6.2284133], [106.8835693, -6.228485], [106.8843287, -6.2286746], [106.8854606, -6.2289732], [106.8874133, -6.2294265], [106.8896181, -6.229757], [106.8900457, -6.2297892], [106.8937326, -6.2300664], [106.8965864, -6.230173], [106.8984942, -6.2301851], [106.9012642, -6.2300451], [106.905663, -6.2301304], [106.9092679, -6.230237], [106.9107485, -6.2302797], [106.9123967, -6.2300518], [106.9190068, -6.2284514], [106.9196185, -6.2283626], [106.9205144, -6.2283126], [106.923709, -6.2282184], [106.9263283, -6.2284842], [106.9272529, -6.2285904], [106.9280943, -6.2285786], [106.9386059, -6.2275867], [106.9393918, -6.227416], [106.9400168, -6.2270374], [106.9409892, -6.2265985], [106.9425481, -6.225362], [106.9458364, -6.2224993], [106.9469395, -6.2215366], [106.9475188, -6.2209508], [106.9485542, -6.2193582], [106.9504178, -6.2165373], [106.9508947, -6.2159512], [106.9513574, -6.2155642], [106.9519416, -6.2152485], [106.9524669, -6.2149491], [106.9526584, -6.2148528], [106.9556129, -6.2131805], [106.9558594, -6.213057], [106.9580224, -6.2118922], [106.9587064, -6.2113801], [106.9606161, -6.2099083], [106.961174, -6.2092043], [106.9619256, -6.207991], [106.9627288, -6.2065332], [106.9638337, -6.2045326], [106.9653103, -6.2015916], [106.9655408, -6.2010981], [106.9658256, -6.2006299], [106.9672925, -6.1983251], [106.9675828, -6.197734], [106.9683968, -6.1963336], [106.9686799, -6.1956862], [106.9688977, -6.1949971], [106.9690265, -6.1935252], [106.9691277, -6.1916316], [106.96921, -6.1912733]]}}, {"type": "Feature", "properties": {"osm_id": 1326437649, "waterway": "river", "name": "Cipinang", "width": "", "tunnel": "", "covered": ""}, "geometry": {"type": "LineString", "coordinates": [[106.8923701, -6.2135477], [106.892425, -6.213218], [106.8925068, -6.2129433], [106.8925792, -6.2127509]]}}, {"type": "Feature", "properties": {"osm_id": 1326462278, "waterway": "river", "name": "", "width": "", "tunnel": "culvert", "covered": ""}, "geometry": {"type": "LineString", "coordinates": [[106.8625521, -6.2434778], [106.8625561, -6.242686]]}}, {"type": "Feature", "properties": {"osm_id": 1329316427, "waterway": "river", "name": "Kanal Banjir Timur", "width": "", "tunnel": "", "covered": ""}, "geometry": {"type": "LineString", "coordinates": [[106.8783497, -6.2291318], [106.8785608, -6.2289972]]}}, {"type": "Feature", "properties": {"osm_id": 1329316428, "waterway": "river", "name": "", "width": "", "tunnel": "culvert", "covered": ""}, "geometry": {"type": "LineString", "coordinates": [[106.8789614, -6.2288286], [106.8785608, -6.2289972]]}}, {"type": "Feature", "properties": {"osm_id": 1337933867, "waterway": "river", "name": "Sunter", "width": "", "tunnel": "", "covered": ""}, "geometry": {"type": "LineString", "coordinates": [[106.8977368, -6.2025957], [106.8980068, -6.2022835], [106.8981975, -6.2021486], [106.8984124, -6.2021163], [106.89926, -6.202159], [106.9002529, -6.2019689], [106.9005214, -6.2018613], [106.9006802, -6.2017924], [106.9007564, -6.2017165], [106.9008717, -6.2014728], [106.900922, -6.2013428], [106.9009505, -6.2011038], [106.9009333, -6.200945], [106.9008704, -6.200804], [106.9007675, -6.2006635], [106.9007198, -6.2005594], [106.9007107, -6.2004393], [106.9007599, -6.2003109], [106.9009425, -6.2001179], [106.9011082, -6.1999604], [106.90116, -6.1997653], [106.9012198, -6.1994824], [106.9014148, -6.1991775]]}}, {"type": "Feature", "properties": {"osm_id": 1337933868, "waterway": "river", "name": "Sunter", "width": "", "tunnel": "culvert", "covered": ""}, "geometry": {"type": "LineString", "coordinates": [[106.897576, -6.2028684], [106.8977368, -6.2025957]]}}, {"type": "Feature", "properties": {"osm_id": 1337934103, "waterway": "river", "name": "Sunter", "width": "", "tunnel": "", "covered": ""}, "geometry": {"type": "LineString", "coordinates": [[106.8957616, -6.2130054], [106.8957556, -6.2128022], [106.8957782, -6.2126298], [106.8957911, -6.2125167]]}}, {"type": "Feature", "properties": {"osm_id": 1337934104, "waterway": "river", "name": "Sunter", "width": "", "tunnel": "culvert", "covered": ""}, "geometry": {"type": "LineString", "coordinates": [[106.8957569, -6.2136182], [106.8957636, -6.2130729], [106.8957616, -6.2130054]]}}]}