{
"type": "FeatureCollection",
"name": "TITIK LOKASI PENGUNGSIAN",
"crs": { "type": "name", "properties": { "name": "urn:ogc:def:crs:OGC:1.3:CRS84" } },
"features": [
{ "type": "Feature", "properties": { "ID": 1.0, "X": 106.813643, "Y": -6.211314, "KOTA": "JAKARTA PUSAT", "KECAMATAN": "TANAH ABANG", "KELURAHAN": "KARET TENGSIN", "NAMA_TEMPA": "APARTMENT BATAVIA", "ALAMAT": "Jl. K.H. Mas Mansyur", "KK": 88.0, "JIWA": 350.0, "BENCANA": "BANJIR" }, "geometry": { "type": "Point", "coordinates": [ 106.813643229305995, -6.21131429531059 ] } },
{ "type": "Feature", "properties": { "ID": 2.0, "X": 106.814912, "Y": -6.208136, "KOTA": "JAKARTA PUSAT", "KECAMATAN": "TANAH ABANG", "KELURAHAN": "KARET TENGSIN", "NAMA_TEMPA": "MASJID MATLAUL ANWAR", "ALAMAT": "Jl. Karet Pasar Baru Barat IV 8 RT 006 RW 04", "KK": 105.0, "JIWA": 420.0, "BENCANA": "BANJIR" }, "geometry": { "type": "Point", "coordinates": [ 106.814912256773994, -6.20813566340348 ] } },
{ "type": "Feature", "properties": { "ID": 3.0, "X": 106.81353, "Y": -6.207602, "KOTA": "JAKARTA PUSAT", "KECAMATAN": "TANAH ABANG", "KELURAHAN": "KARET TENGSIN", "NAMA_TEMPA": "GOR KEL. KARET TENGSIN", "ALAMAT": "Jl. Mutiara No.16, RW.5", "KK": 95.0, "JIWA": 380.0, "BENCANA": "BANJIR" }, "geometry": { "type": "Point", "coordinates": [ 106.813529534319002, -6.20760182627445 ] } },
{ "type": "Feature", "properties": { "ID": 4.0, "X": 106.816581, "Y": -6.203883, "KOTA": "JAKARTA PUSAT", "KECAMATAN": "TANAH ABANG", "KELURAHAN": "KARET TENGSIN", "NAMA_TEMPA": "RPTRA SEGAS", "ALAMAT": "Jl. Karet Pasar Baru Barat I No.004 \/06, RT.6", "KK": 75.0, "JIWA": 300.0, "BENCANA": "BANJIR" }, "geometry": { "type": "Point", "coordinates": [ 106.816581234634, -6.20388276541974 ] } },
{ "type": "Feature", "properties": { "ID": 5.0, "X": 106.818946, "Y": -6.203446, "KOTA": "JAKARTA PUSAT", "KECAMATAN": "TANAH ABANG", "KELURAHAN": "KARET TENGSIN", "NAMA_TEMPA": "Masjid Itishom", "ALAMAT": "Jl. Karet H. Abdul Jalil No.9, RT.10\/RW.9", "KK": 100.0, "JIWA": 400.0, "BENCANA": "BANJIR" }, "geometry": { "type": "Point", "coordinates": [ 106.818945875625005, -6.20344566376557 ] } },
{ "type": "Feature", "properties": { "ID": 6.0, "X": 106.821743, "Y": -6.206431, "KOTA": "JAKARTA PUSAT", "KECAMATAN": "TANAH ABANG", "KELURAHAN": "KARET TENGSIN", "NAMA_TEMPA": "Parkiran Prince Center", "ALAMAT": "Prince Center, Jl. Jend Sudirman Kav 3-4, RT.10, RT.10\/RW.11", "KK": 30.0, "JIWA": 120.0, "BENCANA": "BANJIR" }, "geometry": { "type": "Point", "coordinates": [ 106.821742881857006, -6.20643112221972 ] } },
{ "type": "Feature", "properties": { "ID": 7.0, "X": 106.854239, "Y": -6.18064, "KOTA": "JAKARTA PUSAT", "KECAMATAN": "JOHAR BARU", "KELURAHAN": "JOHAR BARU", "NAMA_TEMPA": "Masjid Al jihad", "ALAMAT": "Jl. Kramat Jaya Baru 2F RT.1\/RW.1", "KK": 35.0, "JIWA": 140.0, "BENCANA": "BANJIR" }, "geometry": { "type": "Point", "coordinates": [ 106.854239200056, -6.18064008845571 ] } },
{ "type": "Feature", "properties": { "ID": 8.0, "X": 106.83562, "Y": -6.163716, "KOTA": "JAKARTA PUSAT", "KECAMATAN": "SAWAH BESAR", "KELURAHAN": "PASAR BARU", "NAMA_TEMPA": "Masjid An-Nur", "ALAMAT": "JL. Kelinci II, No. 3 RT. 012\/04, Sawah Besar, RT.13\/RW.4", "KK": 0.0, "JIWA": 200.0, "BENCANA": "BANJIR" }, "geometry": { "type": "Point", "coordinates": [ 106.835619920080006, -6.16371632280984 ] } },
{ "type": "Feature", "properties": { "ID": 9.0, "X": 106.836309, "Y": -6.162508, "KOTA": "JAKARTA PUSAT", "KECAMATAN": "SAWAH BESAR", "KELURAHAN": "PASAR BARU", "NAMA_TEMPA": "RS Siloam", "ALAMAT": "Jl. Pasar Baru Timur Dalam No.9, RT.10\/RW.4", "KK": 0.0, "JIWA": 210.0, "BENCANA": "BANJIR" }, "geometry": { "type": "Point", "coordinates": [ 106.836308528817, -6.1625075296233 ] } },
{ "type": "Feature", "properties": { "ID": 10.0, "X": 106.934409, "Y": -6.10828, "KOTA": "JAKARTA UTARA", "KECAMATAN": "CILINCING", "KELURAHAN": "CILINCING", "NAMA_TEMPA": "SMP 143", "ALAMAT": "Jl. Cilincing Bakti No.9 No.1, RT.1\/RW.6", "KK": 0.0, "JIWA": 140.0, "BENCANA": "BANJIR" }, "geometry": { "type": "Point", "coordinates": [ 106.934408671149001, -6.10828043783143 ] } },
{ "type": "Feature", "properties": { "ID": 12.0, "X": 106.933002, "Y": -6.107263, "KOTA": "JAKARTA UTARA", "KECAMATAN": "CILINCING", "KELURAHAN": "CILINCING", "NAMA_TEMPA": "SDN 02 Cilincing", "ALAMAT": "Jl. Cilincing Bakti No.21, RT.4\/RW.9", "KK": 0.0, "JIWA": 215.0, "BENCANA": "BANJIR" }, "geometry": { "type": "Point", "coordinates": [ 106.933001680838004, -6.10726319797183 ] } },
{ "type": "Feature", "properties": { "ID": 13.0, "X": 106.928337, "Y": -6.134817, "KOTA": "JAKARTA UTARA", "KECAMATAN": "CILINCING", "KELURAHAN": "SEMPER BARAT", "NAMA_TEMPA": "RUSUN SEMPER BARAT", "ALAMAT": "Jl. Belibis V No.Kel, RT.15\/RW.4", "KK": 0.0, "JIWA": 90.0, "BENCANA": "BANJIR" }, "geometry": { "type": "Point", "coordinates": [ 106.928337057652996, -6.13481674999864 ] } },
{ "type": "Feature", "properties": { "ID": 15.0, "X": 106.925923, "Y": -6.134461, "KOTA": "JAKARTA UTARA", "KECAMATAN": "CILINCING", "KELURAHAN": "SEMPER BARAT", "NAMA_TEMPA": "RPTRA Triputra persada & Aula Cece Rahma", "ALAMAT": "RPTRA TRIPUTRA PERSADA HIJAU, ASRAMA LINGKUNGAN HIDUP, RT.3\/RW.3", "KK": 0.0, "JIWA": 123.0, "BENCANA": "BANJIR" }, "geometry": { "type": "Point", "coordinates": [ 106.925922742313006, -6.13446134983878 ] } },
{ "type": "Feature", "properties": { "ID": 16.0, "X": 106.924932, "Y": -6.134277, "KOTA": "JAKARTA UTARA", "KECAMATAN": "CILINCING", "KELURAHAN": "SEMPER BARAT", "NAMA_TEMPA": "SMP Yaspi", "ALAMAT": "Jl. Kebersihan No.1, RT.4\/RW.4", "KK": 0.0, "JIWA": 104.0, "BENCANA": "BANJIR" }, "geometry": { "type": "Point", "coordinates": [ 106.924932271144996, -6.13427654976125 ] } },
{ "type": "Feature", "properties": { "ID": 17.0, "X": 106.926202, "Y": -6.129398, "KOTA": "JAKARTA UTARA", "KECAMATAN": "CILINCING", "KELURAHAN": "SEMPER BARAT", "NAMA_TEMPA": "RPTRA Intiland Teduh", "ALAMAT": "Jl. Komp. Pemadam Kebakaran No.71, RT.14\/RW.1", "KK": 0.0, "JIWA": 84.0, "BENCANA": "BANJIR" }, "geometry": { "type": "Point", "coordinates": [ 106.926201999981004, -6.12939798249731 ] } },
{ "type": "Feature", "properties": { "ID": 18.0, "X": 106.921797, "Y": -6.155488, "KOTA": "JAKARTA UTARA", "KECAMATAN": "CILINCING", "KELURAHAN": "SUKAPURA", "NAMA_TEMPA": "MASJID BAITURAHIM", "ALAMAT": "Jl. Rorotan Lama No.19, RT.8\/RW.7", "KK": 0.0, "JIWA": 139.0, "BENCANA": "BANJIR" }, "geometry": { "type": "Point", "coordinates": [ 106.921797144164003, -6.15548799348554 ] } },
{ "type": "Feature", "properties": { "ID": 19.0, "X": 106.910857, "Y": -6.154045, "KOTA": "JAKARTA UTARA", "KECAMATAN": "KELAPA GADING", "KELURAHAN": "PEGANGSAAN DUA", "NAMA_TEMPA": "KANTOR KEL. PEG. DUA", "ALAMAT": "Blok PA 3, Jl. Raya Kelapa Nias No.8, RT.1\/RW.14", "KK": 0.0, "JIWA": 100.0, "BENCANA": "KEBAKARAN" }, "geometry": { "type": "Point", "coordinates": [ 106.910856847069994, -6.15404527652182 ] } },
{ "type": "Feature", "properties": { "ID": 20.0, "X": 106.789546, "Y": -6.137289, "KOTA": "JAKARTA UTARA", "KECAMATAN": "PENJARINGAN", "KELURAHAN": "PEJAGALAN", "NAMA_TEMPA": "SD 09 Pejagalan", "ALAMAT": "Jl Cenang I RT.1\/RW.16", "KK": 0.0, "JIWA": 100.0, "BENCANA": "BANJIR" }, "geometry": { "type": "Point", "coordinates": [ 106.789545708228005, -6.13728857911794 ] } },
{ "type": "Feature", "properties": { "ID": 21.0, "X": 106.777986, "Y": -6.141152, "KOTA": "JAKARTA UTARA", "KECAMATAN": "PENJARINGAN", "KELURAHAN": "PEJAGALAN", "NAMA_TEMPA": "Masjid Baitul Muttaqin", "ALAMAT": "Jl. Gusti Permata 9 No.11, RT.3\/RW.14", "KK": 0.0, "JIWA": 100.0, "BENCANA": "BANJIR" }, "geometry": { "type": "Point", "coordinates": [ 106.777986499980003, -6.14115225292566 ] } },
{ "type": "Feature", "properties": { "ID": 23.0, "X": 106.779873, "Y": -6.133096, "KOTA": "JAKARTA UTARA", "KECAMATAN": "PENJARINGAN", "KELURAHAN": "PEJAGALAN", "NAMA_TEMPA": "Kantor Kelurahan", "ALAMAT": "Jl. Boncel No.1, RT.8\/RW.12", "KK": 0.0, "JIWA": 100.0, "BENCANA": "BANJIR" }, "geometry": { "type": "Point", "coordinates": [ 106.779873257654003, -6.13309584922792 ] } },
{ "type": "Feature", "properties": { "ID": 26.0, "X": 106.700667, "Y": -6.167141, "KOTA": "JAKARTA BARAT", "KECAMATAN": "KALIDERES", "KELURAHAN": "SEMANAN", "NAMA_TEMPA": "6. MASJID BAITUNNUR RT 09\/03", "ALAMAT": "Jl. Kp. Malang No.Rt09\/03, RT.9\/RW.3", "KK": 0.0, "JIWA": 100.0, "BENCANA": "BANJIR" }, "geometry": { "type": "Point", "coordinates": [ 106.700666828834997, -6.16714053187849 ] } },
{ "type": "Feature", "properties": { "ID": 27.0, "X": 106.703096, "Y": -6.173472, "KOTA": "JAKARTA BARAT", "KECAMATAN": "KALIDERES", "KELURAHAN": "SEMANAN", "NAMA_TEMPA": "12. KANTOR PDI", "ALAMAT": "Jl. Semanan Pintu Air No.08, RT.10\/RW.8", "KK": 0.0, "JIWA": 100.0, "BENCANA": "BANJIR" }, "geometry": { "type": "Point", "coordinates": [ 106.703096128818999, -6.17347196783989 ] } },
{ "type": "Feature", "properties": { "ID": 28.0, "X": 106.70525, "Y": -6.159834, "KOTA": "JAKARTA BARAT", "KECAMATAN": "KALIDERES", "KELURAHAN": "SEMANAN", "NAMA_TEMPA": "15. KANTOR KELURAHAN SEMANAN RW 07", "ALAMAT": "Jl. Semanan Raya No.45, RT.6\/RW.7", "KK": 0.0, "JIWA": 112.0, "BENCANA": "BANJIR" }, "geometry": { "type": "Point", "coordinates": [ 106.705249713477002, -6.15983389531553 ] } },
{ "type": "Feature", "properties": { "ID": 29.0, "X": 106.705384, "Y": -6.159528, "KOTA": "JAKARTA BARAT", "KECAMATAN": "KALIDERES", "KELURAHAN": "SEMANAN", "NAMA_TEMPA": "16. SEKOLAH SD 02 SEMANAN", "ALAMAT": "Jl. Semanan Raya No.38, RT.6\/RW.7", "KK": 0.0, "JIWA": 100.0, "BENCANA": "BANJIR" }, "geometry": { "type": "Point", "coordinates": [ 106.705383728818006, -6.15952832830695 ] } },
{ "type": "Feature", "properties": { "ID": 31.0, "X": 106.716906, "Y": -6.121421, "KOTA": "JAKARTA BARAT", "KECAMATAN": "KALIDERES", "KELURAHAN": "TEGAL ALUR", "NAMA_TEMPA": "RPTRA ANGGREK", "ALAMAT": "Jl. Komp. Kebersihan, RT.8\/RW.4", "KK": 0.0, "JIWA": 150.0, "BENCANA": "BANJIR" }, "geometry": { "type": "Point", "coordinates": [ 106.716905576648003, -6.12142104022001 ] } },
{ "type": "Feature", "properties": { "ID": 32.0, "X": 106.73404, "Y": -6.175894, "KOTA": "JAKARTA BARAT", "KECAMATAN": "KEMBANGAN", "KELURAHAN": "KEMBANGAN UTARA", "NAMA_TEMPA": "SDN 01 Kembangan", "ALAMAT": "1, Jl. Kembangan Utara No.83, RT.1\/RW.2", "KK": 50.0, "JIWA": 150.0, "BENCANA": "BANJIR" }, "geometry": { "type": "Point", "coordinates": [ 106.734039869274, -6.17589433677633 ] } },
{ "type": "Feature", "properties": { "ID": 33.0, "X": 106.722096, "Y": -6.143859, "KOTA": "JAKARTA BARAT", "KECAMATAN": "CENGKARENG", "KELURAHAN": "CENGKARENG BARAT", "NAMA_TEMPA": "Jl. Nuri I RT 008\/06 (TK Al Amin & Yayasan Putri Mandiri)", "ALAMAT": "Jl. Nuri I No.15, RT.8\/RW.6", "KK": 0.0, "JIWA": 150.0, "BENCANA": "BANJIR" }, "geometry": { "type": "Point", "coordinates": [ 106.722096028834997, -6.14385895416356 ] } },
{ "type": "Feature", "properties": { "ID": 34.0, "X": 106.722755, "Y": -6.144309, "KOTA": "JAKARTA BARAT", "KECAMATAN": "CENGKARENG", "KELURAHAN": "CENGKARENG BARAT", "NAMA_TEMPA": "Masjid Assalam (Jl. Merpati II RT 005\/06)", "ALAMAT": "Jalan Utama V No. 11 RT6\/RW3", "KK": 0.0, "JIWA": 250.0, "BENCANA": "BANJIR" }, "geometry": { "type": "Point", "coordinates": [ 106.722755084637001, -6.14430932156816 ] } },
{ "type": "Feature", "properties": { "ID": 35.0, "X": 106.725936, "Y": -6.143323, "KOTA": "JAKARTA BARAT", "KECAMATAN": "CENGKARENG", "KELURAHAN": "CENGKARENG BARAT", "NAMA_TEMPA": "Masjid Al Barokah (Jl. Cendrawasih Raya RT 008\/07)", "ALAMAT": "Jl. Cendrawasih Raya Rt.08\/RW.07", "KK": 0.0, "JIWA": 150.0, "BENCANA": "BANJIR" }, "geometry": { "type": "Point", "coordinates": [ 106.725935976643996, -6.1433229163445 ] } },
{ "type": "Feature", "properties": { "ID": 36.0, "X": 106.725475, "Y": -6.14665, "KOTA": "JAKARTA BARAT", "KECAMATAN": "CENGKARENG", "KELURAHAN": "CENGKARENG BARAT", "NAMA_TEMPA": "Gereja Trinitas (Jl. Utama V RT 011\/03)", "ALAMAT": "Jl. Bambu Kuning IX No.11, RT.11\/RW.3", "KK": 0.0, "JIWA": 332.0, "BENCANA": "BANJIR" }, "geometry": { "type": "Point", "coordinates": [ 106.725474628816997, -6.14665002260238 ] } },
{ "type": "Feature", "properties": { "ID": 37.0, "X": 106.720546, "Y": -6.145816, "KOTA": "JAKARTA BARAT", "KECAMATAN": "CENGKARENG", "KELURAHAN": "CENGKARENG BARAT", "NAMA_TEMPA": "Masjid Baiturrahman (Jl. Mesjid Raya RT 008\/06)", "ALAMAT": "Jl. Mesjid Raya RT.08\/RW.06", "KK": 0.0, "JIWA": 120.0, "BENCANA": "BANJIR" }, "geometry": { "type": "Point", "coordinates": [ 106.720546161075006, -6.14581616289988 ] } },
{ "type": "Feature", "properties": { "ID": 38.0, "X": 106.724763, "Y": -6.151915, "KOTA": "JAKARTA BARAT", "KECAMATAN": "CENGKARENG", "KELURAHAN": "CENGKARENG BARAT", "NAMA_TEMPA": "SDN 07 Pagi Cengbar, Jl. Rawa Kramat RT 004\/04", "ALAMAT": "Jl. Rawa Kramat RT.04\/RW.04", "KK": 0.0, "JIWA": 175.0, "BENCANA": "BANJIR" }, "geometry": { "type": "Point", "coordinates": [ 106.724763099962004, -6.15191468403883 ] } },
{ "type": "Feature", "properties": { "ID": 39.0, "X": 106.716146, "Y": -6.158749, "KOTA": "JAKARTA BARAT", "KECAMATAN": "CENGKARENG", "KELURAHAN": "DURI KOSAMBI", "NAMA_TEMPA": "Masjid RW KH. Hasyim Asyari RW 14", "ALAMAT": "Jl. Rusunawa Pesakih No.14, RT.3\/RW.14", "KK": 0.0, "JIWA": 250.0, "BENCANA": "BANJIR" }, "geometry": { "type": "Point", "coordinates": [ 106.716145742310005, -6.15874939558002 ] } },
{ "type": "Feature", "properties": { "ID": 40.0, "X": 106.768576, "Y": -6.142885, "KOTA": "JAKARTA BARAT", "KECAMATAN": "CENGKARENG", "KELURAHAN": "KAPUK", "NAMA_TEMPA": "SDN 05 dan 014, kapuk Rw 01", "ALAMAT": "Jl. Mawar SCB No.7, RW.1", "KK": 0.0, "JIWA": 800.0, "BENCANA": "BANJIR" }, "geometry": { "type": "Point", "coordinates": [ 106.768575957671004, -6.14288502262573 ] } },
{ "type": "Feature", "properties": { "ID": 41.0, "X": 106.749057, "Y": -6.142613, "KOTA": "JAKARTA BARAT", "KECAMATAN": "CENGKARENG", "KELURAHAN": "KAPUK", "NAMA_TEMPA": "SMP 100, Rw 08", "ALAMAT": "Jl. Obsidian No.1, RT.3\/RW.8", "KK": 0.0, "JIWA": 300.0, "BENCANA": "BANJIR" }, "geometry": { "type": "Point", "coordinates": [ 106.749057125554998, -6.14261264743574 ] } },
{ "type": "Feature", "properties": { "ID": 42.0, "X": 106.750566, "Y": -6.137342, "KOTA": "JAKARTA BARAT", "KECAMATAN": "CENGKARENG", "KELURAHAN": "KAPUK", "NAMA_TEMPA": "Masjid jami' al amin, Rt. 017  Rw 012", "ALAMAT": "Jl. Alamin No.165, RT.3\/RW.12", "KK": 0.0, "JIWA": 470.0, "BENCANA": "BANJIR" }, "geometry": { "type": "Point", "coordinates": [ 106.750566081372995, -6.13734197937071 ] } },
{ "type": "Feature", "properties": { "ID": 44.0, "X": 106.764341, "Y": -6.149998, "KOTA": "JAKARTA BARAT", "KECAMATAN": "CENGKARENG", "KELURAHAN": "KEDAUNG KALI ANGKE", "NAMA_TEMPA": "8.Masjid At-Taqwa RW.002", "ALAMAT": "Jl. Pool PPD B No.6, RT.6\/RW.2", "KK": 0.0, "JIWA": 280.0, "BENCANA": "BANJIR" }, "geometry": { "type": "Point", "coordinates": [ 106.764340935920998, -6.14999812005859 ] } },
{ "type": "Feature", "properties": { "ID": 45.0, "X": 106.765578, "Y": -6.157027, "KOTA": "JAKARTA BARAT", "KECAMATAN": "CENGKARENG", "KELURAHAN": "KEDAUNG KALI ANGKE", "NAMA_TEMPA": "20.Masjid Uswatun Hasanah", "ALAMAT": "JL. Kedaung Kaliangke, RT. 01\/05", "KK": 0.0, "JIWA": 150.0, "BENCANA": "BANJIR" }, "geometry": { "type": "Point", "coordinates": [ 106.765578081138003, -6.15702735345686 ] } },
{ "type": "Feature", "properties": { "ID": 46.0, "X": 106.767037, "Y": -6.155918, "KOTA": "JAKARTA BARAT", "KECAMATAN": "CENGKARENG", "KELURAHAN": "KEDAUNG KALI ANGKE", "NAMA_TEMPA": "23.Masjid darul Arqom RT.004\/RW005", "ALAMAT": "Jalan Swadaya Daan Mogot, RT.6\/RW.5", "KK": 0.0, "JIWA": 156.0, "BENCANA": "BANJIR" }, "geometry": { "type": "Point", "coordinates": [ 106.767037192390006, -6.15591756140343 ] } },
{ "type": "Feature", "properties": { "ID": 47.0, "X": 106.756164, "Y": -6.157649, "KOTA": "JAKARTA BARAT", "KECAMATAN": "CENGKARENG", "KELURAHAN": "KEDAUNG KALI ANGKE", "NAMA_TEMPA": "28.Masjid Al-Fudholla RT.001\/RW.008", "ALAMAT": "Gg. H. Musanif No.49, RT.1\/RW.8", "KK": 0.0, "JIWA": 120.0, "BENCANA": "BANJIR" }, "geometry": { "type": "Point", "coordinates": [ 106.756164396719001, -6.15764908992329 ] } },
{ "type": "Feature", "properties": { "ID": 48.0, "X": 106.744212, "Y": -6.165051, "KOTA": "JAKARTA BARAT", "KECAMATAN": "CENGKARENG", "KELURAHAN": "RAWA BUAYA", "NAMA_TEMPA": "RPTRA Carina Sayang", "ALAMAT": "Jl. Kacang Tanah Raya, RT.5\/RW.10", "KK": 640.0, "JIWA": 2000.0, "BENCANA": "BANJIR" }, "geometry": { "type": "Point", "coordinates": [ 106.744212196719005, -6.16505079269449 ] } },
{ "type": "Feature", "properties": { "ID": 49.0, "X": 106.729603, "Y": -6.158305, "KOTA": "JAKARTA BARAT", "KECAMATAN": "CENGKARENG", "KELURAHAN": "RAWA BUAYA", "NAMA_TEMPA": "Masjid Al Ittihadiyah", "ALAMAT": "JL. Rawa Buaya, RT.03\/RW.04", "KK": 240.0, "JIWA": 500.0, "BENCANA": "BANJIR" }, "geometry": { "type": "Point", "coordinates": [ 106.729603169854997, -6.15830464829245 ] } },
{ "type": "Feature", "properties": { "ID": 50.0, "X": 106.729884, "Y": -6.171306, "KOTA": "JAKARTA BARAT", "KECAMATAN": "CENGKARENG", "KELURAHAN": "RAWA BUAYA", "NAMA_TEMPA": "Sekolah Vianney", "ALAMAT": "Jl. Bojong Raya No.98, RT.14\/RW.4", "KK": 270.0, "JIWA": 500.0, "BENCANA": "BANJIR" }, "geometry": { "type": "Point", "coordinates": [ 106.729883752537006, -6.17130632896803 ] } },
{ "type": "Feature", "properties": { "ID": 51.0, "X": 106.73314, "Y": -6.164645, "KOTA": "JAKARTA BARAT", "KECAMATAN": "CENGKARENG", "KELURAHAN": "RAWA BUAYA", "NAMA_TEMPA": "Sekolah SDN 07,08", "ALAMAT": "Jl. Bojong Raya No.7, RT.2\/RW.4", "KK": 350.0, "JIWA": 700.0, "BENCANA": "BANJIR" }, "geometry": { "type": "Point", "coordinates": [ 106.733139812824007, -6.16464536548221 ] } },
{ "type": "Feature", "properties": { "ID": 52.0, "X": 106.734292, "Y": -6.169214, "KOTA": "JAKARTA BARAT", "KECAMATAN": "CENGKARENG", "KELURAHAN": "RAWA BUAYA", "NAMA_TEMPA": "RPTRA Intiland", "ALAMAT": "Jl. Bojong Raya No.66, RT.5\/RW.5", "KK": 89.0, "JIWA": 250.0, "BENCANA": "BANJIR" }, "geometry": { "type": "Point", "coordinates": [ 106.734291667882999, -6.16921446149713 ] } },
{ "type": "Feature", "properties": { "ID": 53.0, "X": 106.744189, "Y": -6.162548, "KOTA": "JAKARTA BARAT", "KECAMATAN": "CENGKARENG", "KELURAHAN": "RAWA BUAYA", "NAMA_TEMPA": "Sekolah Trinitas", "ALAMAT": "Jl. Klingkit No.01, RT.1\/RW.12", "KK": 40.0, "JIWA": 247.0, "BENCANA": "BANJIR" }, "geometry": { "type": "Point", "coordinates": [ 106.744188752536999, -6.16254809198702 ] } },
{ "type": "Feature", "properties": { "ID": 54.0, "X": 106.764487, "Y": -6.162055, "KOTA": "JAKARTA BARAT", "KECAMATAN": "KEBON JERUK", "KELURAHAN": "KEDOYA UTARA", "NAMA_TEMPA": "3. SDN 09 Kedoya Utara RT. 014\/08", "ALAMAT": "Jl. Kedoya Raya Pesing Koneng No.RT. 010\/08, RT.14\/RW.8", "KK": 0.0, "JIWA": 767.0, "BENCANA": "BANJIR" }, "geometry": { "type": "Point", "coordinates": [ 106.764487354392003, -6.16205519230938 ] } },
{ "type": "Feature", "properties": { "ID": 56.0, "X": 106.856061, "Y": -6.212875, "KOTA": "JAKARTA SELATAN", "KECAMATAN": "TEBET", "KELURAHAN": "MANGGARAI", "NAMA_TEMPA": "SD Negeri Manggarai 01 Pagi", "ALAMAT": "Jl. Manggarai Utara 1 No.6, RT.1\/RW.1", "KK": 0.0, "JIWA": 180.0, "BENCANA": "BANJIR" }, "geometry": { "type": "Point", "coordinates": [ 106.856060660210005, -6.21287463982807 ] } },
{ "type": "Feature", "properties": { "ID": 57.0, "X": 106.851179, "Y": -6.217569, "KOTA": "JAKARTA SELATAN", "KECAMATAN": "TEBET", "KELURAHAN": "BUKIT DURI", "NAMA_TEMPA": "Kantor Kelurahan Manggarai", "ALAMAT": "Jl. Lap.Menara Air, RT.7\/RW.11", "KK": 71.0, "JIWA": 236.0, "BENCANA": "BANJIR" }, "geometry": { "type": "Point", "coordinates": [ 106.851178596720004, -6.21756871527753 ] } },
{ "type": "Feature", "properties": { "ID": 58.0, "X": 106.86218, "Y": -6.234899, "KOTA": "JAKARTA SELATAN", "KECAMATAN": "TEBET", "KELURAHAN": "KEBON BARU", "NAMA_TEMPA": "Masjid Al-Aliyah", "ALAMAT": "JL H, RT 09 RW 09, Tebet, RT.6\/RW.14", "KK": 0.0, "JIWA": 1000.0, "BENCANA": "BANJIR" }, "geometry": { "type": "Point", "coordinates": [ 106.862179802284999, -6.23489918413895 ] } },
{ "type": "Feature", "properties": { "ID": 59.0, "X": 106.86576, "Y": -6.224631, "KOTA": "JAKARTA SELATAN", "KECAMATAN": "TEBET", "KELURAHAN": "KEBON BARU", "NAMA_TEMPA": "Masjid Al-Atiq", "ALAMAT": "Jl. Kp. Melayu Besar No.1, RT.3\/RW.1", "KK": 0.0, "JIWA": 1091.0, "BENCANA": "BANJIR" }, "geometry": { "type": "Point", "coordinates": [ 106.865759925556006, -6.22463128712484 ] } },
{ "type": "Feature", "properties": { "ID": 60.0, "X": 106.771516, "Y": -6.239849, "KOTA": "JAKARTA SELATAN", "KECAMATAN": "KEBAYORAN LAMA", "KELURAHAN": "CIPULIR", "NAMA_TEMPA": "GOR Kecamatan (Belakang TNI AL)", "ALAMAT": "Komp. Seskoal, RT.1\/RW.11, RT.1\/RW.11", "KK": 75.0, "JIWA": 300.0, "BENCANA": "BANJIR" }, "geometry": { "type": "Point", "coordinates": [ 106.771516328930005, -6.23984909965376 ] } },
{ "type": "Feature", "properties": { "ID": 61.0, "X": 106.771306, "Y": -6.245258, "KOTA": "JAKARTA SELATAN", "KECAMATAN": "KEBAYORAN LAMA", "KELURAHAN": "KEBAYORAN LAMA UTARA", "NAMA_TEMPA": "GOR Peninggaran (SESKOAL)", "ALAMAT": "No. 70, Jalan Peninggaran Barat IV No. 3", "KK": 175.0, "JIWA": 700.0, "BENCANA": "BANJIR" }, "geometry": { "type": "Point", "coordinates": [ 106.771305939046997, -6.24525796644097 ] } },
{ "type": "Feature", "properties": { "ID": 62.0, "X": 106.775607, "Y": -6.239851, "KOTA": "JAKARTA SELATAN", "KECAMATAN": "KEBAYORAN LAMA", "KELURAHAN": "KEBAYORAN LAMA UTARA", "NAMA_TEMPA": "RPTRA Dwi Chandra Loka", "ALAMAT": "4, RT.4\/RW.9", "KK": 37.0, "JIWA": 162.0, "BENCANA": "KEBAKARAN" }, "geometry": { "type": "Point", "coordinates": [ 106.775607386836995, -6.23985141580908 ] } },
{ "type": "Feature", "properties": { "ID": 63.0, "X": 106.821834, "Y": -6.234865, "KOTA": "JAKARTA SELATAN", "KECAMATAN": "MAMPANG PRAPATAN", "KELURAHAN": "KUNINGAN BARAT", "NAMA_TEMPA": "Gedung ICON", "ALAMAT": "Jl. Kh. Abdul Rochim No.1, RT.9\/RW.1", "KK": 0.0, "JIWA": 182.0, "BENCANA": "BANJIR" }, "geometry": { "type": "Point", "coordinates": [ 106.821833939046996, -6.2348647572709 ] } },
{ "type": "Feature", "properties": { "ID": 64.0, "X": 106.818714, "Y": -6.233453, "KOTA": "JAKARTA SELATAN", "KECAMATAN": "MAMPANG PRAPATAN", "KELURAHAN": "KUNINGAN BARAT", "NAMA_TEMPA": "Masjid At Taisir", "ALAMAT": "Rt. 005\/04, Jl. Poncol Jaya, RT.5\/RW.4", "KK": 25.0, "JIWA": 100.0, "BENCANA": "BANJIR" }, "geometry": { "type": "Point", "coordinates": [ 106.818713559906001, -6.23345260784695 ] } },
{ "type": "Feature", "properties": { "ID": 65.0, "X": 106.818868, "Y": -6.237298, "KOTA": "JAKARTA SELATAN", "KECAMATAN": "MAMPANG PRAPATAN", "KELURAHAN": "KUNINGAN BARAT", "NAMA_TEMPA": "Masjid Darussalam sebelah Puskel", "ALAMAT": "Jl. Poncol Jaya No.34, RW.5", "KK": 25.0, "JIWA": 100.0, "BENCANA": "BANJIR" }, "geometry": { "type": "Point", "coordinates": [ 106.818867725556004, -6.23729801964456 ] } },
{ "type": "Feature", "properties": { "ID": 66.0, "X": 106.824645, "Y": -6.243336, "KOTA": "JAKARTA SELATAN", "KECAMATAN": "MAMPANG PRAPATAN", "KELURAHAN": "MAMPANG PRAPATAN", "NAMA_TEMPA": "Masjid Al Falah", "ALAMAT": "Jalan Mampang Prapatan I No.59, RT.5\/RW.6", "KK": 75.0, "JIWA": 300.0, "BENCANA": "BANJIR" }, "geometry": { "type": "Point", "coordinates": [ 106.824645283229003, -6.24333589585935 ] } },
{ "type": "Feature", "properties": { "ID": 67.0, "X": 106.834394, "Y": -6.242707, "KOTA": "JAKARTA SELATAN", "KECAMATAN": "MAMPANG PRAPATAN", "KELURAHAN": "MAMPANG PRAPATAN", "NAMA_TEMPA": "Masjid Ariyad", "ALAMAT": "Jl. Tegal Parang Utara VI No.16, RT.16\/RW.4", "KK": 55.0, "JIWA": 220.0, "BENCANA": "BANJIR" }, "geometry": { "type": "Point", "coordinates": [ 106.834393983229006, -6.24270693035443 ] } },
{ "type": "Feature", "properties": { "ID": 68.0, "X": 106.822666, "Y": -6.240615, "KOTA": "JAKARTA SELATAN", "KECAMATAN": "MAMPANG PRAPATAN", "KELURAHAN": "MAMPANG PRAPATAN", "NAMA_TEMPA": "Masjid Daarut Taqwa", "ALAMAT": "Gg. Jati No.RT.2, RT.2\/RW.1", "KK": 62.0, "JIWA": 248.0, "BENCANA": "BANJIR" }, "geometry": { "type": "Point", "coordinates": [ 106.822665996973001, -6.24061511694266 ] } },
{ "type": "Feature", "properties": { "ID": 69.0, "X": 106.825691, "Y": -6.252133, "KOTA": "JAKARTA SELATAN", "KECAMATAN": "MAMPANG PRAPATAN", "KELURAHAN": "TEGAL PARANG", "NAMA_TEMPA": "Halaman Masjid Al-Istiqmal, Musholla Al-Badru dan Majlis Taklim RT. 0010", "ALAMAT": "JL. Mampang Prapatan XVI, RT. 01 RW. 03", "KK": 0.0, "JIWA": 469.0, "BENCANA": "BANJIR" }, "geometry": { "type": "Point", "coordinates": [ 106.825691474880003, -6.25213323856894 ] } },
{ "type": "Feature", "properties": { "ID": 70.0, "X": 106.832461, "Y": -6.246522, "KOTA": "JAKARTA SELATAN", "KECAMATAN": "MAMPANG PRAPATAN", "KELURAHAN": "TEGAL PARANG", "NAMA_TEMPA": "Halaman Masjid Al-Istiqomah        { Jl. Masjid Al-Istiqomah, RT.5\/RW.5, Tegal Parang}", "ALAMAT": "Jl. Masjid Al-Istiqomah No.5, RW.5", "KK": 0.0, "JIWA": 240.0, "BENCANA": "BANJIR" }, "geometry": { "type": "Point", "coordinates": [ 106.832461267884, -6.24652203221676 ] } },
{ "type": "Feature", "properties": { "ID": 71.0, "X": 106.82368, "Y": -6.247845, "KOTA": "JAKARTA SELATAN", "KECAMATAN": "MAMPANG PRAPATAN", "KELURAHAN": "TEGAL PARANG", "NAMA_TEMPA": "Halaman Masjid Baitul Halim     {Jl. Mampang Prapatan V, RT.5\/RW.3, Tegal Parang}", "ALAMAT": "Jl. Mampang Prapatan V No.3, RT.5\/RW.3", "KK": 0.0, "JIWA": 209.0, "BENCANA": "BANJIR" }, "geometry": { "type": "Point", "coordinates": [ 106.823679539047006, -6.24784456307503 ] } },
{ "type": "Feature", "properties": { "ID": 72.0, "X": 106.831241, "Y": -6.282051, "KOTA": "JAKARTA SELATAN", "KECAMATAN": "PASAR MINGGU", "KELURAHAN": "JATI PADANG", "NAMA_TEMPA": "Mesjid Al Furqon", "ALAMAT": "Jl. jatipadang Utara Dalam, RT.9\/RW.2", "KK": 32.0, "JIWA": 125.0, "BENCANA": "BANJIR" }, "geometry": { "type": "Point", "coordinates": [ 106.831240961812995, -6.28205065399279 ] } },
{ "type": "Feature", "properties": { "ID": 73.0, "X": 106.828954, "Y": -6.281235, "KOTA": "JAKARTA SELATAN", "KECAMATAN": "PASAR MINGGU", "KELURAHAN": "JATI PADANG", "NAMA_TEMPA": "Pendopo Wiraguna RT 001", "ALAMAT": "RT.1\/RW.5", "KK": 25.0, "JIWA": 100.0, "BENCANA": "BANJIR" }, "geometry": { "type": "Point", "coordinates": [ 106.828954102856002, -6.28123477235452 ] } },
{ "type": "Feature", "properties": { "ID": 74.0, "X": 106.828502, "Y": -6.292636, "KOTA": "JAKARTA SELATAN", "KECAMATAN": "PASAR MINGGU", "KELURAHAN": "JATI PADANG", "NAMA_TEMPA": "Masjid Ar Ridwan RT 006\/09", "ALAMAT": "Jl. Jati Padang Raya No.50, RT.6\/RW.9", "KK": 46.0, "JIWA": 182.0, "BENCANA": "BANJIR" }, "geometry": { "type": "Point", "coordinates": [ 106.828502294865999, -6.29263581157763 ] } },
{ "type": "Feature", "properties": { "ID": 75.0, "X": 106.815455, "Y": -6.274624, "KOTA": "JAKARTA SELATAN", "KECAMATAN": "PASAR MINGGU", "KELURAHAN": "CILANDAK TIMUR", "NAMA_TEMPA": "Yayasan Al Achyar", "ALAMAT": "Jl. Benda Raya Gg. Masjid No.10, RT.11\/RW.4", "KK": 0.0, "JIWA": 150.0, "BENCANA": "BANJIR" }, "geometry": { "type": "Point", "coordinates": [ 106.815454794865005, -6.27462415229304 ] } },
{ "type": "Feature", "properties": { "ID": 76.0, "X": 106.809907, "Y": -6.286066, "KOTA": "JAKARTA SELATAN", "KECAMATAN": "PASAR MINGGU", "KELURAHAN": "CILANDAK TIMUR", "NAMA_TEMPA": "Sekolah NIS", "ALAMAT": "Jalan NIS, Jl. Kenanga Terusan Jl. Ampera Raya No.1, RT.4\/RW.3", "KK": 0.0, "JIWA": 150.0, "BENCANA": "BANJIR" }, "geometry": { "type": "Point", "coordinates": [ 106.809906792619998, -6.28606588225498 ] } },
{ "type": "Feature", "properties": { "ID": 77.0, "X": 106.836093, "Y": -6.304717, "KOTA": "JAKARTA SELATAN", "KECAMATAN": "PASAR MINGGU", "KELURAHAN": "KEBAGUSAN", "NAMA_TEMPA": "RPTRA BAUNG", "ALAMAT": "Jl. Baung III No.12, RT.4\/RW.2", "KK": 0.0, "JIWA": 120.0, "BENCANA": "BANJIR" }, "geometry": { "type": "Point", "coordinates": [ 106.836093439048, -6.30471679682269 ] } },
{ "type": "Feature", "properties": { "ID": 78.0, "X": 106.860275, "Y": -6.250376, "KOTA": "JAKARTA SELATAN", "KECAMATAN": "PANCORAN", "KELURAHAN": "PENGADEGAN", "NAMA_TEMPA": "Rusun Pengadegan", "ALAMAT": "Jl. Pengadegan Timur I, RT.7\/RW.1", "KK": 25.0, "JIWA": 141.0, "BENCANA": "BANJIR" }, "geometry": { "type": "Point", "coordinates": [ 106.860274954393006, -6.25037648948544 ] } },
{ "type": "Feature", "properties": { "ID": 79.0, "X": 106.861292, "Y": -6.250611, "KOTA": "JAKARTA SELATAN", "KECAMATAN": "PANCORAN", "KELURAHAN": "PENGADEGAN", "NAMA_TEMPA": "GOR Kecamatan Pancoran", "ALAMAT": "Jl. Pengadegan Timur 1 No. 9d RT.6\/RW.1", "KK": 43.0, "JIWA": 976.0, "BENCANA": "BANJIR" }, "geometry": { "type": "Point", "coordinates": [ 106.861292254393007, -6.25061142936394 ] } },
{ "type": "Feature", "properties": { "ID": 80.0, "X": 106.857034, "Y": -6.251195, "KOTA": "JAKARTA SELATAN", "KECAMATAN": "PANCORAN", "KELURAHAN": "PENGADEGAN", "NAMA_TEMPA": "Kecamatan Pancoran", "ALAMAT": "Jl. Pengadegan Timur No.12, RT.12\/RW.5", "KK": 0.0, "JIWA": 221.0, "BENCANA": "BANJIR" }, "geometry": { "type": "Point", "coordinates": [ 106.857033910211001, -6.25119525969064 ] } },
{ "type": "Feature", "properties": { "ID": 81.0, "X": 106.8594, "Y": -6.2455, "KOTA": "JAKARTA SELATAN", "KECAMATAN": "PANCORAN", "KELURAHAN": "CIKOKO", "NAMA_TEMPA": "Masjid Raudatul Solihin", "ALAMAT": "Jl. Cikoko No.32, RT.1\/RW.1", "KK": 0.0, "JIWA": 147.0, "BENCANA": "BANJIR" }, "geometry": { "type": "Point", "coordinates": [ 106.8594, -6.2455 ] } },
{ "type": "Feature", "properties": { "ID": 83.0, "X": 106.832, "Y": -6.26491, "KOTA": "JAKARTA SELATAN", "KECAMATAN": "PANCORAN", "KELURAHAN": "KALIBATA", "NAMA_TEMPA": "Musholla Ainul Yakin", "ALAMAT": "Jl. G.M.Ainul Yaqin No.27, RT.1\/RW.9\n", "KK": 80.0, "JIWA": 400.0, "BENCANA": "BANJIR" }, "geometry": { "type": "Point", "coordinates": [ 106.832, -6.26491 ] } },
{ "type": "Feature", "properties": { "ID": 84.0, "X": 106.8363, "Y": -6.24506, "KOTA": "JAKARTA SELATAN", "KECAMATAN": "PANCORAN", "KELURAHAN": "PANCORAN", "NAMA_TEMPA": "Musholah Nurul Islam", "ALAMAT": "Gg. Jati No.RT.2, RT.2\/RW.1", "KK": 0.0, "JIWA": 310.0, "BENCANA": "BANJIR" }, "geometry": { "type": "Point", "coordinates": [ 106.8363, -6.24506 ] } },
{ "type": "Feature", "properties": { "ID": 85.0, "X": 106.8565, "Y": -6.26122, "KOTA": "JAKARTA SELATAN", "KECAMATAN": "PANCORAN", "KELURAHAN": "RAWA JATI", "NAMA_TEMPA": "SDN 05 Rawajati", "ALAMAT": "JL. Mampang Prapatan XVI, RT. 01 RW. 03", "KK": 0.0, "JIWA": 120.0, "BENCANA": "BANJIR" }, "geometry": { "type": "Point", "coordinates": [ 106.8565, -6.26122 ] } },
{ "type": "Feature", "properties": { "ID": 86.0, "X": 106.8576, "Y": -6.2605, "KOTA": "JAKARTA SELATAN", "KECAMATAN": "PANCORAN", "KELURAHAN": "RAWA JATI", "NAMA_TEMPA": "Masjid HIzbulwaton", "ALAMAT": "Jl. Masjid Al-Istiqomah No.5, RW.5", "KK": 0.0, "JIWA": 120.0, "BENCANA": "BANJIR" }, "geometry": { "type": "Point", "coordinates": [ 106.8576, -6.2605 ] } },
{ "type": "Feature", "properties": { "ID": 87.0, "X": 106.8573, "Y": -6.26102, "KOTA": "JAKARTA SELATAN", "KECAMATAN": "PANCORAN", "KELURAHAN": "RAWA JATI", "NAMA_TEMPA": "Puskesmas Rawajati", "ALAMAT": "Jl. Mampang Prapatan V No.3, RT.5\/RW.3", "KK": 0.0, "JIWA": 105.0, "BENCANA": "BANJIR" }, "geometry": { "type": "Point", "coordinates": [ 106.8573, -6.26102 ] } },
{ "type": "Feature", "properties": { "ID": 88.0, "X": 106.809, "Y": -6.31731, "KOTA": "JAKARTA SELATAN", "KECAMATAN": "JAGAKARSA", "KELURAHAN": "JAGAKARSA", "NAMA_TEMPA": "Dekat TPU Kampung Kandang", "ALAMAT": "Jl. jatipadang Utara Dalam, RT.9\/RW.2", "KK": 87.0, "JIWA": 235.0, "BENCANA": "BANJIR" }, "geometry": { "type": "Point", "coordinates": [ 106.809, -6.31731 ] } },
{ "type": "Feature", "properties": { "ID": 89.0, "X": 106.8007, "Y": -6.34209, "KOTA": "JAKARTA SELATAN", "KECAMATAN": "JAGAKARSA", "KELURAHAN": "CIGANJUR", "NAMA_TEMPA": "SMA 97 Brigif Rt. 012\/06", "ALAMAT": "RT.1\/RW.5", "KK": 0.0, "JIWA": 100.0, "BENCANA": "BANJIR" }, "geometry": { "type": "Point", "coordinates": [ 106.8007, -6.34209 ] } },
{ "type": "Feature", "properties": { "ID": 90.0, "X": 106.7716, "Y": -6.25944, "KOTA": "JAKARTA SELATAN", "KECAMATAN": "PESANGGRAHAN", "KELURAHAN": "BINTARO", "NAMA_TEMPA": "Masjid Jami Al Umariyah (jl madrasah)", "ALAMAT": "Jl. Jati Padang Raya No.50, RT.6\/RW.9", "KK": 38.0, "JIWA": 150.0, "BENCANA": "BANJIR" }, "geometry": { "type": "Point", "coordinates": [ 106.7716, -6.25944 ] } },
{ "type": "Feature", "properties": { "ID": 91.0, "X": 106.7717, "Y": -6.25929, "KOTA": "JAKARTA SELATAN", "KECAMATAN": "PESANGGRAHAN", "KELURAHAN": "BINTARO", "NAMA_TEMPA": "MTS al Jihadiah", "ALAMAT": "Jl. Benda Raya Gg. Masjid No.10, RT.11\/RW.4", "KK": 0.0, "JIWA": 150.0, "BENCANA": "BANJIR" }, "geometry": { "type": "Point", "coordinates": [ 106.7717, -6.25929 ] } },
{ "type": "Feature", "properties": { "ID": 92.0, "X": 106.7592, "Y": -6.23548, "KOTA": "JAKARTA SELATAN", "KECAMATAN": "PESANGGRAHAN", "KELURAHAN": "PETUKANGAN UTARA", "NAMA_TEMPA": "Gereja  GPIB sejahtera", "ALAMAT": "Jalan NIS, Jl. Kenanga Terusan Jl. Ampera Raya No.1, RT.4\/RW.3", "KK": 0.0, "JIWA": 200.0, "BENCANA": "BANJIR" }, "geometry": { "type": "Point", "coordinates": [ 106.7592, -6.23548 ] } },
{ "type": "Feature", "properties": { "ID": 93.0, "X": 106.8166, "Y": -6.22433, "KOTA": "JAKARTA SELATAN", "KECAMATAN": "SETIABUDI", "KELURAHAN": "KARET SEMANGGI", "NAMA_TEMPA": "Menara Mulia Lantai 5", "ALAMAT": "Jl. Baung III No.12, RT.4\/RW.2", "KK": 82.0, "JIWA": 325.0, "BENCANA": "BANJIR" }, "geometry": { "type": "Point", "coordinates": [ 106.8166, -6.22433 ] } },
{ "type": "Feature", "properties": { "ID": 94.0, "X": 106.939, "Y": -6.17442, "KOTA": "JAKARTA TIMUR", "KECAMATAN": "CAKUNG", "KELURAHAN": "CAKUNG BARAT", "NAMA_TEMPA": "SD 04", "ALAMAT": "Jl. Pengadegan Timur I, RT.7\/RW.1", "KK": 0.0, "JIWA": 250.0, "BENCANA": "BANJIR" }, "geometry": { "type": "Point", "coordinates": [ 106.939, -6.17442 ] } },
{ "type": "Feature", "properties": { "ID": 95.0, "X": 106.9076, "Y": -6.22168, "KOTA": "JAKARTA TIMUR", "KECAMATAN": "DUREN SAWIT", "KELURAHAN": "KLENDER", "NAMA_TEMPA": "Masjid Istiqomah", "ALAMAT": "Jl. Pengadegan Timur 1 No. 9d RT.6\/RW.1", "KK": 35.0, "JIWA": 140.0, "BENCANA": "BANJIR" }, "geometry": { "type": "Point", "coordinates": [ 106.9076, -6.22168 ] } },
{ "type": "Feature", "properties": { "ID": 96.0, "X": 106.8672, "Y": -6.23931, "KOTA": "JAKARTA TIMUR", "KECAMATAN": "JATINEGARA", "KELURAHAN": "BIDARA CINA", "NAMA_TEMPA": "Aula Kantor Kelurahan Bidara Cina", "ALAMAT": "Jl. Tanjung Lengkong No.1, RT.4\/RW.6", "KK": 80.0, "JIWA": 320.0, "BENCANA": "BANJIR" }, "geometry": { "type": "Point", "coordinates": [ 106.8672, -6.23931 ] } },
{ "type": "Feature", "properties": { "ID": 97.0, "X": 106.8653, "Y": -6.22835, "KOTA": "JAKARTA TIMUR", "KECAMATAN": "JATINEGARA", "KELURAHAN": "BIDARA CINA", "NAMA_TEMPA": "SDN 03 Bidara Cina", "ALAMAT": "Jl. Cikoko No.32, RT.1\/RW.1", "KK": 60.0, "JIWA": 240.0, "BENCANA": "BANJIR" }, "geometry": { "type": "Point", "coordinates": [ 106.8653, -6.22835 ] } },
{ "type": "Feature", "properties": { "ID": 98.0, "X": 106.8684, "Y": -6.23538, "KOTA": "JAKARTA TIMUR", "KECAMATAN": "JATINEGARA", "KELURAHAN": "BIDARA CINA", "NAMA_TEMPA": "Posko Gor Otista", "ALAMAT": "Jl. Otto Iskandardinata, RT.13\/RW.8", "KK": 75.0, "JIWA": 300.0, "BENCANA": "BANJIR" }, "geometry": { "type": "Point", "coordinates": [ 106.8684, -6.23538 ] } },
{ "type": "Feature", "properties": { "ID": 99.0, "X": 106.8598, "Y": -6.21441, "KOTA": "JAKARTA TIMUR", "KECAMATAN": "JATINEGARA", "KELURAHAN": "KAMPUNG MELAYU", "NAMA_TEMPA": "Aula Kantor Kelurahan Kampung Melayu", "ALAMAT": "Kampung Melayu, Jl. Kb. Pala No.RT.1, RT.3\/RW.5", "KK": 45.0, "JIWA": 180.0, "BENCANA": "BANJIR" }, "geometry": { "type": "Point", "coordinates": [ 106.8598, -6.21441 ] } },
{ "type": "Feature", "properties": { "ID": 100.0, "X": 106.8599, "Y": -6.21509, "KOTA": "JAKARTA TIMUR", "KECAMATAN": "JATINEGARA", "KELURAHAN": "KAMPUNG MELAYU", "NAMA_TEMPA": "SMPN 26", "ALAMAT": "Jl. Kb. Pala I No.28, RT.3\/RW.5.", "KK": 51.0, "JIWA": 207.0, "BENCANA": "BANJIR" }, "geometry": { "type": "Point", "coordinates": [ 106.8599, -6.21509 ] } },
{ "type": "Feature", "properties": { "ID": 101.0, "X": 106.8577, "Y": -6.21614, "KOTA": "JAKARTA TIMUR", "KECAMATAN": "JATINEGARA", "KELURAHAN": "KAMPUNG MELAYU", "NAMA_TEMPA": "Aula Masjid Itthadul Ikhwan", "ALAMAT": "Jl. Kebon Pala 1 Tanah Rendah, Gg. XIV No.RT.8, RT.8, RT.7\/RW.8.", "KK": 41.0, "JIWA": 167.0, "BENCANA": "BANJIR" }, "geometry": { "type": "Point", "coordinates": [ 106.8577, -6.21614 ] } },
{ "type": "Feature", "properties": { "ID": 102.0, "X": 106.8622, "Y": -6.21393, "KOTA": "JAKARTA TIMUR", "KECAMATAN": "JATINEGARA", "KELURAHAN": "KAMPUNG MELAYU", "NAMA_TEMPA": "Sudin Kesehatan", "ALAMAT": "JL. MATRAMAN RAYA NO. 218", "KK": 119.0, "JIWA": 477.0, "BENCANA": "BANJIR" }, "geometry": { "type": "Point", "coordinates": [ 106.8622, -6.21393 ] } },
{ "type": "Feature", "properties": { "ID": 103.0, "X": 106.8655, "Y": -6.22253, "KOTA": "JAKARTA TIMUR", "KECAMATAN": "JATINEGARA", "KELURAHAN": "KAMPUNG MELAYU", "NAMA_TEMPA": "Rusunawa Jatinegara Barat", "ALAMAT": "Jl. Jatinegara Bar. No.10, RT.10\/RW.001.", "KK": 129.0, "JIWA": 517.0, "BENCANA": "BANJIR" }, "geometry": { "type": "Point", "coordinates": [ 106.8655, -6.22253 ] } },
{ "type": "Feature", "properties": { "ID": 104.0, "X": 106.8495, "Y": -6.2788, "KOTA": "JAKARTA TIMUR", "KECAMATAN": "KRAMAT JATI", "KELURAHAN": "BALE KAMBANG", "NAMA_TEMPA": "Musholla Al Muhajirin", "ALAMAT": "Jl. Pucung II No.31A, RT.11\/RW.4.", "KK": 45.0, "JIWA": 149.0, "BENCANA": "BANJIR" }, "geometry": { "type": "Point", "coordinates": [ 106.8495, -6.2788 ] } },
{ "type": "Feature", "properties": { "ID": 106.0, "X": 106.853745, "Y": -6.291523, "KOTA": "JAKARTA TIMUR", "KECAMATAN": "KRAMAT JATI", "KELURAHAN": "BALE KAMBANG", "NAMA_TEMPA": "Masjid Darussalam", "ALAMAT": "Jl. Balai Rakyat No.12, RT.5\/RW.5", "KK": 40.0, "JIWA": 140.0, "BENCANA": "BANJIR" }, "geometry": { "type": "Point", "coordinates": [ 106.853744973724005, -6.29152330802138 ] } },
{ "type": "Feature", "properties": { "ID": 107.0, "X": 106.863, "Y": -6.25582, "KOTA": "JAKARTA TIMUR", "KECAMATAN": "KRAMAT JATI", "KELURAHAN": "CAWANG", "NAMA_TEMPA": "Belakang RS. Budi Asih", "ALAMAT": "Jl. Dewi Sartika No.200, RT.1\/RW.3", "KK": 125.0, "JIWA": 500.0, "BENCANA": "BANJIR" }, "geometry": { "type": "Point", "coordinates": [ 106.863, -6.25582 ] } },
{ "type": "Feature", "properties": { "ID": 108.0, "X": 106.8631, "Y": -6.25783, "KOTA": "JAKARTA TIMUR", "KECAMATAN": "KRAMAT JATI", "KELURAHAN": "CAWANG", "NAMA_TEMPA": "Universitas Binawan", "ALAMAT": "Jl. Dewi Sartika No.25-30", "KK": 125.0, "JIWA": 500.0, "BENCANA": "BANJIR" }, "geometry": { "type": "Point", "coordinates": [ 106.8631, -6.25783 ] } },
{ "type": "Feature", "properties": { "ID": 109.0, "X": 106.8735, "Y": -6.28237, "KOTA": "JAKARTA TIMUR", "KECAMATAN": "KRAMAT JATI", "KELURAHAN": "KRAMAT JATI", "NAMA_TEMPA": "Musholla Al- Hikmah", "ALAMAT": "Jl. Dato Tonggara IV No.5, RT.5\/RW.11", "KK": 0.0, "JIWA": 1994.0, "BENCANA": "BANJIR" }, "geometry": { "type": "Point", "coordinates": [ 106.8735, -6.28237 ] } },
{ "type": "Feature", "properties": { "ID": 110.0, "X": 106.8681, "Y": -6.27135, "KOTA": "JAKARTA TIMUR", "KECAMATAN": "KRAMAT JATI", "KELURAHAN": "KRAMAT JATI", "NAMA_TEMPA": "Masjid Al Amin", "ALAMAT": "Jl. Al Amin No.8, RT.2\/RW.6.", "KK": 0.0, "JIWA": 500.0, "BENCANA": "BANJIR" }, "geometry": { "type": "Point", "coordinates": [ 106.8681, -6.27135 ] } },
{ "type": "Feature", "properties": { "ID": 111.0, "X": 106.8716, "Y": -6.2849, "KOTA": "JAKARTA TIMUR", "KECAMATAN": "KRAMAT JATI", "KELURAHAN": "KRAMAT JATI", "NAMA_TEMPA": "Kantor Kecamatan Kramat Jati", "ALAMAT": "Jl. Raya Jakarta-Bogor No.KM.20, RT.14\/RW.11.", "KK": 37.0, "JIWA": 146.0, "BENCANA": "KEBAKARAN" }, "geometry": { "type": "Point", "coordinates": [ 106.8716, -6.2849 ] } },
{ "type": "Feature", "properties": { "ID": 112.0, "X": 106.8903, "Y": -6.24043, "KOTA": "JAKARTA TIMUR", "KECAMATAN": "MAKASAR", "KELURAHAN": "CIPINANG MELAYU", "NAMA_TEMPA": "Masjid Al Muqorobbin", "ALAMAT": "Jl. Al-Muqorrobin No.RT.005, RT.5\/RW.", "KK": 50.0, "JIWA": 100.0, "BENCANA": "BANJIR" }, "geometry": { "type": "Point", "coordinates": [ 106.8903, -6.24043 ] } },
{ "type": "Feature", "properties": { "ID": 113.0, "X": 106.8974, "Y": -6.24348, "KOTA": "JAKARTA TIMUR", "KECAMATAN": "MAKASAR", "KELURAHAN": "CIPINANG MELAYU", "NAMA_TEMPA": "Mesjid Kampus Borobudur", "ALAMAT": "Jl. Raya Kalimalang RT.9\/RW.4", "KK": 49.0, "JIWA": 194.0, "BENCANA": "BANJIR" }, "geometry": { "type": "Point", "coordinates": [ 106.8974, -6.24348 ] } },
{ "type": "Feature", "properties": { "ID": 114.0, "X": 106.8777, "Y": -6.26773, "KOTA": "JAKARTA TIMUR", "KECAMATAN": "MAKASAR", "KELURAHAN": "HALIM PERDANA KUSUMA", "NAMA_TEMPA": "Kantor Kelurahan Halim P", "ALAMAT": "Jl. Squadron No.1A, RT.10\/RW.5.", "KK": 100.0, "JIWA": 400.0, "BENCANA": "BANJIR" }, "geometry": { "type": "Point", "coordinates": [ 106.8777, -6.26773 ] } },
{ "type": "Feature", "properties": { "ID": 115.0, "X": 106.8794, "Y": -6.26925, "KOTA": "JAKARTA TIMUR", "KECAMATAN": "MAKASAR", "KELURAHAN": "HALIM PERDANA KUSUMA", "NAMA_TEMPA": "Yayasan Yatim Piatu Nurul Hikmah Halim PK RW.05", "ALAMAT": "Jl. Kp. Baru 1 No.5, RT.8\/RW.5", "KK": 100.0, "JIWA": 400.0, "BENCANA": "BANJIR" }, "geometry": { "type": "Point", "coordinates": [ 106.8794, -6.26925 ] } },
{ "type": "Feature", "properties": { "ID": 116.0, "X": 106.8797, "Y": -6.27018, "KOTA": "JAKARTA TIMUR", "KECAMATAN": "MAKASAR", "KELURAHAN": "HALIM PERDANA KUSUMA", "NAMA_TEMPA": "Musholah Al. Ikhwan", "ALAMAT": "Jl. Squadron No.7, RT.1\/RW.5", "KK": 95.0, "JIWA": 381.0, "BENCANA": "BANJIR" }, "geometry": { "type": "Point", "coordinates": [ 106.8797, -6.27018 ] } },
{ "type": "Feature", "properties": { "ID": 118.0, "X": 106.8787, "Y": -6.25004, "KOTA": "JAKARTA TIMUR", "KECAMATAN": "MAKASAR", "KELURAHAN": "KEBON PALA", "NAMA_TEMPA": "Masjid Darul Khoirot RW.08", "ALAMAT": "Jl Darul Khairot RT.2\/RW.8", "KK": 20.0, "JIWA": 80.0, "BENCANA": "BANJIR" }, "geometry": { "type": "Point", "coordinates": [ 106.8787, -6.25004 ] } },
{ "type": "Feature", "properties": { "ID": 119.0, "X": 106.8769, "Y": -6.27969, "KOTA": "JAKARTA TIMUR", "KECAMATAN": "MAKASAR", "KELURAHAN": "MAKASAR", "NAMA_TEMPA": "Gor Kelurahan Makasar", "ALAMAT": "Jl. Gelanggang Remaja No.43, RT.1\/RW.5", "KK": 75.0, "JIWA": 300.0, "BENCANA": "BANJIR" }, "geometry": { "type": "Point", "coordinates": [ 106.8769, -6.27969 ] } },
{ "type": "Feature", "properties": { "ID": 120.0, "X": 106.8579, "Y": -6.21093, "KOTA": "JAKARTA TIMUR", "KECAMATAN": "MATRAMAN", "KELURAHAN": "KEBON MANGGIS", "NAMA_TEMPA": "SDN 01 Kebon Manggis", "ALAMAT": "Jl. TM. Slamet Riyadi II No.7B, RT.7\/RW.4.", "KK": 50.0, "JIWA": 201.0, "BENCANA": "BANJIR" }, "geometry": { "type": "Point", "coordinates": [ 106.8579, -6.21093 ] } },
{ "type": "Feature", "properties": { "ID": 24.0, "X": 106.69835, "Y": -6.15602, "KOTA": "JAKARTA BARAT", "KECAMATAN": "KALIDERES", "KELURAHAN": "KALIDERES", "NAMA_TEMPA": "Masjid At Taqwa", "ALAMAT": "Jl. Taman Hijau No 2 RT 8 RW 4", "KK": 37.0, "JIWA": 147.0, "BENCANA": "BANJIR" }, "geometry": { "type": "Point", "coordinates": [ 106.698500160238012, -6.156269337827762 ] } },
{ "type": "Feature", "properties": { "ID": 11.0, "X": 106.93881, "Y": -6.10797, "KOTA": "JAKARTA UTARA\n", "KECAMATAN": "CILINCING", "KELURAHAN": "CILINCING", "NAMA_TEMPA": "AULA KELURAHAN", "ALAMAT": "Jl. Cilincing No.36, RT.4\/RW.9\n", "KK": 0.0, "JIWA": 75.0, "BENCANA": "BANJIR" }, "geometry": { "type": "Point", "coordinates": [ 106.93888955489065, -6.109457084856255 ] } },
{ "type": "Feature", "properties": { "ID": 14.0, "X": 106.92862, "Y": -6.13503, "KOTA": "JAKARTA UTARA", "KECAMATAN": "CILINCING", "KELURAHAN": "SEMPER BARAT", "NAMA_TEMPA": "RUSUN EMBRIO", "ALAMAT": "Jl. Belibis V No.Kel, RT.15\/RW.4\n", "KK": 0.0, "JIWA": 50.0, "BENCANA": "BANJIR" }, "geometry": { "type": "Point", "coordinates": [ 106.928234629676439, -6.135062449793977 ] } },
{ "type": "Feature", "properties": { "ID": 22.0, "X": 106.77672, "Y": -6.143548, "KOTA": "JAKARTA UTARA", "KECAMATAN": "PENJARINGAN", "KELURAHAN": "PEJAGALAN", "NAMA_TEMPA": "MASJID SHIROTUL MUSTAQIEM", "ALAMAT": "Jl. Tlk. Permata 2 No.11, RT.3\/RW.15\n", "KK": 0.0, "JIWA": 300.0, "BENCANA": "BANJIR" }, "geometry": { "type": "Point", "coordinates": [ 106.778124090751248, -6.139670842597868 ] } },
{ "type": "Feature", "properties": { "ID": 25.0, "X": 106.702749, "Y": -6.159235, "KOTA": "JAKARTA BARAT", "KECAMATAN": "KALIDERES", "KELURAHAN": "SEMANAN", "NAMA_TEMPA": "AR ROHMAH", "ALAMAT": "Jl. Raya Kramat Semanan No.70, RT.7\/RW.2\n", "KK": 0.0, "JIWA": 100.0, "BENCANA": "BANJIR" }, "geometry": { "type": "Point", "coordinates": [ 106.702829368609486, -6.159239918599333 ] } },
{ "type": "Feature", "properties": { "ID": 30.0, "X": 106.71633, "Y": -6.15882, "KOTA": "JAKARTA BARAT", "KECAMATAN": "KALIDERES", "KELURAHAN": "SEMANAN", "NAMA_TEMPA": "MASJID HASYIM ASYHARI", "ALAMAT": "Jl. Rusunawa Pesakih No.14, RT.3\/RW.14\n", "KK": 0.0, "JIWA": 220.0, "BENCANA": "BANJIR" }, "geometry": { "type": "Point", "coordinates": [ 106.715273251832841, -6.15845726619448 ] } },
{ "type": "Feature", "properties": { "ID": 43.0, "X": 106.75062, "Y": -6.13845, "KOTA": "JAKARTA BARAT", "KECAMATAN": "CENGKARENG", "KELURAHAN": "KAPUK", "NAMA_TEMPA": "MAJLIS TA'LIM MIFTAHUL", "ALAMAT": "Jalan Perkampungan Kapuk No.212, RT.9\/RW.16,\n", "KK": 0.0, "JIWA": 100.0, "BENCANA": "BANJIR" }, "geometry": { "type": "Point", "coordinates": [ 106.747401980184037, -6.138998589123678 ] } },
{ "type": "Feature", "properties": { "ID": 55.0, "X": 106.7596, "Y": -6.16876, "KOTA": "JAKARTA BARAT", "KECAMATAN": "KEBON JERUK", "KELURAHAN": "KEDOYA UTARA", "NAMA_TEMPA": "GEREJA SITI MARYAM", "ALAMAT": "Jl. Komp. Green Garden No.1, RT.1\/RW.4", "KK": 0.0, "JIWA": 132.0, "BENCANA": "BANJIR" }, "geometry": { "type": "Point", "coordinates": [ 106.759605582990702, -6.16886802823876 ] } },
{ "type": "Feature", "properties": { "ID": 82.0, "X": 106.8316, "Y": -6.27122, "KOTA": "JAKARTA SELATAN", "KECAMATAN": "PANCORAN", "KELURAHAN": "KALIBATA", "NAMA_TEMPA": "Yayasan Yatim RT 006\/05\n", "ALAMAT": "Jl. Hj. Tutty Alawiyah Jl. Buncit Raya Kalibata Pulo Gg. IV, RT.2\/RW.5\n", "KK": 800.0, "JIWA": 3200.0, "BENCANA": "BANJIR" }, "geometry": { "type": "Point", "coordinates": [ 106.83161689384562, -6.27123646385246 ] } },
{ "type": "Feature", "properties": { "ID": 105.0, "X": 106.8502, "Y": -6.2863, "KOTA": "JAKARTA TIMUR", "KECAMATAN": "KRAMAT JATI", "KELURAHAN": "BALEKAMBANG", "NAMA_TEMPA": "Gedung Pertanian\n", "ALAMAT": "RT.7\/RW.5\n", "KK": 300.0, "JIWA": 700.0, "BENCANA": "BANJIR" }, "geometry": { "type": "Point", "coordinates": [ 106.850445211377235, -6.286521666217193 ] } },
{ "type": "Feature", "properties": { "ID": 117.0, "X": 106.8794, "Y": -6.26934, "KOTA": "JAKARTA TIMUR", "KECAMATAN": "MAKASAR", "KELURAHAN": "HALIM PERDANA KUSUMA", "NAMA_TEMPA": "Musholah Ar. Rahman\n", "ALAMAT": "Jl. Kp. Baru 1 Gg. Prokalino No.98, RT.8\/RW.5\n", "KK": 95.0, "JIWA": 381.0, "BENCANA": "BANJIR" }, "geometry": { "type": "Point", "coordinates": [ 106.87946558369373, -6.269413852053668 ] } }
]
}
