{"type": "FeatureCollection", "name": "ciliwung_centerline", "features": [{"type": "Feature", "properties": {"name": "Ciliwung", "length_km": 74.31, "source": "OpenStreetMap (Overpass), named Ciliwung waterways"}, "geometry": {"type": "LineString", "coordinates": [[106.83702, -6.63334], [106.833477, -6.633464], [106.830223, -6.632218], [106.82748, -6.629923], [106.826151, -6.626735], [106.823305, -6.624727], [106.820389, -6.622714], [106.818889, -6.619467], [106.81652, -6.617031], [106.81306, -6.616246], [106.810175, -6.614516], [106.810334, -6.611019], [106.807571, -6.608821], [106.805315, -6.606082], [106.80313, -6.603382], [106.80109, -6.600446], [106.800261, -6.597132], [106.800477, -6.593784], [106.798979, -6.590565], [106.797698, -6.587483], [106.797708, -6.5845], [106.79805, -6.581165], [106.800972, -6.579115], [106.802312, -6.575912], [106.804975, -6.573786], [106.807317, -6.571038], [106.807618, -6.567949], [106.807741, -6.564661], [106.808779, -6.561745], [106.80925, -6.558603], [106.807485, -6.555557], [106.805655, -6.553129], [106.8035, -6.551081], [106.801677, -6.548546], [106.801614, -6.545284], [106.801353, -6.542913], [106.800775, -6.540155], [106.803272, -6.53773], [106.804251, -6.534381], [106.804388, -6.531085], [106.805685, -6.528604], [106.807481, -6.526156], [106.804279, -6.525205], [106.803765, -6.521706], [106.802535, -6.519185], [106.80431, -6.516451], [106.801286, -6.517526], [106.800455, -6.514497], [106.797775, -6.513037], [106.800853, -6.511432], [106.799394, -6.508421], [106.798454, -6.506328], [106.797227, -6.503819], [106.799462, -6.504604], [106.799802, -6.502693], [106.799311, -6.500373], [106.802792, -6.499684], [106.80285, -6.496966], [106.805668, -6.49704], [106.807947, -6.495575], [106.807452, -6.492026], [106.807642, -6.489538], [106.809339, -6.487114], [106.810292, -6.489662], [106.813831, -6.489339], [106.814395, -6.487955], [106.814057, -6.485515], [106.814011, -6.483748], [106.814291, -6.480961], [106.815149, -6.478065], [106.815598, -6.474935], [106.816185, -6.471744], [106.814811, -6.468493], [106.815004, -6.465639], [106.818035, -6.465128], [106.815307, -6.464185], [106.815709, -6.462021], [106.813644, -6.460102], [106.816241, -6.458379], [106.814115, -6.455624], [106.814572, -6.452273], [106.815588, -6.449497], [106.813942, -6.446518], [106.812518, -6.44416], [106.813865, -6.442875], [106.813595, -6.43975], [106.813989, -6.436722], [106.81225, -6.434415], [106.814531, -6.432114], [106.816746, -6.430778], [106.813709, -6.42975], [106.815579, -6.426889], [106.817738, -6.428826], [106.818366, -6.426229], [106.818568, -6.423203], [106.821877, -6.422036], [106.819145, -6.42025], [106.819748, -6.418186], [106.81983, -6.415942], [106.818176, -6.413105], [106.819236, -6.409658], [106.819596, -6.406381], [106.823109, -6.406331], [106.826155, -6.404723], [106.826875, -6.403527], [106.829463, -6.402229], [106.831935, -6.399874], [106.830243, -6.398039], [106.829254, -6.395678], [106.831715, -6.394804], [106.829391, -6.392927], [106.830306, -6.390532], [106.832145, -6.391403], [106.83375, -6.388218], [106.832214, -6.385578], [106.831967, -6.382488], [106.83546, -6.382017], [106.837727, -6.380812], [106.83935, -6.378577], [106.837896, -6.376084], [106.841218, -6.375668], [106.841586, -6.372514], [106.838741, -6.370825], [106.838384, -6.36939], [106.84145, -6.368039], [106.838843, -6.367591], [106.839781, -6.364676], [106.839198, -6.361457], [106.838132, -6.364016], [106.837346, -6.361154], [106.838044, -6.359112], [106.835904, -6.358677], [106.836054, -6.35612], [106.836631, -6.354801], [106.835668, -6.351788], [106.83917, -6.351797], [106.838092, -6.348596], [106.839325, -6.345996], [106.838695, -6.343225], [106.835817, -6.344493], [106.837309, -6.34166], [106.840176, -6.342553], [106.839524, -6.340746], [106.840351, -6.337528], [106.839783, -6.334276], [106.841571, -6.332214], [106.842217, -6.331044], [106.840579, -6.328431], [106.842273, -6.327574], [106.842326, -6.324643], [106.840047, -6.322162], [106.839025, -6.321604], [106.839751, -6.318844], [106.843073, -6.318204], [106.845062, -6.316506], [106.847755, -6.315216], [106.848269, -6.317444], [106.848778, -6.318554], [106.851002, -6.316588], [106.85165, -6.313671], [106.853115, -6.3111], [106.855012, -6.313822], [106.857871, -6.311788], [106.856894, -6.309596], [106.857588, -6.306304], [106.856844, -6.30447], [106.854507, -6.302277], [106.854284, -6.299433], [106.851548, -6.301067], [106.850184, -6.298691], [106.852304, -6.298019], [106.851121, -6.295748], [106.854416, -6.295914], [106.85297, -6.29416], [106.853891, -6.29232], [106.853175, -6.290516], [106.851201, -6.292872], [106.849473, -6.290211], [106.850859, -6.287979], [106.84795, -6.287426], [106.848364, -6.284309], [106.848123, -6.282311], [106.850495, -6.279678], [106.847172, -6.279684], [106.848889, -6.27722], [106.851781, -6.276057], [106.852055, -6.273147], [106.854393, -6.271942], [106.85658, -6.271688], [106.855482, -6.269843], [106.85594, -6.268449], [106.854363, -6.265476], [106.856754, -6.264265], [106.854526, -6.262738], [106.856802, -6.262836], [106.859622, -6.261808], [106.860442, -6.258288], [106.860069, -6.25613], [106.858931, -6.254713], [106.857841, -6.253076], [106.860472, -6.251105], [106.861803, -6.253939], [106.86222, -6.251127], [106.863642, -6.24884], [106.861996, -6.245705], [106.862552, -6.242165], [106.863163, -6.238614], [106.865502, -6.237204], [106.866895, -6.238203], [106.865247, -6.235107], [106.865335, -6.232568], [106.863707, -6.230071], [106.86477, -6.226886], [106.86461, -6.224525], [106.864074, -6.22191], [106.861797, -6.219909], [106.860163, -6.221199], [106.862014, -6.218132], [106.862484, -6.216344], [106.859398, -6.216664], [106.856823, -6.217167], [106.857312, -6.213966], [106.856793, -6.211749], [106.853691, -6.210241], [106.850541, -6.208562], [106.849639, -6.205789], [106.852982, -6.206062], [106.85563, -6.204819], [106.8542, -6.20227], [106.85118, -6.201778], [106.850324, -6.200283]]}}]}