<?xml version="1.0" encoding="UTF-8"?>
<osm version="0.6" generator="Overpass API 0.7.62.11 87bfad18">
<note>The data included in this document is from www.openstreetmap.org. The data is made available under ODbL.</note>
<meta osm_base="2026-09-02T20:17:43Z"/>

  <node id="11409416549" lat="-6.2700584" lon="106.8916391"/>
  <node id="11409416550" lat="-6.2701050" lon="106.8916793"/>
  <node id="11409416551" lat="-6.2701397" lon="106.8917732"/>
  <node id="11409416552" lat="-6.2701037" lon="106.8918483"/>
  <node id="11409416553" lat="-6.2699504" lon="106.8919221"/>
  <node id="11409416554" lat="-6.2698411" lon="106.8919556"/>
  <node id="11409416555" lat="-6.2697651" lon="106.8919261"/>
  <node id="11409416556" lat="-6.2697318" lon="106.8918577"/>
  <node id="11409416557" lat="-6.2697091" lon="106.8917786"/>
  <node id="11409416558" lat="-6.2697358" lon="106.8917544"/>
  <node id="11409416559" lat="-6.2698531" lon="106.8917504"/>
  <node id="11409416560" lat="-6.2699091" lon="106.8917303"/>
  <node id="11409416561" lat="-6.2699770" lon="106.8916431"/>
  <node id="11409416562" lat="-6.2706209" lon="106.8918765"/>
  <node id="11409416563" lat="-6.2705596" lon="106.8919140"/>
  <node id="11409416564" lat="-6.2701170" lon="106.8919167"/>
  <node id="11409416565" lat="-6.2699330" lon="106.8919784"/>
  <node id="11409416566" lat="-6.2697677" lon="106.8920588"/>
  <node id="11409416567" lat="-6.2696264" lon="106.8920615"/>
  <node id="11409416568" lat="-6.2694718" lon="106.8919837"/>
  <node id="11409430669" lat="-6.2694665" lon="106.8918470"/>
  <node id="11409430670" lat="-6.2696264" lon="106.8914500"/>
  <node id="11409430671" lat="-6.2698184" lon="106.8911174"/>
  <node id="11409430672" lat="-6.2698744" lon="106.8910852"/>
  <node id="11409430673" lat="-6.2699224" lon="106.8911093"/>
  <node id="11409430674" lat="-6.2702237" lon="106.8913829"/>
  <node id="11409430675" lat="-6.2705649" lon="106.8917987"/>
  <way id="1230291970">
    <nd ref="11409416561"/>
    <nd ref="11409416560"/>
    <nd ref="11409416559"/>
    <nd ref="11409416558"/>
    <nd ref="11409416557"/>
    <nd ref="11409416556"/>
    <nd ref="11409416555"/>
    <nd ref="11409416554"/>
    <nd ref="11409416553"/>
    <nd ref="11409416552"/>
    <nd ref="11409416551"/>
    <nd ref="11409416550"/>
    <nd ref="11409416549"/>
    <nd ref="11409416561"/>
  </way>
  <way id="1230291971">
    <nd ref="11409430675"/>
    <nd ref="11409430674"/>
    <nd ref="11409430673"/>
    <nd ref="11409430672"/>
    <nd ref="11409430671"/>
    <nd ref="11409430670"/>
    <nd ref="11409430669"/>
    <nd ref="11409416568"/>
    <nd ref="11409416567"/>
    <nd ref="11409416566"/>
    <nd ref="11409416565"/>
    <nd ref="11409416564"/>
    <nd ref="11409416563"/>
    <nd ref="11409416562"/>
    <nd ref="11409430675"/>
  </way>
  <relation id="16810222">
    <member type="way" ref="1230291970" role="inner"/>
    <member type="way" ref="1230291971" role="outer"/>
    <tag k="natural" v="water"/>
    <tag k="type" v="multipolygon"/>
    <tag k="water" v="pond"/>
  </relation>

</osm>
