{"type": "FeatureCollection", "features": [{"type": "Feature", "properties": {"name": "Cipinang", "source": "Bing", "waterway": "river", "osm_type": "way", "osm_id": 28775376}, "geometry": {"type": "LineString", "coordinates": [[106.8791118, -6.2466363], [106.8791828, -6.2466936], [106.8792392, -6.2467016], [106.879287, -6.2466777], [106.8795096, -6.2465604], [106.8796839, -6.2464404], [106.8797394, -6.2463342], [106.8797966, -6.2462245], [106.8798636, -6.2460032], [106.8798985, -6.2457925], [106.8798086, -6.2456205], [106.8795458, -6.2454392], [106.8795052, -6.2453366], [106.8795009, -6.2451396], [106.8795007, -6.2451318], [106.8795112, -6.2448575], [106.8794498, -6.2446199], [106.8793425, -6.2444532], [106.8792636, -6.2443684], [106.8791601, -6.2442572], [106.8791325, -6.244211], [106.8790676, -6.2441026], [106.8790904, -6.2440026], [106.8791701, -6.2438645], [106.8792974, -6.2436937], [106.879445, -6.2428688], [106.8794144, -6.2427373], [106.8793584, -6.2425855], [106.8793432, -6.242378], [106.8793764, -6.242199], [106.8794501, -6.2418011], [106.879221, -6.2413254], [106.8789156, -6.2411382], [106.8788492, -6.2399721], [106.8788491, -6.2399112], [106.8788284, -6.2379376], [106.8785929, -6.23693], [106.8785307, -6.2364166], [106.8782094, -6.2347909], [106.8774648, -6.2321989], [106.8773245, -6.2314502], [106.8772845, -6.2313583], [106.8772285, -6.2312295], [106.8771914, -6.2311122], [106.8771711, -6.2309382], [106.8771724, -6.2307602], [106.8772816, -6.2304997], [106.877767, -6.229848], [106.8781078, -6.2294689], [106.8783497, -6.2291318], [106.8780963, -6.2290493], [106.8778263, -6.2290346], [106.8776775, -6.2289498], [106.877342, -6.2287328], [106.8771176, -6.2287845], [106.8770291, -6.2287618], [106.8769176, -6.2287221], [106.8768454, -6.2286832], [106.8767823, -6.2286272], [106.8767661, -6.2285506], [106.8767877, -6.2284192], [106.8768239, -6.2283166], [106.8768587, -6.2282755], [106.877013, -6.2282166], [106.8772085, -6.2281594], [106.8773805, -6.2281659], [106.8774707, -6.2281533], [106.8775401, -6.2281152], [106.8775744, -6.2280772], [106.8774921, -6.2280126], [106.8773923, -6.2279207], [106.8773085, -6.2278355], [106.8772401, -6.2277745], [106.8771642, -6.2276916], [106.8770537, -6.2275638], [106.8770015, -6.2275383], [106.8769471, -6.2275459], [106.8768591, -6.2275923], [106.8768151, -6.2277342], [106.8766968, -6.2277998], [106.8766046, -6.227788], [106.8765525, -6.227663], [106.8765219, -6.227179], [106.8764251, -6.2268316], [106.8763511, -6.2264234], [106.8763656, -6.2260474], [106.8764774, -6.2254339], [106.8765823, -6.2252704], [106.8767685, -6.2251835], [106.8769683, -6.2251118], [106.877184, -6.22494], [106.8772638, -6.2247556], [106.8772871, -6.2247072], [106.8773081, -6.2246635], [106.8773589, -6.2245572], [106.877419, -6.224432], [106.87738, -6.2242401], [106.8773521, -6.224038], [106.8774765, -6.2235589], [106.8778324, -6.2233909], [106.878032, -6.2232578], [106.878168, -6.223137], [106.8782389, -6.2230204], [106.8783298, -6.2228708], [106.8783349, -6.222866], [106.8784104, -6.2227955], [106.8785727, -6.2227798], [106.8787175, -6.2228265], [106.8788168, -6.2228984], [106.8789439, -6.223052], [106.879118, -6.223341], [106.87923, -6.2233531], [106.8793392, -6.2233649], [106.8794723, -6.2233793], [106.8796105, -6.2233943], [106.8797682, -6.2233866], [106.8797849, -6.2232465], [106.8797721, -6.223094], [106.8797637, -6.2229946], [106.8797894, -6.222908], [106.8799845, -6.2227808], [106.8801115, -6.222698], [106.8803284, -6.2225072], [106.8804376, -6.2224112], [106.880533, -6.2223666], [106.8807025, -6.2222875], [106.8807823, -6.2222503], [106.8808842, -6.2222027], [106.8809121, -6.2220846], [106.8809572, -6.2218937], [106.880988, -6.2217633], [106.8810106, -6.2215645], [106.8810191, -6.2214595], [106.8810155, -6.221306], [106.8810144, -6.2212584], [106.8809704, -6.2209644], [106.8810117, -6.2208226], [106.8811397, -6.2205826], [106.8818389, -6.2207191], [106.8820213, -6.2205165], [106.882042, -6.2201064], [106.8821413, -6.2200498], [106.8822539, -6.2200024], [106.8823491, -6.2199751], [106.8824591, -6.2200231], [106.8829848, -6.2199338], [106.8832765, -6.219915], [106.8834341, -6.2199004], [106.8835514, -6.2199715], [106.8837238, -6.2201195], [106.8837789, -6.2201094], [106.8838078, -6.2200763], [106.8838017, -6.2198241], [106.8838365, -6.2197001], [106.8839156, -6.2196401], [106.8840538, -6.2196428], [106.8842429, -6.2196868], [106.884444, -6.2198054], [106.8845272, -6.2199721], [106.8846235, -6.2201001], [106.8847702, -6.2202163], [106.885327, -6.2201406], [106.885374, -6.2196908], [106.8857524, -6.2192095], [106.8856486, -6.2189852], [106.8855789, -6.2187951], [106.8856395, -6.2185258], [106.8856014, -6.2184029], [106.8855679, -6.2183269], [106.8855451, -6.2181602], [106.8856301, -6.2180997], [106.8857929, -6.2179674], [106.8858935, -6.2178987], [106.8860198, -6.2178467], [106.8861389, -6.2178331], [106.8864361, -6.2177645], [106.8873381, -6.2176091], [106.8876922, -6.2173638], [106.8878853, -6.2170118], [106.8880248, -6.2169051], [106.8886135, -6.2168464], [106.8888101, -6.2168847], [106.8891942, -6.2170545], [106.8895054, -6.2170545], [106.8900096, -6.2171718], [106.8902242, -6.2171931], [106.8904066, -6.2171185], [106.8907178, -6.2169318], [106.8910021, -6.2167238], [106.891175, -6.2165732], [106.8914869, -6.2161057], [106.8917498, -6.2156021], [106.8919765, -6.2152981], [106.892136, -6.2152098], [106.8923854, -6.2151794], [106.8924813, -6.2151312], [106.8925303, -6.2149688], [106.8924054, -6.2141155], [106.89237, -6.2137913], [106.8923701, -6.2135477]]}}, {"type": "Feature", "properties": {"name": "Sunter", "waterway": "river", "osm_type": "way", "osm_id": 28809562}, "geometry": {"type": "LineString", "coordinates": [[106.8961649, -6.2160814], [106.896082, -6.215764], [106.8959569, -6.2155353], [106.8958382, -6.2146087], [106.8957569, -6.2136182]]}}, {"type": "Feature", "properties": {"natural": "water", "water": "river", "osm_type": "way", "osm_id": 29253815}, "geometry": {"type": "Polygon", "coordinates": [[[106.8646509, -6.2286618], [106.8645919, -6.2288138], [106.8642117, -6.2293059], [106.8638278, -6.2296406], [106.863606, -6.2299521], [106.8634567, -6.2301945], [106.8633185, -6.2304745], [106.8632448, -6.2306918], [106.8632381, -6.2308011], [106.8632622, -6.2309238], [106.863311, -6.2310423], [106.8633908, -6.2311679], [106.8635427, -6.2313592], [106.8638847, -6.2315512], [106.8641435, -6.2317299], [106.864413, -6.2319552], [106.8648234, -6.2322633], [106.8651205, -6.2324918], [106.8654075, -6.2328904], [106.8657267, -6.2333477], [106.8658125, -6.2334769], [106.8659385, -6.2336943], [106.8661933, -6.2341782], [106.8661974, -6.2342956], [106.8661761, -6.2344373], [106.8661129, -6.2345728], [106.8659878, -6.2346398], [106.8653914, -6.2347342], [106.8651822, -6.2348275], [106.8651232, -6.2349101], [106.8651285, -6.2350728], [106.8651715, -6.2353047], [106.8653082, -6.2356061], [106.8655255, -6.2358754], [106.865815, -6.2361008], [106.8659842, -6.2362397], [106.8660832, -6.2363281], [106.8662571, -6.2366416], [106.8663193, -6.2367822], [106.8663844, -6.2369495], [106.866437, -6.2370779], [106.8664794, -6.2372244], [106.8665017, -6.2373711], [106.8665573, -6.2374832], [106.8665601, -6.2374889], [106.8665938, -6.2375805], [106.8666744, -6.2377994], [106.8667149, -6.2379148], [106.8667683, -6.238067], [106.8668353, -6.238258], [106.8669102, -6.2382492], [106.8670177, -6.2382366], [106.8668843, -6.2378977], [106.866728, -6.2375008], [106.8667196, -6.2374774], [106.8666744, -6.2373514], [106.8665819, -6.2369862], [106.8664705, -6.2367116], [106.8664169, -6.2366529], [106.8663252, -6.2364705], [106.8662882, -6.2363969], [106.8661862, -6.2362476], [106.8660736, -6.2361676], [106.8658054, -6.2359277], [106.8658, -6.2358636], [106.8656283, -6.2357196], [106.8654406, -6.2355597], [106.8653977, -6.2353891], [106.8654539, -6.2352571], [106.8654955, -6.2351264], [106.8656318, -6.2350303], [106.8658939, -6.2349997], [106.866036, -6.2349784], [106.8661648, -6.2349571], [106.8662198, -6.2349281], [106.866256, -6.2349091], [106.8663579, -6.2348051], [106.8664413, -6.2347045], [106.8664815, -6.2345232], [106.8664695, -6.2343619], [106.866427, -6.2341219], [106.8664037, -6.2340146], [106.8661138, -6.2335094], [106.8659663, -6.2332773], [106.8657088, -6.232904], [106.8654728, -6.2325414], [106.8653456, -6.2323704], [106.8651713, -6.2322436], [106.8647038, -6.2318802], [106.8642831, -6.2316267], [106.863756, -6.2313521], [106.8634987, -6.2310589], [106.8634128, -6.2308135], [106.8634309, -6.2306448], [106.863493, -6.2305099], [106.8635891, -6.2304057], [106.8637115, -6.2301429], [106.8639474, -6.2298823], [106.8641746, -6.2296521], [106.8646421, -6.2291591], [106.8648191, -6.2289137], [106.8649851, -6.2285944], [106.8649363, -6.2270593], [106.8648934, -6.2268034], [106.8647325, -6.2265367], [106.8643677, -6.2260034], [106.8641102, -6.2254821], [106.864011, -6.2254008], [106.8639171, -6.2252142], [106.863559, -6.2252275], [106.8638052, -6.2256069], [106.864023, -6.2259656], [106.8642108, -6.2262442], [106.8644892, -6.2266627], [106.8646609, -6.226972], [106.8646782, -6.2273253], [106.8646895, -6.2278827], [106.864693, -6.2285439], [106.8646509, -6.2286618]]]}}, {"type": "Feature", "properties": {"natural": "water", "water": "river", "osm_type": "way", "osm_id": 29257908}, "geometry": {"type": "Polygon", "coordinates": [[[106.865623, -6.2372768], [106.8657039, -6.2376905], [106.8658427, -6.2380414], [106.8659073, -6.2382047], [106.8660101, -6.2384273], [106.8660692, -6.2385553], [106.8661487, -6.2387273], [106.8662672, -6.2388804], [106.8663422, -6.2389774], [106.8663554, -6.2389944], [106.8664839, -6.2391238], [106.8665296, -6.2391699], [106.8666539, -6.2391775], [106.8667579, -6.2391029], [106.8668064, -6.2389776], [106.8668161, -6.2389511], [106.8668554, -6.2388441], [106.8669212, -6.2386633], [106.8669158, -6.2385246], [106.8668782, -6.238386], [106.8668353, -6.238258], [106.8669102, -6.2382492], [106.8670177, -6.2382366], [106.8670179, -6.2382397], [106.8670243, -6.2383248], [106.8670284, -6.2383806], [106.8670392, -6.2387273], [106.8669965, -6.2388834], [106.8669782, -6.2389502], [106.8669493, -6.2390558], [106.8668872, -6.2391509], [106.8667726, -6.2392681], [106.8665967, -6.2392882], [106.866369, -6.239131], [106.8662399, -6.2390419], [106.8660682, -6.2388233], [106.8659131, -6.2385176], [106.8657732, -6.238242], [106.8657105, -6.2380892], [106.8656082, -6.23784], [106.8656069, -6.2378367], [106.8655425, -6.2377621], [106.8655124, -6.2376815], [106.8654703, -6.2375685], [106.8654406, -6.2373195], [106.8655217, -6.2373005], [106.865623, -6.2372768]]]}}, {"type": "Feature", "properties": {"natural": "water", "source": "HOT_InAWARESurvey_2017", "water": "river", "osm_type": "way", "osm_id": 29257912}, "geometry": {"type": "Polygon", "coordinates": [[[106.8629542, -6.2396871], [106.8628606, -6.2397333], [106.8627356, -6.2397031], [106.8628271, -6.2393509], [106.8629485, -6.2389428], [106.8630361, -6.2386584], [106.863099, -6.2384393], [106.863225, -6.2381088], [106.863504, -6.2374581], [106.8638822, -6.2370902], [106.8642765, -6.2368555], [106.8645524, -6.2367579], [106.864829, -6.2367009], [106.8652354, -6.2367175], [106.865462, -6.2368235], [106.8655141, -6.2369703], [106.865623, -6.2372768], [106.8655217, -6.2373005], [106.8654406, -6.2373195], [106.8654138, -6.2370261], [106.8652426, -6.236845], [106.8650222, -6.2367969], [106.8648303, -6.2368149], [106.8647669, -6.2368208], [106.864679, -6.2368467], [106.8645243, -6.2368924], [106.8644796, -6.2369056], [106.8643341, -6.2370035], [106.8639694, -6.2372528], [106.8636113, -6.2376074], [106.8632251, -6.2386847], [106.8631178, -6.2389939], [106.8630427, -6.2392872], [106.8630025, -6.2394765], [106.862986, -6.2395761], [106.8629542, -6.2396871]]]}}, {"type": "Feature", "properties": {"natural": "water", "water": "river", "osm_type": "way", "osm_id": 29257915}, "geometry": {"type": "Polygon", "coordinates": [[[106.862439, -6.2414262], [106.8624923, -6.2408437], [106.8626103, -6.2402945], [106.8627249, -6.2397272], [106.8627356, -6.2397031], [106.8628606, -6.2397333], [106.8629542, -6.2396871], [106.8629111, -6.2398846], [106.8628925, -6.2399698], [106.8628215, -6.2404382], [106.8627841, -6.2406852], [106.862742, -6.2411769], [106.8627591, -6.2418481], [106.8627659, -6.2420807], [106.8627676, -6.242314], [106.8627396, -6.2428069], [106.8626759, -6.2431393], [106.8624652, -6.2431344], [106.8624438, -6.2420938], [106.862443, -6.2419828], [106.862439, -6.2414262]]]}}, {"type": "Feature", "properties": {"natural": "water", "water": "river", "osm_type": "way", "osm_id": 29992734}, "geometry": {"type": "Polygon", "coordinates": [[[106.8957523, -6.2125273], [106.895822, -6.2125874], [106.8957911, -6.2129194], [106.8958139, -6.2133592], [106.8957227, -6.2133592], [106.8957328, -6.2130475], [106.8957294, -6.2127672], [106.8957523, -6.2125273]]]}}, {"type": "Feature", "properties": {"natural": "water", "water": "river", "osm_type": "way", "osm_id": 31506148}, "geometry": {"type": "Polygon", "coordinates": [[[106.857807, -6.2174469], [106.8575549, -6.2175349], [106.8572759, -6.2175102], [106.8567542, -6.2168696], [106.8565025, -6.2165442], [106.8564013, -6.2163827], [106.8563648, -6.2162008], [106.8565142, -6.215743], [106.8568394, -6.2149341], [106.8566099, -6.2148537], [106.8564691, -6.2151808], [106.8563886, -6.2154007], [106.8563606, -6.2156019], [106.8562352, -6.2162657], [106.8563559, -6.216693], [106.8567395, -6.2172043], [106.8573081, -6.2176415], [106.8575771, -6.2177407], [106.8578915, -6.2176355], [106.8578531, -6.2175477], [106.857807, -6.2174469]]]}}, {"type": "Feature", "properties": {"natural": "water", "water": "river", "osm_type": "way", "osm_id": 31506182}, "geometry": {"type": "Polygon", "coordinates": [[[106.8630723, -6.216013], [106.8628261, -6.2160427], [106.8619376, -6.2164634], [106.8611441, -6.2169222], [106.8607158, -6.2171389], [106.8602049, -6.217183], [106.8599796, -6.2171083], [106.8594432, -6.2165963], [106.8591428, -6.2163191], [106.8590195, -6.2162635], [106.8588653, -6.2162542], [106.8588559, -6.2161876], [106.8587781, -6.2161569], [106.8586344, -6.216139], [106.8584147, -6.2164022], [106.8581879, -6.2166603], [106.858117, -6.2167622], [106.8580472, -6.2168995], [106.8579224, -6.2171562], [106.8578756, -6.2173061], [106.857807, -6.2174469], [106.8578531, -6.2175477], [106.8578915, -6.2176355], [106.8579416, -6.2175046], [106.8580665, -6.2173776], [106.858202, -6.2171123], [106.8584186, -6.216695], [106.8586004, -6.2164322], [106.8587161, -6.2163894], [106.8588536, -6.2164213], [106.85902, -6.2165157], [106.8594591, -6.2169206], [106.8596443, -6.2171377], [106.8597704, -6.2172762], [106.8599635, -6.2173989], [106.8601647, -6.2174203], [106.8602939, -6.2174303], [106.8605509, -6.2174245], [106.8607251, -6.2173889], [106.8611744, -6.2171755], [106.8621728, -6.216629], [106.8625456, -6.2164374], [106.8627977, -6.2163337], [106.8629667, -6.216287], [106.8631715, -6.2162863], [106.8631195, -6.2161111], [106.8630723, -6.216013]]]}}, {"type": "Feature", "properties": {"natural": "water", "water": "river", "osm_type": "way", "osm_id": 31506194}, "geometry": {"type": "Polygon", "coordinates": [[[106.8608125, -6.2202172], [106.8606795, -6.2201444], [106.8605428, -6.2201], [106.8606341, -6.2199634], [106.8606918, -6.2197601], [106.8608245, -6.2194982], [106.861139, -6.2190675], [106.8613114, -6.218877], [106.8614099, -6.2187409], [106.8614957, -6.2186548], [106.8616712, -6.2184492], [106.8618082, -6.2182556], [106.8618833, -6.2180929], [106.8619921, -6.2178585], [106.862186, -6.2175533], [106.8624421, -6.2173439], [106.8628574, -6.2170844], [106.8631515, -6.2168766], [106.8632264, -6.216801], [106.8633056, -6.2166735], [106.8633498, -6.2165543], [106.8633478, -6.2164617], [106.863307, -6.2163557], [106.8631715, -6.2162863], [106.8631195, -6.2161111], [106.8630723, -6.216013], [106.8631941, -6.2159844], [106.8632711, -6.2159781], [106.8633214, -6.2159858], [106.863359, -6.2160071], [106.8633899, -6.2160245], [106.8634588, -6.2160737], [106.8635122, -6.216111], [106.8635654, -6.2161634], [106.8636451, -6.2162435], [106.8637063, -6.2163304], [106.8637207, -6.2163984], [106.8637, -6.2164712], [106.8635363, -6.2167523], [106.8634212, -6.2169143], [106.8629502, -6.2172223], [106.862636, -6.2174595], [106.8623936, -6.2177129], [106.8622517, -6.2179026], [106.8620716, -6.2182504], [106.8617642, -6.2186891], [106.8612719, -6.2193077], [106.8609873, -6.2197541], [106.8608125, -6.2202172]]]}}, {"type": "Feature", "properties": {"natural": "water", "source": "HOT_InAWARESurvey_2017", "water": "river", "osm_type": "way", "osm_id": 31507293}, "geometry": {"type": "Polygon", "coordinates": [[[106.8638205, -6.2246062], [106.863724, -6.2248302], [106.863762, -6.2249057], [106.8639171, -6.2252142], [106.863559, -6.2252275], [106.8634987, -6.2247342], [106.8635577, -6.2244929], [106.8637019, -6.2244076], [106.8640396, -6.2243529], [106.8644186, -6.2243623], [106.8648085, -6.2243747], [106.8648816, -6.2243568], [106.8649556, -6.2243157], [106.865002, -6.2242836], [106.8652179, -6.2238984], [106.8651911, -6.2235584], [106.8650891, -6.2232417], [106.8647714, -6.2229638], [106.8643489, -6.2225303], [106.8641466, -6.2222705], [106.8640298, -6.2220732], [106.8637925, -6.2218248], [106.863593, -6.2215466], [106.8633714, -6.2211395], [106.8632622, -6.2207221], [106.8632435, -6.2206356], [106.8631754, -6.220432], [106.8631173, -6.2202536], [106.8629909, -6.220059], [106.8628029, -6.2199121], [106.8625832, -6.2198382], [106.8622728, -6.2198015], [106.8621147, -6.2198212], [106.8619596, -6.2198661], [106.8617659, -6.2200665], [106.8616897, -6.220282], [106.8616991, -6.2204546], [106.8618026, -6.2205966], [106.8619326, -6.2208525], [106.8619653, -6.2209949], [106.8619504, -6.2212173], [106.8618953, -6.2213889], [106.8618144, -6.2215418], [106.861672, -6.22168], [106.8611372, -6.2218553], [106.8610158, -6.221876], [106.860866, -6.2218567], [106.8607415, -6.2218071], [106.8605205, -6.22172], [106.8602046, -6.2215783], [106.8601408, -6.2215128], [106.8600713, -6.2214151], [106.8600411, -6.2212526], [106.8600636, -6.2210747], [106.8600958, -6.2209453], [106.8602814, -6.2206599], [106.8603899, -6.2204678], [106.8604412, -6.2203632], [106.8605428, -6.2201], [106.8606795, -6.2201444], [106.8608125, -6.2202172], [106.8607052, -6.2204652], [106.8604289, -6.2208357], [106.8603331, -6.2209574], [106.8602806, -6.2210397], [106.8602666, -6.2211664], [106.8602823, -6.221259], [106.8602997, -6.2213063], [106.8603452, -6.2213786], [106.8603971, -6.2214254], [106.8605401, -6.2214723], [106.8607381, -6.2215073], [106.8609628, -6.22155], [106.8611252, -6.2215589], [106.8612632, -6.2215385], [106.8613955, -6.2215069], [106.8615112, -6.221461], [106.8615863, -6.221415], [106.8616413, -6.221357], [106.8616722, -6.2213063], [106.8617183, -6.2211859], [106.8617373, -6.2210792], [106.8616948, -6.2208598], [106.8616292, -6.2207584], [106.8615328, -6.2206485], [106.8614159, -6.2204326], [106.861429, -6.220316], [106.8614776, -6.2201953], [106.8617335, -6.2198658], [106.8619439, -6.2197217], [106.8620349, -6.2196854], [106.8622607, -6.2196212], [106.8626378, -6.2196527], [106.8628205, -6.2196714], [106.8629387, -6.2197242], [106.8631483, -6.2198537], [106.8632884, -6.2200178], [106.8633333, -6.2202217], [106.8634115, -6.2205279], [106.8635677, -6.2209313], [106.8637052, -6.2212425], [106.8642718, -6.2219551], [106.8645695, -6.2223325], [106.8648287, -6.2225939], [106.8651667, -6.2229691], [106.8653682, -6.2232331], [106.8654352, -6.2233677], [106.8655385, -6.2235664], [106.8655613, -6.2237117], [106.8655519, -6.2240343], [106.8654795, -6.2242396], [106.8654165, -6.224341], [106.8652689, -6.2244863], [106.8650651, -6.2245596], [106.8646869, -6.2246223], [106.8643892, -6.2246023], [106.863987, -6.2245965], [106.8638205, -6.2246062]]]}}, {"type": "Feature", "properties": {"waterway": "stream", "osm_type": "way", "osm_id": 31610697}, "geometry": {"type": "LineString", "coordinates": [[106.86762, -6.2408483], [106.86759, -6.2405801], [106.8671105, -6.240528], [106.8667495, -6.240615], [106.8666194, -6.2406307], [106.8663954, -6.2406577], [106.8662189, -6.2405652], [106.8652153, -6.2406417], [106.8649041, -6.2405723], [106.8645406, -6.2404982], [106.8640536, -6.2403195], [106.8632412, -6.2401351], [106.862986, -6.2395761], [106.8629277, -6.2394167]]}}, {"type": "Feature", "properties": {"boat": "no", "name": "Ci Liwung", "name:en": "Ciliwung River", "waterway": "river", "osm_type": "way", "osm_id": 56676576}, "geometry": {"type": "LineString", "coordinates": [[106.8666086, -6.2392461], [106.8667334, -6.2392301], [106.866778, -6.2391946], [106.8668442, -6.2390948], [106.8669386, -6.2388828], [106.8669749, -6.2385155], [106.8669102, -6.2382492], [106.8667901, -6.237887], [106.8665805, -6.2373329], [106.8664828, -6.2369199], [106.8662024, -6.2363727], [106.8653779, -6.2355888], [106.86524, -6.2353221], [106.8652508, -6.2349977], [106.865461, -6.2348593], [106.8659851, -6.2348105], [106.8662458, -6.2347111], [106.8663625, -6.2345085], [106.8662871, -6.2341593], [106.8662082, -6.2339525], [106.8656874, -6.2330451], [106.8654761, -6.2327587], [106.8650265, -6.2321492], [106.8644257, -6.2317653], [106.8637648, -6.231424], [106.8634695, -6.2312249], [106.8633353, -6.2309556], [106.863327, -6.2307709], [106.8638163, -6.2298711], [106.8644187, -6.2292511]]}}, {"type": "Feature", "properties": {"boat": "no", "name": "Ci Liwung", "name:en": "Ciliwung River", "waterway": "river", "osm_type": "way", "osm_id": 95226493}, "geometry": {"type": "LineString", "coordinates": [[106.8654593, -6.2369956], [106.8655217, -6.2373005], [106.8656015, -6.2377034], [106.8661869, -6.2389035], [106.8663847, -6.2391042], [106.8666086, -6.2392461]]}}, {"type": "Feature", "properties": {"source": "Bing", "waterway": "river", "osm_type": "way", "osm_id": 97948225}, "geometry": {"type": "LineString", "coordinates": [[106.8920173, -6.2395089], [106.8921011, -6.2390785], [106.8923592, -6.2384865], [106.8926966, -6.2382892], [106.8927959, -6.2380426], [106.8928058, -6.2378058], [106.8926867, -6.2376676], [106.8924783, -6.2376084], [106.8922513, -6.2374632], [106.8922637, -6.2372554], [106.8922897, -6.2370855], [106.892379, -6.2369573], [106.8924981, -6.2368882], [106.8927058, -6.236764], [106.8928554, -6.236612], [106.8930142, -6.2364048], [106.8930341, -6.236168], [106.8929844, -6.2359509], [106.8928455, -6.235724], [106.8929944, -6.2355563], [106.8930341, -6.2353984], [106.892905, -6.2352603], [106.8927462, -6.2351814], [106.8925874, -6.2351814], [106.8924187, -6.2353294], [106.892379, -6.2355168], [106.89225, -6.2357043], [106.892111, -6.2357536], [106.8920217, -6.2355859], [106.891982, -6.23528], [106.8919125, -6.2351419], [106.8919026, -6.2349051], [106.8920912, -6.2346782], [106.8920515, -6.2344118], [106.891525, -6.2325366], [106.8913456, -6.2323028], [106.8909399, -6.2319749], [106.8907949, -6.2318456], [106.8906521, -6.2317184], [106.8904834, -6.2314224], [106.89035, -6.2313243], [106.8902551, -6.2312546], [106.8902156, -6.2312363], [106.8901436, -6.2312028], [106.8900916, -6.2311786], [106.8900483, -6.2310819], [106.8900635, -6.2309052], [106.8900614, -6.2307723], [106.8900542, -6.2306238], [106.8900467, -6.2305929], [106.8900352, -6.230485], [106.8900242, -6.2303586], [106.8900359, -6.2302303], [106.8900517, -6.2301715], [106.8900601, -6.2301149], [106.8900698, -6.2299328], [106.8900457, -6.2297892], [106.8900333, -6.229628], [106.8901203, -6.2294673], [106.8902543, -6.2292766], [106.8903384, -6.2291204], [106.8903951, -6.2290638], [106.8904978, -6.2290377], [106.8907151, -6.228907], [106.8907875, -6.2287737], [106.8909136, -6.2287044], [106.8915117, -6.2285657], [106.8917316, -6.2284991], [106.8917531, -6.2284031], [106.8917209, -6.2283071], [106.891635, -6.2282538], [106.8915492, -6.2281844], [106.8914312, -6.2280511], [106.8913615, -6.2279765], [106.8913293, -6.2278645], [106.8913615, -6.2277632], [106.8914151, -6.2276618], [106.8914044, -6.2275925], [106.8914097, -6.2274539], [106.8914205, -6.2273205], [106.8915117, -6.2272672], [106.8916189, -6.2272139], [106.891678, -6.2271819], [106.8917209, -6.2271126], [106.8919086, -6.2268353], [106.8920427, -6.2267393], [106.89215, -6.2266966], [106.8923056, -6.2266913], [106.8924236, -6.2266913], [106.8926275, -6.2266699], [106.8927602, -6.2265713], [106.8928367, -6.2265206], [106.8928635, -6.2264246], [106.8928903, -6.2263233], [106.892944, -6.2261847], [106.8929815, -6.226062], [106.8929815, -6.2259074], [106.8929976, -6.225758], [106.893062, -6.2256887], [106.8930888, -6.2256034], [106.8931424, -6.2255287], [106.8931746, -6.2254487], [106.8933087, -6.2253421], [106.8934214, -6.2252994], [106.8934769, -6.2252026], [106.8934482, -6.2251128], [106.8933785, -6.2250168], [106.8932926, -6.2249475], [106.8932926, -6.2248408], [106.8933356, -6.2247235], [106.8933677, -6.2246488], [106.8934212, -6.2245902], [106.8934641, -6.2245049], [106.8934588, -6.2243876], [106.8934427, -6.2242969], [106.8934266, -6.2240249], [106.8934588, -6.2239183], [106.8935768, -6.2235397], [106.8936304, -6.2234117], [106.8936573, -6.2232784], [106.8936465, -6.2232197], [106.8935822, -6.2229584], [106.8936465, -6.2228037], [106.8936948, -6.2226384], [106.8938021, -6.2225318], [106.8940274, -6.2222278], [106.8941615, -6.2220891], [106.8942259, -6.2220518], [106.8945169, -6.2218158], [106.8948119, -6.2216225], [106.8950427, -6.2215586], [106.8952612, -6.2214652], [106.8954061, -6.2213639], [106.8955133, -6.2213692], [106.8956568, -6.2213572], [106.895689, -6.2213278], [106.8957025, -6.2212559], [106.8957306, -6.2211879], [106.8958138, -6.2208946], [106.8959385, -6.2205986], [106.8960022, -6.2204335], [106.8961302, -6.219948], [106.8961691, -6.2197494], [106.8961906, -6.2195814], [106.8961356, -6.2194668], [106.8960565, -6.2193827], [106.8959908, -6.2192694], [106.895964, -6.2191561], [106.895964, -6.2190228], [106.8959532, -6.2188788], [106.8959036, -6.2188128], [106.8958682, -6.2187831], [106.8957648, -6.2187134], [106.8955181, -6.2185731], [106.8951552, -6.2184415], [106.895115, -6.2183615], [106.8950449, -6.2182242], [106.895029, -6.2179772], [106.8950473, -6.2179135], [106.8950788, -6.2177202], [106.8951432, -6.2176256], [106.89517, -6.2175296], [106.8951915, -6.2174282], [106.8951968, -6.2173376], [106.8952076, -6.2172309], [106.8952398, -6.2171669], [106.8952827, -6.2170763], [106.8953363, -6.2169909], [106.8954061, -6.2169643], [106.8955294, -6.2169483], [106.8956099, -6.2169323], [106.8957386, -6.2169856], [106.8958084, -6.2170016], [106.8959049, -6.2169963], [106.8959425, -6.2169216], [106.8959264, -6.2168523], [106.8959157, -6.2166816], [106.8960406, -6.2165593]]}}, {"type": "Feature", "properties": {"natural": "water", "source": "Bing", "water": "river", "osm_type": "way", "osm_id": 97966868}, "geometry": {"type": "Polygon", "coordinates": [[[106.8902569, -6.2312074], [106.890318, -6.2312399], [106.8904931, -6.2313332], [106.8905843, -6.2314934], [106.8906577, -6.2316225], [106.8908264, -6.2317861], [106.8911946, -6.2320706], [106.891328, -6.2321737], [106.8914325, -6.2322936], [106.8913326, -6.2323816], [106.8912738, -6.2323416], [106.8910922, -6.232218], [106.8909026, -6.2320489], [106.8907631, -6.2319245], [106.8906324, -6.2318071], [106.8905058, -6.2316225], [106.8904341, -6.2314716], [106.8903202, -6.2313667], [106.8902021, -6.2312912], [106.8902569, -6.2312074]]]}}, {"type": "Feature", "properties": {"natural": "water", "source": "Bing", "water": "river", "osm_type": "way", "osm_id": 98074305}, "geometry": {"type": "Polygon", "coordinates": [[[106.8787162, -6.2377546], [106.8786991, -6.2377641], [106.8786924, -6.2379248], [106.8787189, -6.2383474], [106.8787216, -6.2385687], [106.8787202, -6.2388926], [106.8787041, -6.2393112], [106.8787014, -6.2394992], [106.8786693, -6.2397405], [106.8786646, -6.2398645], [106.8787528, -6.2399147], [106.8788491, -6.2399112], [106.8789135, -6.2399074], [106.87892, -6.2393519], [106.8789026, -6.2387433], [106.8789086, -6.2382794], [106.8788946, -6.2380114], [106.8788899, -6.2379401], [106.8788812, -6.2378914], [106.8788496, -6.2377234], [106.8787289, -6.2377501], [106.8787162, -6.2377546]]]}}, {"type": "Feature", "properties": {"natural": "water", "source": "Bing", "water": "canal", "osm_type": "way", "osm_id": 98074306}, "geometry": {"type": "Polygon", "coordinates": [[[106.8793862, -6.2399059], [106.879556, -6.2398966], [106.8799052, -6.2398735], [106.880548, -6.2398335], [106.8807453, -6.2398222], [106.8806239, -6.2399489], [106.8793872, -6.2400097], [106.8793875, -6.2399596], [106.8793862, -6.2399059]]]}}, {"type": "Feature", "properties": {"natural": "water", "source": "Bing", "water": "canal", "osm_type": "way", "osm_id": 98074307}, "geometry": {"type": "Polygon", "coordinates": [[[106.8793862, -6.2399059], [106.8793875, -6.2399596], [106.8793872, -6.2400097], [106.8782777, -6.2400571], [106.8782774, -6.2400001], [106.8782797, -6.2399505], [106.8787528, -6.2399147], [106.8788491, -6.2399112], [106.8789135, -6.2399074], [106.8793862, -6.2399059]]]}}, {"type": "Feature", "properties": {"natural": "water", "source": "Bing", "water": "canal", "osm_type": "way", "osm_id": 98074308}, "geometry": {"type": "Polygon", "coordinates": [[[106.8807453, -6.2398222], [106.881075, -6.2398056], [106.8823268, -6.2397425], [106.88355, -6.2396809], [106.8835535, -6.2397448], [106.8835555, -6.2398066], [106.8829909, -6.239834], [106.8827114, -6.2398476], [106.8821896, -6.2398729], [106.8818272, -6.2398905], [106.8806239, -6.2399489], [106.8807453, -6.2398222]]]}}, {"type": "Feature", "properties": {"natural": "water", "source": "Bing", "water": "canal", "osm_type": "way", "osm_id": 98074309}, "geometry": {"type": "Polygon", "coordinates": [[[106.88355, -6.2396809], [106.8835535, -6.2397448], [106.8835555, -6.2398066], [106.8847372, -6.2397531], [106.8847924, -6.2397506], [106.8849142, -6.2397451], [106.8851818, -6.239733], [106.8858087, -6.2397047], [106.886168, -6.2396884], [106.8868952, -6.2396555], [106.8872515, -6.2396394], [106.8878011, -6.2396215], [106.8880119, -6.2396146], [106.8890006, -6.2395823], [106.8899661, -6.2394972], [106.8904121, -6.2395137], [106.8907356, -6.2395257], [106.8907397, -6.239456], [106.8907465, -6.2393677], [106.8904058, -6.2393879], [106.8892684, -6.2394022], [106.8886518, -6.2394677], [106.8872465, -6.2395053], [106.8848563, -6.2396214], [106.8845824, -6.2396347], [106.88355, -6.2396809]]]}}, {"type": "Feature", "properties": {"name": "Kali Malang", "note": "Saluran Irigasi Tarum Barat", "source": "Bing", "waterway": "canal", "osm_type": "way", "osm_id": 98074310}, "geometry": {"type": "LineString", "coordinates": [[106.9014508, -6.2447968], [106.9001014, -6.2443495], [106.8991117, -6.243994], [106.8987285, -6.2437718], [106.8983007, -6.2434545], [106.8973493, -6.2426547], [106.8963532, -6.2418549], [106.8957275, -6.2413154], [106.8946739, -6.2404014], [106.8938885, -6.2398682], [106.8932819, -6.2396397], [106.8926945, -6.2395381], [106.8922156, -6.2395191], [106.8920173, -6.2395089], [106.8916409, -6.2395]]}}, {"type": "Feature", "properties": {"natural": "water", "source": "Bing", "water": "river", "osm_type": "way", "osm_id": 98076259}, "geometry": {"type": "Polygon", "coordinates": [[[106.8913326, -6.2323816], [106.8914325, -6.2322936], [106.8915086, -6.2323927], [106.8916345, -6.2326982], [106.8916755, -6.2328677], [106.8921176, -6.2345157], [106.892143, -6.2347178], [106.892054, -6.2346715], [106.8920117, -6.2344568], [106.8917914, -6.2337157], [106.8915368, -6.2327575], [106.8914824, -6.2325384], [106.8913686, -6.2324191], [106.8913326, -6.2323816]]]}}, {"type": "Feature", "properties": {"natural": "water", "water": "river", "osm_type": "way", "osm_id": 117092055}, "geometry": {"type": "Polygon", "coordinates": [[[106.8833579, -6.2282506], [106.8832539, -6.2285148], [106.8850212, -6.2289498], [106.8850937, -6.2287062], [106.8844058, -6.2285249], [106.8837847, -6.2283671], [106.8833579, -6.2282506]]]}}, {"type": "Feature", "properties": {"natural": "water", "water": "river", "osm_type": "way", "osm_id": 117092056}, "geometry": {"type": "Polygon", "coordinates": [[[106.8780987, -6.2292202], [106.8781457, -6.2290215], [106.8781972, -6.2290005], [106.8783501, -6.2288912], [106.8786532, -6.2287944], [106.8787739, -6.2288032], [106.8791891, -6.2284003], [106.8795673, -6.2282643], [106.8798328, -6.2282456], [106.8821931, -6.2282003], [106.8833579, -6.2282506], [106.8832539, -6.2285148], [106.8828486, -6.228478], [106.8820573, -6.2284686], [106.8814829, -6.2285045], [106.8810264, -6.2284856], [106.8806509, -6.2284749], [106.8802679, -6.2285266], [106.8799184, -6.2286567], [106.8793996, -6.2288887], [106.8792403, -6.2290216], [106.8787911, -6.229018], [106.8786748, -6.2290739], [106.8785719, -6.2291428], [106.8784929, -6.2292195], [106.8784399, -6.2292913], [106.8784212, -6.2293284], [106.8781645, -6.2295988], [106.8775052, -6.2303737], [106.8773222, -6.230228], [106.8779432, -6.2294789], [106.8780343, -6.2293469], [106.8780987, -6.2292202]]]}}, {"type": "Feature", "properties": {"natural": "water", "water": "river", "osm_type": "way", "osm_id": 117092057}, "geometry": {"type": "Polygon", "coordinates": [[[106.8850937, -6.2287062], [106.8850212, -6.2289498], [106.8858195, -6.2291655], [106.8864143, -6.2293608], [106.8867789, -6.2294389], [106.8874486, -6.2295381], [106.8881466, -6.2296546], [106.8884926, -6.2296689], [106.8885161, -6.2294162], [106.8876187, -6.2293241], [106.8869688, -6.2291894], [106.8861405, -6.2289991], [106.8854695, -6.2288128], [106.8850937, -6.2287062]]]}}, {"type": "Feature", "properties": {"natural": "water", "water": "river", "osm_type": "way", "osm_id": 117092059}, "geometry": {"type": "Polygon", "coordinates": [[[106.8885161, -6.2294162], [106.8884926, -6.2296689], [106.888712, -6.2297344], [106.8891022, -6.2297872], [106.8894233, -6.2298557], [106.8897941, -6.2299071], [106.8899732, -6.2299275], [106.8899877, -6.2299761], [106.89, -6.2300106], [106.8899844, -6.2300641], [106.8899914, -6.230115], [106.8901598, -6.2301452], [106.8901969, -6.2300617], [106.8902653, -6.2299991], [106.890398, -6.2299151], [106.890453, -6.2299104], [106.8905952, -6.2299124], [106.8906438, -6.2299334], [106.8919075, -6.2300683], [106.8919125, -6.2298494], [106.8910554, -6.2297811], [106.8908709, -6.2297777], [106.8907343, -6.2297414], [106.8906742, -6.2297327], [106.8904502, -6.2297235], [106.8902668, -6.2297087], [106.8900103, -6.2296748], [106.8898622, -6.2296668], [106.8897158, -6.2296391], [106.8894094, -6.2296079], [106.8892918, -6.2295883], [106.8891917, -6.2295496], [106.8889858, -6.2295145], [106.8889698, -6.2294918], [106.8889034, -6.2294816], [106.8885161, -6.2294162]]]}}, {"type": "Feature", "properties": {"source": "Bing", "waterway": "stream", "osm_type": "way", "osm_id": 117943882}, "geometry": {"type": "LineString", "coordinates": [[106.8824521, -6.2167206], [106.8816994, -6.2167546], [106.8815787, -6.2168421], [106.8812772, -6.217163], [106.88067, -6.2170785], [106.880558, -6.2170805], [106.8803622, -6.2170584], [106.8801605, -6.217011], [106.8795468, -6.2169252], [106.8791414, -6.2168633], [106.8789063, -6.2168797], [106.8786361, -6.2168801], [106.8784339, -6.2168197], [106.8782327, -6.2166944], [106.8781053, -6.2167788], [106.8779547, -6.2169801], [106.8778327, -6.2169585], [106.8774817, -6.2174356], [106.8771881, -6.2179354], [106.8766531, -6.2181549], [106.8766034, -6.2182324], [106.8766244, -6.2187825], [106.8766576, -6.219296], [106.8766272, -6.2193373], [106.8764493, -6.2193453], [106.8763729, -6.2193833], [106.8763771, -6.21951], [106.8763814, -6.2198097], [106.8763499, -6.2199832], [106.8762698, -6.2200069], [106.876174, -6.220012], [106.8760636, -6.2200258], [106.8759273, -6.2200901], [106.8757572, -6.2200629], [106.8755873, -6.2200123], [106.8753647, -6.219888], [106.8752391, -6.2197717], [106.875133, -6.2196788], [106.8749971, -6.2195733], [106.8749334, -6.219358], [106.8749037, -6.2191554]]}}, {"type": "Feature", "properties": {"source": "Bing", "waterway": "stream", "osm_type": "way", "osm_id": 118664725}, "geometry": {"type": "LineString", "coordinates": [[106.883258, -6.2341871], [106.8831816, -6.2338743], [106.8831899, -6.2331891], [106.8831078, -6.2311576], [106.8830847, -6.2307579], [106.8830647, -6.2305407], [106.8829933, -6.230442], [106.8827154, -6.2302013], [106.8826241, -6.2301145], [106.8826082, -6.2300395], [106.8830647, -6.2289424], [106.8831919, -6.228678], [106.8832539, -6.2285148], [106.8832925, -6.2284133], [106.8833579, -6.2282506], [106.8834358, -6.2280561], [106.8835738, -6.2277117], [106.8880247, -6.2171512], [106.8881121, -6.2169821], [106.8882409, -6.2169288], [106.8884216, -6.2169592], [106.8888101, -6.2168847]]}}, {"type": "Feature", "properties": {"name": "Kali Sunter", "waterway": "river", "osm_type": "way", "osm_id": 121963547}, "geometry": {"type": "LineString", "coordinates": [[106.9053196, -6.2604092], [106.9053665, -6.2600519], [106.9053944, -6.2599077], [106.9054625, -6.2597834], [106.9055457, -6.2596994], [106.905746, -6.2595585], [106.9059315, -6.2594963], [106.9061445, -6.2594193], [106.9062862, -6.2593144], [106.9063509, -6.2591893], [106.9062742, -6.2589424], [106.9060036, -6.2587535], [106.9057175, -6.2587739], [106.9054718, -6.2587776], [106.9053581, -6.2586722], [106.90524, -6.2583998], [106.9051581, -6.257991], [106.905153, -6.2578506], [106.9052238, -6.2576977], [106.9052713, -6.2576122], [106.9053756, -6.2575374], [106.9055393, -6.257508], [106.9056481, -6.2574829], [106.9057498, -6.2574721], [106.9058212, -6.2574603], [106.9059858, -6.2574094], [106.9061789, -6.2572934], [106.9062675, -6.2571215], [106.9062621, -6.2569761], [106.906022, -6.2566198], [106.9058889, -6.2564196], [106.9056638, -6.2563525], [106.9055564, -6.2563969], [106.9054735, -6.2566606], [106.9053609, -6.2567966], [106.9051587, -6.2568862], [106.9049352, -6.2569475], [106.904734, -6.2569813], [106.9044472, -6.2571241], [106.9042181, -6.2570732], [106.9039959, -6.2568684], [106.903843, -6.2562979], [106.9038792, -6.2561192], [106.9041244, -6.2559136], [106.9042156, -6.255827], [106.9042435, -6.2557087], [106.9041228, -6.255482], [106.903945, -6.2552181], [106.9036875, -6.2549688], [106.903438, -6.2547694], [106.9032581, -6.2545365], [106.9031518, -6.2543223], [106.9031443, -6.2540315], [106.9031668, -6.2538486], [106.9033952, -6.2534506], [106.9034381, -6.2533372], [106.9034502, -6.2532119], [106.9034193, -6.2530919], [106.9025852, -6.2522907], [106.9018074, -6.2513216], [106.9005802, -6.2495191], [106.9005508, -6.2493578], [106.9005561, -6.2492805], [106.9006017, -6.2491525], [106.9006339, -6.2490406], [106.9006419, -6.2489072], [106.9006137, -6.2487019], [106.9005145, -6.2484393], [106.9001815, -6.2481775], [106.9001725, -6.2480618], [106.9001869, -6.2479162], [106.9001805, -6.2477898], [106.9001537, -6.2476752], [106.9000249, -6.2473259], [106.8999016, -6.2469313], [106.8996655, -6.2464913], [106.8996659, -6.2463011], [106.8995714, -6.2461771], [106.899365, -6.2461341], [106.8991972, -6.2460418], [106.8991103, -6.2459181], [106.8990228, -6.2458765], [106.8988132, -6.2458734], [106.8986554, -6.2458478], [106.8984813, -6.2456722], [106.8983409, -6.2455866], [106.8980063, -6.2454979], [106.8978389, -6.2453662], [106.8975208, -6.245166], [106.8972432, -6.2450526], [106.8969632, -6.2449342], [106.8968317, -6.2447876], [106.8964184, -6.244538], [106.8963111, -6.2444607], [106.8960928, -6.2443263], [106.8949807, -6.2438448], [106.8946471, -6.2437544], [106.8944712, -6.2437181], [106.8941761, -6.2436101], [106.8937577, -6.2434928], [106.893468, -6.2433862], [106.8932243, -6.2432704], [106.8932006, -6.2430691], [106.8932461, -6.2429731], [106.8933822, -6.2428636], [106.8933682, -6.2427052], [106.8932502, -6.2425452], [106.8932716, -6.2422359], [106.8936472, -6.2421506], [106.8936825, -6.2419811], [106.8935479, -6.241884], [106.8933365, -6.2418084], [106.8932712, -6.2417616], [106.8932484, -6.2416763], [106.893272, -6.241291], [106.8933789, -6.240946], [106.8933146, -6.240626], [106.8931214, -6.2404554], [106.8929423, -6.2404959], [106.8927352, -6.2404874], [106.8926172, -6.2403807], [106.8924455, -6.24037], [106.8922846, -6.2403274], [106.8922309, -6.2401247], [106.8921666, -6.2399434], [106.8922156, -6.2395191]]}}, {"type": "Feature", "properties": {"layer": "-1", "source": "Bing", "tunnel": "yes", "waterway": "stream", "osm_type": "way", "osm_id": 447489924}, "geometry": {"type": "LineString", "coordinates": [[106.8690491, -6.2452632], [106.8695222, -6.2443439]]}}, {"type": "Feature", "properties": {"source": "Bing", "waterway": "stream", "osm_type": "way", "osm_id": 447489942}, "geometry": {"type": "LineString", "coordinates": [[106.8703373, -6.2420664], [106.8703949, -6.2411822], [106.8703105, -6.240488], [106.8701585, -6.2400712], [106.870121, -6.2400006], [106.8701039, -6.2399526], [106.8700966, -6.239905], [106.8700758, -6.239785], [106.8700604, -6.2396737], [106.8700396, -6.2395864], [106.8700023, -6.2395239], [106.8699921, -6.2394428], [106.8699777, -6.2393279], [106.8699597, -6.239184], [106.8699398, -6.2390248], [106.869938, -6.2389347], [106.8699411, -6.2388141], [106.86996, -6.238611], [106.8699568, -6.2384906], [106.8699533, -6.2383579], [106.8699491, -6.2381989], [106.8699398, -6.2378461], [106.8699819, -6.2373957], [106.8699819, -6.2370317], [106.8699671, -6.2364478], [106.869941, -6.236176], [106.8699537, -6.2359345], [106.869943, -6.2358265]]}}, {"type": "Feature", "properties": {"embankment": "yes", "source": "HOT_InAWARESurvey_2017", "waterway": "stream", "osm_type": "way", "osm_id": 452223808}, "geometry": {"type": "LineString", "coordinates": [[106.8623856, -6.2114113], [106.8623628, -6.2112913], [106.8622354, -6.2112275], [106.8620919, -6.2112086], [106.8618841, -6.2111793], [106.8617111, -6.210918], [106.8616011, -6.21055], [106.8614831, -6.2102114], [106.8613865, -6.2099314], [106.8611342, -6.2092498], [106.8609371, -6.2087338], [106.8607809, -6.208315], [106.8606254, -6.207843], [106.86051, -6.2074031], [106.8603129, -6.2067938], [106.8601841, -6.2063418], [106.8601332, -6.2059152], [106.8601855, -6.2056459], [106.8602579, -6.2053379], [106.8602204, -6.2050752], [106.860118, -6.2047599], [106.8600365, -6.204503], [106.8598662, -6.2039553], [106.8597993, -6.2036953], [106.8596789, -6.2034042], [106.8595418, -6.2030727], [106.8592725, -6.2025012], [106.8589797, -6.2019047], [106.8589758, -6.2016904], [106.8591632, -6.2008757], [106.8592675, -6.2002264], [106.8589037, -6.1992579], [106.8588819, -6.1992041], [106.858856, -6.1991383], [106.8586866, -6.1987105], [106.858347, -6.1979048], [106.8582927, -6.197776]]}}, {"type": "Feature", "properties": {"natural": "water", "water": "river", "osm_type": "way", "osm_id": 473700098}, "geometry": {"type": "Polygon", "coordinates": [[[106.8771645, -6.2316242], [106.877123, -6.2316762], [106.8770774, -6.2317068], [106.8769138, -6.2317498], [106.8768957, -6.2316872], [106.8768816, -6.2316385], [106.8770204, -6.2316009], [106.8770425, -6.2315895], [106.8770961, -6.2313309], [106.8770915, -6.2312256], [106.8772088, -6.2312429], [106.8772155, -6.2313442], [106.8772139, -6.231369], [106.8772101, -6.2314269], [106.8771873, -6.2315535], [106.8771645, -6.2316242]]]}}, {"type": "Feature", "properties": {"natural": "water", "water": "river", "osm_type": "way", "osm_id": 481930972}, "geometry": {"type": "Polygon", "coordinates": [[[106.8581121, -6.2132302], [106.8580684, -6.2131508], [106.8580626, -6.2131402], [106.8580384, -6.2130962], [106.8578037, -6.2127955], [106.8579083, -6.2127262], [106.8581805, -6.2130448], [106.8581909, -6.2130693], [106.8582113, -6.2131175], [106.858224, -6.2131396], [106.8582315, -6.2131528], [106.8582663, -6.2131602], [106.8583052, -6.2131402], [106.8583481, -6.2131848], [106.8584313, -6.2133341], [106.8584393, -6.2134595], [106.8583776, -6.2135928], [106.8583025, -6.2136995], [106.8581926, -6.2137421], [106.8580987, -6.2137794], [106.8579056, -6.2138194], [106.8577125, -6.2138141], [106.8576079, -6.2137928], [106.8575247, -6.2138114], [106.8574496, -6.2138834], [106.8573316, -6.2140274], [106.8572055, -6.2141847], [106.8571331, -6.2142967], [106.8570768, -6.2144061], [106.8570553, -6.2144861], [106.8569078, -6.2143767], [106.8570706, -6.2141331], [106.8571766, -6.2140052], [106.857425, -6.2137712], [106.8575569, -6.2136435], [106.8576856, -6.2135955], [106.8578144, -6.2136061], [106.8579539, -6.2136515], [106.8581094, -6.2136301], [106.8582248, -6.2135688], [106.858273, -6.2134861], [106.8582543, -6.2134061], [106.8581818, -6.2132968], [106.8581205, -6.2132383], [106.8581121, -6.2132302]]]}}, {"type": "Feature", "properties": {"natural": "water", "water": "river", "osm_type": "way", "osm_id": 481974555}, "geometry": {"type": "Polygon", "coordinates": [[[106.862302, -6.2442399], [106.8623493, -6.2440532], [106.8623503, -6.2437552], [106.8623894, -6.2434837], [106.8624652, -6.2431344], [106.8626759, -6.2431393], [106.8626712, -6.2436479], [106.8626417, -6.2438585], [106.8626122, -6.2440772], [106.8625988, -6.2441812], [106.8625783, -6.2442572], [106.862302, -6.2442399]]]}}, {"type": "Feature", "properties": {"boat": "no", "name": "Ci Liwung", "name:en": "Ciliwung River", "waterway": "river", "osm_type": "way", "osm_id": 482132398}, "geometry": {"type": "LineString", "coordinates": [[106.8625561, -6.242686], [106.8625451, -6.2425188], [106.8625642, -6.2415719], [106.8627382, -6.2403111], [106.8628606, -6.2397333], [106.8629277, -6.2394167], [106.8630108, -6.2390252], [106.8635724, -6.2375061], [106.8639818, -6.2371425], [106.8644528, -6.236858], [106.8646973, -6.2367712], [106.8649678, -6.2367556], [106.8652682, -6.2367727], [106.8654593, -6.2369956]]}}, {"type": "Feature", "properties": {"boat": "no", "name": "Ci Liwung", "name:en": "Ciliwung River", "name:id": "Sungai Ciliwung", "waterway": "river", "osm_type": "way", "osm_id": 482132399}, "geometry": {"type": "LineString", "coordinates": [[106.8578867, -6.2529496], [106.8579554, -6.2526936], [106.8583416, -6.2521305], [106.8587279, -6.2517636], [106.8589855, -6.2515234], [106.8592269, -6.251348], [106.8593174, -6.251295], [106.8595297, -6.2511755], [106.859607, -6.2511457], [106.860187, -6.2509958], [106.8604092, -6.2510341], [106.8605257, -6.2511664], [106.8606313, -6.251396], [106.8607919, -6.2520506], [106.8608925, -6.2525353], [106.8610687, -6.2537134], [106.861091, -6.2538313], [106.8611803, -6.2539535], [106.8613284, -6.2540329], [106.8621469, -6.2538704], [106.8626303, -6.2536166], [106.8629114, -6.2532277], [106.8629435, -6.2531328], [106.8629169, -6.2529398], [106.862822, -6.2525742], [106.8622212, -6.2511408], [106.8621954, -6.2505265], [106.8624117, -6.2502973], [106.8631547, -6.249987], [106.8633023, -6.2498541], [106.8638335, -6.2497036], [106.8639618, -6.2496271], [106.8641035, -6.2494396], [106.8640115, -6.2492688], [106.863437, -6.2486019], [106.8628073, -6.2477725], [106.8621182, -6.2465249], [106.8619869, -6.2459909], [106.8619894, -6.2457315], [106.86204, -6.2455451], [106.8621442, -6.2451946], [106.8622509, -6.2448074], [106.8623959, -6.2444039], [106.8624973, -6.244044], [106.8625521, -6.2434778]]}}, {"type": "Feature", "properties": {"waterway": "river", "osm_type": "way", "osm_id": 482164495}, "geometry": {"type": "LineString", "coordinates": [[106.8667687, -6.2153062], [106.8667187, -6.2152115], [106.8666781, -6.2151529], [106.8665547, -6.2151389], [106.8663777, -6.2151235], [106.8661591, -6.2150382], [106.8660881, -6.2149959], [106.8660492, -6.2149462], [106.8659117, -6.2146976], [106.8657293, -6.2144696], [106.8656086, -6.2143516], [106.8652686, -6.2140173], [106.8652264, -6.2139903], [106.8649253, -6.2136793], [106.864358, -6.2131234], [106.8642373, -6.2129997], [106.8641018, -6.2128451]]}}, {"type": "Feature", "properties": {"boat": "no", "name": "Ci Liwung", "name:en": "Ciliwung River", "name:ja": "チリウン川", "waterway": "river", "osm_type": "way", "osm_id": 482170940}, "geometry": {"type": "LineString", "coordinates": [[106.8644187, -6.2292511], [106.8648806, -6.2286509], [106.8648183, -6.2277206], [106.8647647, -6.2268034], [106.8646252, -6.2265367], [106.8643828, -6.2261936], [106.8638335, -6.225383], [106.8636103, -6.2247857], [106.8636618, -6.2245554], [106.863782, -6.2245042], [106.8638373, -6.224506], [106.8645802, -6.2245298], [106.8649836, -6.2244597], [106.8651404, -6.2244085], [106.8652838, -6.2243017], [106.8653715, -6.2240997], [106.8654104, -6.223992], [106.8654233, -6.2238656], [106.8654147, -6.2237224], [106.865368, -6.2235455], [106.8653152, -6.2233777], [106.8651821, -6.2231945], [106.8649643, -6.2229457], [106.8643869, -6.2223693], [106.8642256, -6.2220996], [106.8640409, -6.2218692], [106.8639965, -6.2218064], [106.8637675, -6.221544], [106.8636628, -6.2214067], [106.8635108, -6.2211397], [106.8633572, -6.2206698], [106.8632349, -6.2202281], [106.8630785, -6.2199592], [106.8628342, -6.219769], [106.8622943, -6.2197197], [106.8619361, -6.2198034], [106.8617193, -6.2199682], [106.8615849, -6.2202101], [106.8615637, -6.2204865], [106.8616237, -6.2206184], [106.8618242, -6.2208661], [106.8618645, -6.2211339], [106.8617631, -6.2214183], [106.8616082, -6.2215943], [106.8613343, -6.2216622], [106.8610247, -6.2217142], [106.8608892, -6.2216942], [106.8606042, -6.221613], [106.8603915, -6.2215406], [106.8602265, -6.2214287], [106.860159, -6.2212431], [106.8601805, -6.221026], [106.8603222, -6.2207396], [106.8605891, -6.2203232], [106.8606795, -6.2201444], [106.8609506, -6.2195413], [106.8619624, -6.2182371], [106.8621334, -6.2178896], [106.8623078, -6.217615], [106.8625639, -6.2174003], [106.8633404, -6.2168537], [106.8634882, -6.216626], [106.8635329, -6.2164108], [106.8634658, -6.2162497], [106.8633652, -6.2161615], [106.8632915, -6.2161195], [106.8632164, -6.2161031], [106.8631195, -6.2161111], [106.8628091, -6.216197], [106.8624526, -6.2163577], [106.8619858, -6.2165828], [106.8615178, -6.2168598], [106.8607564, -6.2172807], [106.8604295, -6.2173536], [106.8600333, -6.2173122], [106.8597641, -6.217103], [106.8595441, -6.2168827], [106.8593939, -6.2166577], [106.8591193, -6.2164359], [106.8589461, -6.216334], [106.8587006, -6.2162978], [106.8585578, -6.216371], [106.8583811, -6.2165894], [106.8580893, -6.2169137], [106.8580249, -6.217157], [106.8578531, -6.2175477], [106.8577631, -6.2176304], [106.8574315, -6.2176642], [106.8569478, -6.2173403], [106.8564878, -6.216703], [106.8562869, -6.2163505], [106.8563469, -6.2159068], [106.8564928, -6.2154631], [106.8566109, -6.2150749], [106.8568673, -6.2145453], [106.85715, -6.214147], [106.8574654, -6.213795], [106.8575646, -6.21374], [106.8576548, -6.2137214], [106.857989, -6.2137257], [106.858254, -6.213628], [106.8583156, -6.2135587], [106.8583344, -6.2134894], [106.8583257, -6.2133453], [106.8579716, -6.212949], [106.8578227, -6.2127517], [106.8577651, -6.2126357], [106.8576872, -6.2125261], [106.8576001, -6.2123584], [106.8574611, -6.2121994], [106.8572758, -6.212051], [106.8570472, -6.2118687], [106.8568908, -6.2117826], [106.8566401, -6.2116959], [106.8551056, -6.2113848], [106.8545048, -6.2111099], [106.8543681, -6.2110501], [106.8542432, -6.2108032], [106.8541871, -6.2106647], [106.8540491, -6.2105369], [106.8534508, -6.2100434], [106.8527584, -6.2095543], [106.8524993, -6.2094387], [106.8523692, -6.2093867], [106.8522352, -6.2093543], [106.8516029, -6.2091849], [106.8512897, -6.2090695], [106.8507828, -6.2087602], [106.8505427, -6.2085636], [106.8501595, -6.2081811], [106.8498953, -6.2079624], [106.8496002, -6.2077672], [106.8493637, -6.2076422], [106.8492377, -6.2075896], [106.8491261, -6.2075414], [106.8491353, -6.2074693], [106.8491407, -6.2074393], [106.8491608, -6.2072926], [106.8491903, -6.2070214], [106.8493473, -6.2063571], [106.8494993, -6.2059462], [106.8497948, -6.205614], [106.8500906, -6.2055073], [106.8504345, -6.2054647], [106.8510479, -6.2058305], [106.8514159, -6.2058836], [106.8516208, -6.20591], [106.8518129, -6.205901], [106.8521962, -6.2058633], [106.852584, -6.2058447], [106.8527889, -6.2059113], [106.8529347, -6.2060118], [106.8533438, -6.2064424], [106.8535728, -6.2065264], [106.8538427, -6.2065158], [106.8543362, -6.2063598], [106.8546769, -6.2061331], [106.855159, -6.2057078], [106.8553536, -6.2053875], [106.8555251, -6.2050754], [106.8557846, -6.2044426], [106.8557712, -6.2036639], [106.8557442, -6.2034276], [106.8557026, -6.2032116], [106.8556264, -6.2029853], [106.8555071, -6.202768], [106.8554431, -6.2026537], [106.8554049, -6.202597], [106.8553447, -6.202544], [106.8552285, -6.2024417], [106.8551588, -6.202399], [106.8550457, -6.2023628], [106.8547962, -6.2023414], [106.8544158, -6.2023084], [106.8540533, -6.202244], [106.8531494, -6.2019597], [106.8529214, -6.201881], [106.8528181, -6.2018637], [106.8527149, -6.2018667], [106.8525646, -6.2019117], [106.8524506, -6.2019784], [106.8522883, -6.2020814], [106.8518592, -6.2023734], [106.8517519, -6.2024143], [106.8516352, -6.202444], [106.8515869, -6.202434], [106.8515494, -6.2024101], [106.8514931, -6.2023694], [106.8514374, -6.2023034], [106.851357, -6.2021649], [106.8512437, -6.201928], [106.8511765, -6.2017679], [106.8510412, -6.2014174], [106.8505758, -6.2006135], [106.8503236, -6.2002828], [106.8496463, -6.1996824], [106.8492171, -6.1992046], [106.8489854, -6.1984793], [106.8487708, -6.1983769], [106.8479297, -6.1983769], [106.8474698, -6.1984109], [106.8470641, -6.1986635], [106.846649, -6.1990669], [106.8462574, -6.1993282], [106.8460598, -6.1994128], [106.8458404, -6.1994296], [106.8456392, -6.1993202], [106.8454284, -6.1991767], [106.8451456, -6.1988954], [106.8450064, -6.1986388], [106.8449505, -6.1982834], [106.845084, -6.1978896], [106.8459319, -6.1962347], [106.845852, -6.1958696], [106.8456954, -6.1957658], [106.8452596, -6.1957231], [106.8446588, -6.1957738], [106.8442913, -6.1957698], [106.8441028, -6.1957058], [106.843889, -6.1955098], [106.8437368, -6.1953059], [106.8436536, -6.1948532], [106.8436245, -6.1945844], [106.8436221, -6.1942025], [106.8436067, -6.1938145], [106.8437254, -6.1936246], [106.8439399, -6.1934379], [106.8441813, -6.1932459], [106.8444549, -6.1930379], [106.8448841, -6.1927872], [106.8452392, -6.1924775], [106.8453582, -6.1922733], [106.8454018, -6.1921371], [106.8451737, -6.1918379], [106.8435108, -6.1911073], [106.8430602, -6.1909715], [106.8426317, -6.1907213], [106.8413289, -6.1895926], [106.8412042, -6.1894633], [106.8410969, -6.1892527], [106.8410607, -6.1890607], [106.8410979, -6.18889], [106.8412026, -6.1887598], [106.8415937, -6.188471], [106.8417768, -6.1882525], [106.841845, -6.1880634], [106.8418522, -6.1878831], [106.8418149, -6.1877907], [106.8416825, -6.1875846], [106.8415589, -6.1875184], [106.8407193, -6.1872348], [106.8405084, -6.187101], [106.8404451, -6.1870074], [106.8404731, -6.186802], [106.8408057, -6.1861855], [106.8408459, -6.1859587], [106.8408396, -6.1857297], [106.8407279, -6.185572], [106.8405924, -6.1855021], [106.8404167, -6.185465], [106.8395303, -6.1854884], [106.8393372, -6.1855388], [106.8386863, -6.1858135], [106.8383984, -6.1860014], [106.838116, -6.1860973], [106.8379359, -6.1861021], [106.8377779, -6.1860406], [106.8373358, -6.1855742], [106.8365872, -6.1850484], [106.8364794, -6.1849779], [106.8362606, -6.1846778], [106.8361405, -6.1843837], [106.8361528, -6.1841233], [106.8362884, -6.1837527], [106.8366211, -6.1830206], [106.8368245, -6.1824049], [106.8368645, -6.1820159], [106.8368491, -6.1818597], [106.8362668, -6.1814829], [106.8353178, -6.1810755], [106.8351514, -6.1809132], [106.8350529, -6.1807171], [106.8350498, -6.1805395], [106.835133, -6.1803679], [106.835438, -6.1800708], [106.8356537, -6.1797951], [106.83582, -6.1796113], [106.836085, -6.1794122], [106.8362545, -6.1793356], [106.8364486, -6.1791886], [106.836541, -6.1791029], [106.8366519, -6.1788946], [106.8368183, -6.1784443], [106.8369076, -6.1780062], [106.8368768, -6.1778531], [106.8367197, -6.1777888], [106.8365441, -6.1778378], [106.8363099, -6.1779879], [106.8360049, -6.1781931], [106.8356937, -6.1783432], [106.8354472, -6.1783891], [106.8350128, -6.1783861], [106.8348649, -6.1783156], [106.8347293, -6.1782053], [106.8346307, -6.1780644], [106.8345845, -6.1778837], [106.8346123, -6.1777214], [106.834754, -6.1773323], [106.8349666, -6.1768484], [106.8350498, -6.1766033], [106.8350467, -6.1764532], [106.8349604, -6.1761745], [106.8348249, -6.1757793], [106.8345229, -6.175035], [106.8343599, -6.1747577], [106.8342395, -6.1746735], [106.8341131, -6.1747164], [106.8339622, -6.1748665], [106.833691, -6.175231], [106.8334137, -6.1755741], [106.8331272, -6.1757395], [106.8327544, -6.1757977], [106.8324001, -6.1756905], [106.8322645, -6.175571], [106.832206, -6.1754148], [106.8321844, -6.1752616], [106.8322121, -6.1751207], [106.8322707, -6.1749584], [106.8324063, -6.1744905], [106.8324414, -6.1741812], [106.832604, -6.1736033], [106.8326677, -6.1734731], [106.8331011, -6.1727421], [106.8331561, -6.1725858], [106.8331243, -6.1724491], [106.8330146, -6.17234], [106.8328128, -6.1722873], [106.8321538, -6.1722406], [106.8318747, -6.1721815], [106.8317263, -6.1721008], [106.83156, -6.171851], [106.8315115, -6.1717813], [106.8320982, -6.1710205], [106.8321832, -6.1708956], [106.8323354, -6.17082], [106.8324185, -6.1707285], [106.8324787, -6.1705332], [106.8323796, -6.170403], [106.8322451, -6.1702658], [106.8320692, -6.1701317], [106.8318204, -6.1696852], [106.8315868, -6.1688231], [106.8314771, -6.1683305], [106.831469, -6.1681956], [106.8316031, -6.1675628], [106.8317355, -6.1673661], [106.8380671, -6.1638007], [106.8381964, -6.1636034], [106.8368011, -6.1579664], [106.8345784, -6.1492606], [106.8344701, -6.1489878], [106.8341633, -6.1479886], [106.8339506, -6.1472079], [106.8339831, -6.1460805], [106.8339644, -6.1456241], [106.8339085, -6.1450563], [106.8329969, -6.1409939], [106.8328314, -6.1402308], [106.8323922, -6.1381645], [106.8317929, -6.1353409], [106.8313765, -6.1337063], [106.8306243, -6.1303092], [106.830372, -6.1291434], [106.829769, -6.1255293], [106.8297534, -6.1254457], [106.8295184, -6.1241869], [106.8291908, -6.1217876], [106.8290038, -6.1205073], [106.8289044, -6.1201703], [106.8285612, -6.1178014]]}}, {"type": "Feature", "properties": {"embankment": "yes", "source": "HOT_InAWARESurvey_2017", "waterway": "stream", "osm_type": "way", "osm_id": 482338363}, "geometry": {"type": "LineString", "coordinates": [[106.8618841, -6.2111793], [106.8618016, -6.2112267], [106.8616568, -6.2113307], [106.8614529, -6.211424], [106.8609725, -6.2117163], [106.8608355, -6.2117934]]}}, {"type": "Feature", "properties": {"waterway": "river", "osm_type": "way", "osm_id": 482389159}, "geometry": {"type": "LineString", "coordinates": [[106.8697313, -6.2306511], [106.8697763, -6.2299386], [106.8699265, -6.2292666], [106.870125, -6.2284481], [106.870241, -6.2279908], [106.8703268, -6.2274976], [106.8704234, -6.2271163], [106.8705575, -6.2266657], [106.8706218, -6.2263964], [106.8706487, -6.2260604], [106.8706648, -6.2258631], [106.8706299, -6.2257004], [106.870587, -6.2256098], [106.8705253, -6.2254924], [106.8704609, -6.2253591], [106.8704207, -6.2252551], [106.8703721, -6.2251101], [106.8702946, -6.2247962], [106.8702183, -6.2244687], [106.8701453, -6.224202], [106.8700834, -6.223967], [106.8699238, -6.2233737], [106.8697468, -6.2227604], [106.8695724, -6.2223005], [106.8695013, -6.2221072], [106.8694638, -6.2219578], [106.8692908, -6.2213819], [106.8691258, -6.2207926], [106.8688388, -6.2198087], [106.8687074, -6.2194248], [106.8684396, -6.2187821], [106.8683377, -6.2185875], [106.8682572, -6.2184315], [106.86795, -6.2178349], [106.8678132, -6.2175516], [106.8677569, -6.2174436], [106.8674565, -6.216769], [106.86727, -6.2162957], [106.8672244, -6.216201], [106.8670109, -6.2157623], [106.8669144, -6.2155383], [106.8667687, -6.2153062]]}}, {"type": "Feature", "properties": {"natural": "water", "water": "river", "osm_type": "way", "osm_id": 483368290}, "geometry": {"type": "Polygon", "coordinates": [[[106.8639452, -6.2403675], [106.8639203, -6.2401828], [106.8642073, -6.2403242], [106.8642528, -6.2403359], [106.8643743, -6.2403795], [106.8645969, -6.2404261], [106.864904, -6.2405341], [106.8651468, -6.2405941], [106.8652635, -6.2405808], [106.8654485, -6.2405781], [106.8656336, -6.2405621], [106.8659193, -6.2405421], [106.866162, -6.2405088], [106.8663511, -6.2405248], [106.8664959, -6.2405635], [106.8666891, -6.2405621], [106.8667816, -6.2405501], [106.8667776, -6.2406541], [106.8666072, -6.2406821], [106.8664396, -6.2406821], [106.8663565, -6.2406768], [106.8662586, -6.2406341], [106.8661486, -6.2406101], [106.8658911, -6.2406354], [106.8656242, -6.2406501], [106.8654915, -6.2406741], [106.8653386, -6.2406794], [106.8651884, -6.2406914], [106.8651119, -6.2406554], [106.8649362, -6.2406381], [106.8646881, -6.2405995], [106.864377, -6.2405115], [106.864153, -6.2404328], [106.8639452, -6.2403675]]]}}, {"type": "Feature", "properties": {"name": "Sodetan Ciliwung", "waterway": "drain", "osm_type": "way", "osm_id": 483385976}, "geometry": {"type": "LineString", "coordinates": [[106.8768957, -6.2316872], [106.8770371, -6.2316575], [106.8770975, -6.2316015], [106.8771914, -6.2311122]]}}, {"type": "Feature", "properties": {"natural": "water", "water": "river", "osm_type": "way", "osm_id": 483385983}, "geometry": {"type": "Polygon", "coordinates": [[[106.8775052, -6.2303737], [106.8773222, -6.230228], [106.877186, -6.230403], [106.8770868, -6.2305616], [106.8770264, -6.230695], [106.8769956, -6.2308243], [106.8769848, -6.2309323], [106.8770009, -6.2310429], [106.8770915, -6.2312256], [106.8772088, -6.2312429], [106.8772155, -6.2313442], [106.8772139, -6.231369], [106.8772101, -6.2314269], [106.8771873, -6.2315535], [106.8771645, -6.2316242], [106.8772584, -6.2316268], [106.877306, -6.2317048], [106.8773385, -6.2318122], [106.8775253, -6.2318015], [106.8774327, -6.2313357], [106.8773872, -6.2310874], [106.8773676, -6.2308863], [106.8773934, -6.2306563], [106.8775052, -6.2303737]]]}}, {"type": "Feature", "properties": {"waterway": "stream", "osm_type": "way", "osm_id": 485294456}, "geometry": {"type": "LineString", "coordinates": [[106.8641018, -6.2128451], [106.8637495, -6.2125141], [106.863663, -6.2124361], [106.8635355, -6.2123448], [106.8635107, -6.2123421], [106.8633713, -6.2122348], [106.8632325, -6.2121175], [106.863083, -6.2120059], [106.862796, -6.2117659], [106.862709, -6.2117412], [106.8625868, -6.2116539], [106.8623856, -6.2114113]]}}, {"type": "Feature", "properties": {"layer": "-1", "tunnel": "culvert", "waterway": "stream", "osm_type": "way", "osm_id": 485294460}, "geometry": {"type": "LineString", "coordinates": [[106.8604947, -6.211966], [106.8607035, -6.2124204]]}}, {"type": "Feature", "properties": {"natural": "water", "water": "river", "osm_type": "way", "osm_id": 486024635}, "geometry": {"type": "Polygon", "coordinates": [[[106.8566099, -6.2148537], [106.8569078, -6.2143767], [106.8570553, -6.2144861], [106.8568394, -6.2149341], [106.8566099, -6.2148537]]]}}, {"type": "Feature", "properties": {"waterway": "river", "osm_type": "way", "osm_id": 497080882}, "geometry": {"type": "LineString", "coordinates": [[106.869783, -6.2334195], [106.8697387, -6.2328076], [106.8697226, -6.2324516], [106.8697025, -6.2318837], [106.8697012, -6.2316304], [106.869724, -6.2310398], [106.8697313, -6.2306511]]}}, {"type": "Feature", "properties": {"natural": "water", "water": "canal", "osm_type": "way", "osm_id": 502323629}, "geometry": {"type": "Polygon", "coordinates": [[[106.8907465, -6.2393677], [106.8907397, -6.239456], [106.8907356, -6.2395257], [106.8911583, -6.2395445], [106.8915594, -6.2395616], [106.8915982, -6.2395632], [106.8920488, -6.2395805], [106.8921101, -6.2395837], [106.8923573, -6.2395965], [106.892706, -6.2396298], [106.8927321, -6.2396343], [106.8930801, -6.2396938], [106.8933086, -6.2397603], [106.893579, -6.2398391], [106.8939063, -6.2399738], [106.8943636, -6.2402644], [106.894497, -6.2403698], [106.8949121, -6.2406977], [106.8952715, -6.2410036], [106.8954807, -6.2411816], [106.8959407, -6.2415628], [106.8960534, -6.2416562], [106.8965449, -6.2420833], [106.8966072, -6.2421375], [106.8971343, -6.2425441], [106.8972106, -6.2426025], [106.8973214, -6.2426873], [106.8975661, -6.2428747], [106.8976127, -6.2429138], [106.89801, -6.243247], [106.8981073, -6.2433354], [106.8982737, -6.2434867], [106.8982843, -6.2434963], [106.8984993, -6.243673], [106.8986517, -6.24376], [106.898693, -6.2437836], [106.8990313, -6.2439773], [106.8991115, -6.2440108], [106.8992928, -6.2440866], [106.8995181, -6.2441839], [106.8995691, -6.2442028], [106.8998091, -6.2442919], [106.900131, -6.2444172], [106.9003782, -6.2445134], [106.9005145, -6.2445665], [106.9009531, -6.2447278], [106.9013512, -6.2448718], [106.901916, -6.2450681], [106.9024424, -6.2452567], [106.9025645, -6.2453023], [106.9026678, -6.2453409], [106.9030078, -6.2454678], [106.9030513, -6.245484], [106.9033168, -6.2455684], [106.9033744, -6.2454484], [106.9032638, -6.2454127], [106.9029775, -6.2453047], [106.9028152, -6.2452494], [106.9016941, -6.2448521], [106.9008116, -6.2445335], [106.8999553, -6.2442399], [106.8993807, -6.2440109], [106.8991098, -6.2438696], [106.898867, -6.2437163], [106.8987074, -6.243603], [106.8984432, -6.2434097], [106.8980972, -6.243139], [106.8975755, -6.2427204], [106.8970391, -6.2422698], [106.8966689, -6.2419779], [106.8963082, -6.2416672], [106.895934, -6.2413766], [106.8956658, -6.241154], [106.8953278, -6.2408607], [106.8949161, -6.2405061], [106.8944467, -6.2401368], [106.8941249, -6.2399395], [106.8938258, -6.2397888], [106.8933738, -6.2396182], [106.893162, -6.2395662], [106.8926805, -6.2394915], [106.8922969, -6.2394689], [106.8918517, -6.2394435], [106.8913769, -6.2394115], [106.8907465, -6.2393677]]]}}, {"type": "Feature", "properties": {"natural": "water", "water": "river", "osm_type": "way", "osm_id": 502332474}, "geometry": {"type": "Polygon", "coordinates": [[[106.8922487, -6.2396348], [106.8922446, -6.2397895], [106.8922594, -6.2400001], [106.8922715, -6.2401254], [106.8923144, -6.2402254], [106.8923787, -6.2402988], [106.8924579, -6.2403374], [106.8925973, -6.2403401], [106.892655, -6.2403547], [106.8927301, -6.2404361], [106.8927838, -6.2404734], [106.8928709, -6.2404641], [106.8929769, -6.2404281], [106.8930493, -6.2404041], [106.8930976, -6.2403881], [106.8931324, -6.2403934], [106.8931794, -6.2404267], [106.8932236, -6.2404587], [106.8933108, -6.2405401], [106.8933363, -6.2406307], [106.8933725, -6.2407027], [106.8933966, -6.2408027], [106.8934221, -6.2409533], [106.8933913, -6.2410427], [106.8933779, -6.2411506], [106.893347, -6.2413053], [106.8933296, -6.2413973], [106.8933122, -6.2414839], [106.8933256, -6.2416079], [106.8933162, -6.2417519], [106.8935757, -6.2418768], [106.8936445, -6.2419282], [106.8937058, -6.2419782], [106.8937185, -6.2420439], [106.8937091, -6.2421292], [106.8936649, -6.2421812], [106.8935509, -6.2422065], [106.8933819, -6.2422465], [106.8933296, -6.2422665], [106.8933108, -6.2423252], [106.8933041, -6.2424411], [106.8933041, -6.2425318], [106.893339, -6.2425891], [106.8934758, -6.2427071], [106.8934785, -6.2427724], [106.8932827, -6.2427698], [106.8932424, -6.2426551], [106.8931727, -6.2425325], [106.8931861, -6.2423458], [106.8932183, -6.2422232], [106.893278, -6.2421948], [106.8934751, -6.2421295], [106.8936072, -6.2420995], [106.8936293, -6.2420189], [106.8936233, -6.2419742], [106.8935388, -6.2419375], [106.8934335, -6.2419009], [106.8933424, -6.2418443], [106.8932491, -6.2418342], [106.8932082, -6.2417869], [106.8932149, -6.241649], [106.8932136, -6.2415016], [106.8932371, -6.2413476], [106.8932324, -6.241209], [106.8932599, -6.2410583], [106.8933075, -6.240967], [106.8932954, -6.240801], [106.8932485, -6.2406537], [106.8931874, -6.2405631], [106.8930989, -6.2405111], [106.8929641, -6.2405291], [106.8928542, -6.2405457], [106.8927717, -6.2405351], [106.8926825, -6.2404991], [106.8926195, -6.2404297], [106.8925598, -6.2404137], [106.8924458, -6.2404017], [106.8923285, -6.2403851], [106.8922708, -6.2403624], [106.8922399, -6.2402978], [106.8921883, -6.2401884], [106.8921528, -6.2400518], [106.8921233, -6.2399285], [106.892134, -6.2397818], [106.8921347, -6.2396865], [106.89213, -6.2396318], [106.8922487, -6.2396348]]]}}, {"type": "Feature", "properties": {"source": "Bing", "waterway": "stream", "osm_type": "way", "osm_id": 723967066}, "geometry": {"type": "LineString", "coordinates": [[106.8702683, -6.2423275], [106.8703373, -6.2420664]]}}, {"type": "Feature", "properties": {"source": "Bing", "waterway": "stream", "osm_type": "way", "osm_id": 723967067}, "geometry": {"type": "LineString", "coordinates": [[106.8696831, -6.2440148], [106.8701763, -6.2425944], [106.8702683, -6.2423275]]}}, {"type": "Feature", "properties": {"source": "Bing", "waterway": "stream", "osm_type": "way", "osm_id": 723967068}, "geometry": {"type": "LineString", "coordinates": [[106.8695222, -6.2443439], [106.8696831, -6.2440148]]}}, {"type": "Feature", "properties": {"name": "Kali Malang", "note": "Saluran Irigasi Tarum Barat", "source": "Bing", "waterway": "canal", "osm_type": "way", "osm_id": 754943890}, "geometry": {"type": "LineString", "coordinates": [[106.8809678, -6.2398754], [106.8804812, -6.2398929]]}}, {"type": "Feature", "properties": {"name": "Kali Malang", "note": "Saluran Irigasi Tarum Barat", "source": "Bing", "waterway": "canal", "osm_type": "way", "osm_id": 754943891}, "geometry": {"type": "LineString", "coordinates": [[106.8804812, -6.2398929], [106.8793875, -6.2399596], [106.8788492, -6.2399721], [106.8782774, -6.2400001]]}}, {"type": "Feature", "properties": {"name": "Kali Malang", "note": "Saluran Irigasi Tarum Barat", "source": "Bing", "waterway": "canal", "osm_type": "way", "osm_id": 754943892}, "geometry": {"type": "LineString", "coordinates": [[106.8916409, -6.2395], [106.8907397, -6.239456], [106.8899422, -6.2394402]]}}, {"type": "Feature", "properties": {"name": "Kali Malang", "note": "Saluran Irigasi Tarum Barat", "source": "Bing", "waterway": "canal", "osm_type": "way", "osm_id": 754943893}, "geometry": {"type": "LineString", "coordinates": [[106.8899422, -6.2394402], [106.8890103, -6.2394972], [106.8878912, -6.2395492], [106.8856898, -6.2396167], [106.8852365, -6.2396537], [106.8841909, -6.2397154], [106.8835535, -6.2397448], [106.8809678, -6.2398754]]}}, {"type": "Feature", "properties": {"name": "Sodetan Ciliwung", "waterway": "drain", "osm_type": "way", "osm_id": 976211743}, "geometry": {"type": "LineString", "coordinates": [[106.8654761, -6.2327587], [106.8662895, -6.2322055], [106.8664102, -6.2321468], [106.8665108, -6.2321095]]}}, {"type": "Feature", "properties": {"name": "Sunter", "waterway": "river", "osm_type": "way", "osm_id": 1043383051}, "geometry": {"type": "LineString", "coordinates": [[106.8960406, -6.2165593], [106.89608, -6.2164507], [106.8961434, -6.2164101], [106.8961559, -6.2163562], [106.8961685, -6.2162086]]}}, {"type": "Feature", "properties": {"layer": "-1", "name": "Sunter", "tunnel": "culvert", "waterway": "river", "osm_type": "way", "osm_id": 1043383052}, "geometry": {"type": "LineString", "coordinates": [[106.8961685, -6.2162086], [106.8961649, -6.2160814]]}}, {"type": "Feature", "properties": {"waterway": "stream", "osm_type": "way", "osm_id": 1145008000}, "geometry": {"type": "LineString", "coordinates": [[106.8607035, -6.2124204], [106.8583257, -6.2133453]]}}, {"type": "Feature", "properties": {"embankment": "yes", "layer": "-1", "source": "HOT_InAWARESurvey_2017", "tunnel": "culvert", "waterway": "stream", "osm_type": "way", "osm_id": 1213929409}, "geometry": {"type": "LineString", "coordinates": [[106.8608355, -6.2117934], [106.8604947, -6.211966]]}}, {"type": "Feature", "properties": {"waterway": "weir", "osm_type": "way", "osm_id": 1230869491}, "geometry": {"type": "LineString", "coordinates": [[106.8772139, -6.231369], [106.8772845, -6.2313583], [106.8774327, -6.2313357]]}}, {"type": "Feature", "properties": {"layer": "-1", "name": "Sodetan Ciliwung", "tunnel": "culvert", "waterway": "drain", "osm_type": "way", "osm_id": 1230869494}, "geometry": {"type": "LineString", "coordinates": [[106.8665108, -6.2321095], [106.866897, -6.2319721], [106.8670768, -6.2319295], [106.8723902, -6.2316668], [106.8768957, -6.2316872]]}}, {"type": "Feature", "properties": {"alt_name": "Banjir Kanal Timur", "name": "Kanal Banjir Timur", "name:en": "East Flood Canal", "waterway": "river", "width": "6", "osm_type": "way", "osm_id": 1324962039}, "geometry": {"type": "LineString", "coordinates": [[106.8789614, -6.2288286], [106.8793285, -6.2285949], [106.8797636, -6.2284452], [106.8803631, -6.2283451], [106.8812227, -6.2283172], [106.8827248, -6.2283599], [106.8832925, -6.2284133], [106.8835693, -6.228485], [106.8843287, -6.2286746], [106.8854606, -6.2289732], [106.8874133, -6.2294265], [106.8896181, -6.229757], [106.8900457, -6.2297892], [106.8937326, -6.2300664], [106.8965864, -6.230173], [106.8984942, -6.2301851], [106.9012642, -6.2300451], [106.905663, -6.2301304], [106.9092679, -6.230237], [106.9107485, -6.2302797], [106.9123967, -6.2300518], [106.9190068, -6.2284514], [106.9196185, -6.2283626], [106.9205144, -6.2283126], [106.923709, -6.2282184], [106.9263283, -6.2284842], [106.9272529, -6.2285904], [106.9280943, -6.2285786], [106.9386059, -6.2275867], [106.9393918, -6.227416], [106.9400168, -6.2270374], [106.9409892, -6.2265985], [106.9425481, -6.225362], [106.9458364, -6.2224993], [106.9469395, -6.2215366], [106.9475188, -6.2209508], [106.9485542, -6.2193582], [106.9504178, -6.2165373], [106.9508947, -6.2159512], [106.9513574, -6.2155642], [106.9519416, -6.2152485], [106.9524669, -6.2149491], [106.9526584, -6.2148528], [106.9556129, -6.2131805], [106.9558594, -6.213057], [106.9580224, -6.2118922], [106.9587064, -6.2113801], [106.9606161, -6.2099083], [106.961174, -6.2092043], [106.9619256, -6.207991], [106.9627288, -6.2065332], [106.9638337, -6.2045326], [106.9653103, -6.2015916], [106.9655408, -6.2010981], [106.9658256, -6.2006299], [106.9672925, -6.1983251], [106.9675828, -6.197734], [106.9683968, -6.1963336], [106.9686799, -6.1956862], [106.9688977, -6.1949971], [106.9690265, -6.1935252], [106.9691277, -6.1916316], [106.96921, -6.1912733]]}}, {"type": "Feature", "properties": {"name": "Cipinang", "waterway": "river", "osm_type": "way", "osm_id": 1326437649}, "geometry": {"type": "LineString", "coordinates": [[106.8923701, -6.2135477], [106.892425, -6.213218], [106.8925068, -6.2129433], [106.8925792, -6.2127509]]}}, {"type": "Feature", "properties": {"layer": "-1", "tunnel": "culvert", "waterway": "river", "osm_type": "way", "osm_id": 1326462278}, "geometry": {"type": "LineString", "coordinates": [[106.8625521, -6.2434778], [106.8625561, -6.242686]]}}, {"type": "Feature", "properties": {"alt_name": "Banjir Kanal Timur", "name": "Kanal Banjir Timur", "name:en": "East Flood Canal", "waterway": "river", "osm_type": "way", "osm_id": 1329316427}, "geometry": {"type": "LineString", "coordinates": [[106.8783497, -6.2291318], [106.8785608, -6.2289972]]}}, {"type": "Feature", "properties": {"layer": "-1", "tunnel": "culvert", "waterway": "river", "osm_type": "way", "osm_id": 1329316428}, "geometry": {"type": "LineString", "coordinates": [[106.8789614, -6.2288286], [106.8785608, -6.2289972]]}}, {"type": "Feature", "properties": {"name": "Sunter", "waterway": "river", "osm_type": "way", "osm_id": 1337934103}, "geometry": {"type": "LineString", "coordinates": [[106.8957616, -6.2130054], [106.8957556, -6.2128022], [106.8957782, -6.2126298], [106.8957911, -6.2125167]]}}, {"type": "Feature", "properties": {"layer": "-1", "name": "Sunter", "tunnel": "culvert", "waterway": "river", "osm_type": "way", "osm_id": 1337934104}, "geometry": {"type": "LineString", "coordinates": [[106.8957569, -6.2136182], [106.8957636, -6.2130729], [106.8957616, -6.2130054]]}}, {"type": "Feature", "properties": {"natural": "water", "water": "river", "osm_type": "way", "osm_id": 1337936402}, "geometry": {"type": "Polygon", "coordinates": [[[106.8899914, -6.230115], [106.8901598, -6.2301452], [106.8901237, -6.2302081], [106.8900767, -6.23029], [106.890077, -6.2304062], [106.8901077, -6.2305451], [106.8900971, -6.2309981], [106.8900944, -6.2311112], [106.8902569, -6.2312074], [106.8902021, -6.2312912], [106.8900653, -6.2312262], [106.8900055, -6.2310887], [106.8899898, -6.2308663], [106.8899699, -6.2305843], [106.8899764, -6.230515], [106.8899816, -6.2302893], [106.8899914, -6.230115]]]}}, {"type": "Feature", "properties": {"natural": "water", "water": "river", "osm_type": "way", "osm_id": 1349129516}, "geometry": {"type": "Polygon", "coordinates": [[[106.8775253, -6.2318015], [106.8775109, -6.2319408], [106.877538, -6.2320375], [106.8777291, -6.2325174], [106.8776834, -6.2326847], [106.8777737, -6.2330204], [106.8779221, -6.2335508], [106.8780813, -6.2342393], [106.8782276, -6.2347483], [106.8783739, -6.235238], [106.8784922, -6.2360677], [106.8785933, -6.236566], [106.8784814, -6.2365788], [106.8783158, -6.2355759], [106.8782706, -6.2352829], [106.8781975, -6.2350541], [106.878105, -6.2347162], [106.8780491, -6.2344297], [106.8778834, -6.2338031], [106.8777092, -6.2332385], [106.8775242, -6.2326163], [106.8774059, -6.2322164], [106.8773385, -6.2318122], [106.8775253, -6.2318015]]]}}, {"type": "Feature", "properties": {"natural": "water", "water": "river", "osm_type": "way", "osm_id": 1349129517}, "geometry": {"type": "Polygon", "coordinates": [[[106.8785933, -6.236566], [106.8786729, -6.2370407], [106.8787267, -6.2374107], [106.8788339, -6.2377162], [106.8787135, -6.2377425], [106.878652, -6.237336], [106.8785374, -6.2368461], [106.8784814, -6.2365788], [106.8785933, -6.236566]]]}}]}